<?xml version="1.0" encoding="UTF-8"?>
<gpx version="1.1" creator="velograph-synthetic-fixtures" xmlns="http://www.topografix.com/GPX/1/1">
  <trk>
    <name>Synthetic Ride 3</name>
    <trkseg>
      <trkpt lat="-48.399701" lon="-123.360171"><ele>48.1</ele><time>2031-04-08T07:32:00Z</time></trkpt>
      <trkpt lat="-48.399393" lon="-123.360370"><ele>47.8</ele><time>2031-04-08T07:32:05Z</time></trkpt>
      <trkpt lat="-48.399095" lon="-123.360532"><ele>47.6</ele><time>2031-04-08T07:32:10Z</time></trkpt>
      <trkpt lat="-48.398806" lon="-123.360753"><ele>48.0</ele><time>2031-04-08T07:32:15Z</time></trkpt>
      <trkpt lat="-48.398509" lon="-123.360895"><ele>48.0</ele><time>2031-04-08T07:32:20Z</time></trkpt>
      <trkpt lat="-48.398218" lon="-123.361101"><ele>48.0</ele><time>2031-04-08T07:32:25Z</time></trkpt>
      <trkpt lat="-48.397914" lon="-123.361311"><ele>48.5</ele><time>2031-04-08T07:32:30Z</time></trkpt>
      <trkpt lat="-48.397665" lon="-123.361537"><ele>48.8</ele><time>2031-04-08T07:32:35Z</time></trkpt>
      <trkpt lat="-48.397341" lon="-123.361777"><ele>48.7</ele><time>2031-04-08T07:32:40Z</time></trkpt>
      <trkpt lat="-48.397027" lon="-123.362040"><ele>49.4</ele><time>2031-04-08T07:32:45Z</time></trkpt>
      <trkpt lat="-48.396796" lon="-123.362315"><ele>49.9</ele><time>2031-04-08T07:32:50Z</time></trkpt>
      <trkpt lat="-48.396506" lon="-123.362658"><ele>50.3</ele><time>2031-04-08T07:32:55Z</time></trkpt>
      <trkpt lat="-48.396203" lon="-123.362917"><ele>50.4</ele><time>2031-04-08T07:33:00Z</time></trkpt>
      <trkpt lat="-48.395857" lon="-123.363103"><ele>50.9</ele><time>2031-04-08T07:33:05Z</time></trkpt>
      <trkpt lat="-48.395512" lon="-123.363243"><ele>51.7</ele><time>2031-04-08T07:33:10Z</time></trkpt>
      <trkpt lat="-48.395206" lon="-123.363301"><ele>52.3</ele><time>2031-04-08T07:33:15Z</time></trkpt>
      <trkpt lat="-48.394847" lon="-123.363284"><ele>52.6</ele><time>2031-04-08T07:33:20Z</time></trkpt>
      <trkpt lat="-48.394512" lon="-123.363300"><ele>53.1</ele><time>2031-04-08T07:33:25Z</time></trkpt>
      <trkpt lat="-48.394201" lon="-123.363395"><ele>53.5</ele><time>2031-04-08T07:33:30Z</time></trkpt>
      <trkpt lat="-48.393812" lon="-123.363461"><ele>54.2</ele><time>2031-04-08T07:33:35Z</time></trkpt>
      <trkpt lat="-48.393451" lon="-123.363582"><ele>55.1</ele><time>2031-04-08T07:33:40Z</time></trkpt>
      <trkpt lat="-48.393144" lon="-123.363752"><ele>55.8</ele><time>2031-04-08T07:33:45Z</time></trkpt>
      <trkpt lat="-48.392763" lon="-123.363926"><ele>56.2</ele><time>2031-04-08T07:33:50Z</time></trkpt>
      <trkpt lat="-48.392434" lon="-123.364002"><ele>56.6</ele><time>2031-04-08T07:33:55Z</time></trkpt>
      <trkpt lat="-48.392066" lon="-123.364017"><ele>57.3</ele><time>2031-04-08T07:34:00Z</time></trkpt>
      <trkpt lat="-48.391669" lon="-123.364124"><ele>58.5</ele><time>2031-04-08T07:34:05Z</time></trkpt>
      <trkpt lat="-48.391318" lon="-123.364186"><ele>59.4</ele><time>2031-04-08T07:34:10Z</time></trkpt>
      <trkpt lat="-48.390956" lon="-123.364154"><ele>59.9</ele><time>2031-04-08T07:34:15Z</time></trkpt>
      <trkpt lat="-48.390594" lon="-123.364116"><ele>60.5</ele><time>2031-04-08T07:34:20Z</time></trkpt>
      <trkpt lat="-48.390235" lon="-123.364171"><ele>61.2</ele><time>2031-04-08T07:34:25Z</time></trkpt>
      <trkpt lat="-48.389859" lon="-123.364283"><ele>61.9</ele><time>2031-04-08T07:34:30Z</time></trkpt>
      <trkpt lat="-48.389441" lon="-123.364305"><ele>62.5</ele><time>2031-04-08T07:34:35Z</time></trkpt>
      <trkpt lat="-48.389085" lon="-123.364254"><ele>63.5</ele><time>2031-04-08T07:34:40Z</time></trkpt>
      <trkpt lat="-48.388680" lon="-123.364101"><ele>64.4</ele><time>2031-04-08T07:34:45Z</time></trkpt>
      <trkpt lat="-48.388268" lon="-123.364012"><ele>65.7</ele><time>2031-04-08T07:34:50Z</time></trkpt>
      <trkpt lat="-48.387922" lon="-123.363920"><ele>66.9</ele><time>2031-04-08T07:34:55Z</time></trkpt>
      <trkpt lat="-48.387529" lon="-123.363742"><ele>67.6</ele><time>2031-04-08T07:35:00Z</time></trkpt>
      <trkpt lat="-48.387151" lon="-123.363545"><ele>68.4</ele><time>2031-04-08T07:35:05Z</time></trkpt>
      <trkpt lat="-48.386803" lon="-123.363274"><ele>69.6</ele><time>2031-04-08T07:35:10Z</time></trkpt>
      <trkpt lat="-48.386482" lon="-123.362942"><ele>70.4</ele><time>2031-04-08T07:35:15Z</time></trkpt>
      <trkpt lat="-48.386103" lon="-123.362638"><ele>71.5</ele><time>2031-04-08T07:35:20Z</time></trkpt>
      <trkpt lat="-48.385767" lon="-123.362420"><ele>72.6</ele><time>2031-04-08T07:35:25Z</time></trkpt>
      <trkpt lat="-48.385421" lon="-123.362219"><ele>73.7</ele><time>2031-04-08T07:35:30Z</time></trkpt>
      <trkpt lat="-48.385032" lon="-123.362050"><ele>74.6</ele><time>2031-04-08T07:35:35Z</time></trkpt>
      <trkpt lat="-48.384642" lon="-123.361939"><ele>75.4</ele><time>2031-04-08T07:35:40Z</time></trkpt>
      <trkpt lat="-48.384211" lon="-123.361781"><ele>76.9</ele><time>2031-04-08T07:35:45Z</time></trkpt>
      <trkpt lat="-48.383839" lon="-123.361704"><ele>77.9</ele><time>2031-04-08T07:35:50Z</time></trkpt>
      <trkpt lat="-48.383399" lon="-123.361580"><ele>78.9</ele><time>2031-04-08T07:35:55Z</time></trkpt>
      <trkpt lat="-48.383009" lon="-123.361403"><ele>80.1</ele><time>2031-04-08T07:36:00Z</time></trkpt>
      <trkpt lat="-48.382645" lon="-123.361262"><ele>81.6</ele><time>2031-04-08T07:36:05Z</time></trkpt>
      <trkpt lat="-48.382266" lon="-123.361041"><ele>83.1</ele><time>2031-04-08T07:36:10Z</time></trkpt>
      <trkpt lat="-48.381851" lon="-123.360884"><ele>84.6</ele><time>2031-04-08T07:36:15Z</time></trkpt>
      <trkpt lat="-48.381403" lon="-123.360713"><ele>86.0</ele><time>2031-04-08T07:36:20Z</time></trkpt>
      <trkpt lat="-48.381005" lon="-123.360443"><ele>87.4</ele><time>2031-04-08T07:36:25Z</time></trkpt>
      <trkpt lat="-48.380651" lon="-123.360118"><ele>88.4</ele><time>2031-04-08T07:36:30Z</time></trkpt>
      <trkpt lat="-48.380287" lon="-123.359892"><ele>89.9</ele><time>2031-04-08T07:36:35Z</time></trkpt>
      <trkpt lat="-48.379875" lon="-123.359577"><ele>91.0</ele><time>2031-04-08T07:36:40Z</time></trkpt>
      <trkpt lat="-48.379487" lon="-123.359287"><ele>92.1</ele><time>2031-04-08T07:36:45Z</time></trkpt>
      <trkpt lat="-48.379095" lon="-123.359001"><ele>93.2</ele><time>2031-04-08T07:36:50Z</time></trkpt>
      <trkpt lat="-48.378655" lon="-123.358799"><ele>94.8</ele><time>2031-04-08T07:36:55Z</time></trkpt>
      <trkpt lat="-48.378236" lon="-123.358584"><ele>96.3</ele><time>2031-04-08T07:37:00Z</time></trkpt>
      <trkpt lat="-48.377818" lon="-123.358319"><ele>97.5</ele><time>2031-04-08T07:37:05Z</time></trkpt>
      <trkpt lat="-48.377403" lon="-123.358090"><ele>98.4</ele><time>2031-04-08T07:37:10Z</time></trkpt>
      <trkpt lat="-48.376966" lon="-123.357860"><ele>99.6</ele><time>2031-04-08T07:37:15Z</time></trkpt>
      <trkpt lat="-48.376516" lon="-123.357626"><ele>101.1</ele><time>2031-04-08T07:37:20Z</time></trkpt>
      <trkpt lat="-48.376143" lon="-123.357329"><ele>102.6</ele><time>2031-04-08T07:37:25Z</time></trkpt>
      <trkpt lat="-48.375716" lon="-123.357062"><ele>104.0</ele><time>2031-04-08T07:37:30Z</time></trkpt>
      <trkpt lat="-48.375297" lon="-123.356813"><ele>105.3</ele><time>2031-04-08T07:37:35Z</time></trkpt>
      <trkpt lat="-48.374862" lon="-123.356565"><ele>106.5</ele><time>2031-04-08T07:37:40Z</time></trkpt>
      <trkpt lat="-48.374500" lon="-123.356321"><ele>107.7</ele><time>2031-04-08T07:37:45Z</time></trkpt>
      <trkpt lat="-48.374103" lon="-123.356072"><ele>108.5</ele><time>2031-04-08T07:37:50Z</time></trkpt>
      <trkpt lat="-48.373700" lon="-123.355834"><ele>109.4</ele><time>2031-04-08T07:37:55Z</time></trkpt>
      <trkpt lat="-48.373264" lon="-123.355618"><ele>110.4</ele><time>2031-04-08T07:38:00Z</time></trkpt>
      <trkpt lat="-48.372836" lon="-123.355434"><ele>111.8</ele><time>2031-04-08T07:38:05Z</time></trkpt>
      <trkpt lat="-48.372370" lon="-123.355289"><ele>112.7</ele><time>2031-04-08T07:38:10Z</time></trkpt>
      <trkpt lat="-48.371884" lon="-123.355259"><ele>113.7</ele><time>2031-04-08T07:38:15Z</time></trkpt>
      <trkpt lat="-48.371484" lon="-123.355168"><ele>114.8</ele><time>2031-04-08T07:38:20Z</time></trkpt>
      <trkpt lat="-48.371081" lon="-123.355151"><ele>115.6</ele><time>2031-04-08T07:38:25Z</time></trkpt>
      <trkpt lat="-48.370607" lon="-123.355119"><ele>116.4</ele><time>2031-04-08T07:38:30Z</time></trkpt>
      <trkpt lat="-48.370187" lon="-123.355014"><ele>117.5</ele><time>2031-04-08T07:38:35Z</time></trkpt>
      <trkpt lat="-48.369739" lon="-123.354917"><ele>118.4</ele><time>2031-04-08T07:38:40Z</time></trkpt>
      <trkpt lat="-48.369319" lon="-123.354751"><ele>119.7</ele><time>2031-04-08T07:38:45Z</time></trkpt>
      <trkpt lat="-48.368933" lon="-123.354520"><ele>120.5</ele><time>2031-04-08T07:38:50Z</time></trkpt>
      <trkpt lat="-48.368506" lon="-123.354285"><ele>121.5</ele><time>2031-04-08T07:38:55Z</time></trkpt>
      <trkpt lat="-48.368119" lon="-123.354116"><ele>122.5</ele><time>2031-04-08T07:39:00Z</time></trkpt>
      <trkpt lat="-48.367713" lon="-123.353867"><ele>123.5</ele><time>2031-04-08T07:39:05Z</time></trkpt>
      <trkpt lat="-48.367262" lon="-123.353674"><ele>124.7</ele><time>2031-04-08T07:39:10Z</time></trkpt>
      <trkpt lat="-48.366832" lon="-123.353490"><ele>125.7</ele><time>2031-04-08T07:39:15Z</time></trkpt>
      <trkpt lat="-48.366432" lon="-123.353229"><ele>126.7</ele><time>2031-04-08T07:39:20Z</time></trkpt>
      <trkpt lat="-48.365961" lon="-123.353010"><ele>127.7</ele><time>2031-04-08T07:39:25Z</time></trkpt>
      <trkpt lat="-48.365501" lon="-123.352892"><ele>128.5</ele><time>2031-04-08T07:39:30Z</time></trkpt>
      <trkpt lat="-48.365075" lon="-123.352701"><ele>128.9</ele><time>2031-04-08T07:39:35Z</time></trkpt>
      <trkpt lat="-48.364664" lon="-123.352625"><ele>129.3</ele><time>2031-04-08T07:39:40Z</time></trkpt>
      <trkpt lat="-48.364215" lon="-123.352561"><ele>130.0</ele><time>2031-04-08T07:39:45Z</time></trkpt>
      <trkpt lat="-48.363728" lon="-123.352486"><ele>130.9</ele><time>2031-04-08T07:39:50Z</time></trkpt>
      <trkpt lat="-48.363271" lon="-123.352317"><ele>131.1</ele><time>2031-04-08T07:39:55Z</time></trkpt>
      <trkpt lat="-48.362840" lon="-123.352089"><ele>132.0</ele><time>2031-04-08T07:40:00Z</time></trkpt>
      <trkpt lat="-48.362430" lon="-123.351924"><ele>132.7</ele><time>2031-04-08T07:40:05Z</time></trkpt>
      <trkpt lat="-48.362039" lon="-123.351679"><ele>133.0</ele><time>2031-04-08T07:40:10Z</time></trkpt>
      <trkpt lat="-48.361590" lon="-123.351457"><ele>133.3</ele><time>2031-04-08T07:40:15Z</time></trkpt>
      <trkpt lat="-48.361181" lon="-123.351320"><ele>133.4</ele><time>2031-04-08T07:40:20Z</time></trkpt>
      <trkpt lat="-48.360699" lon="-123.351226"><ele>133.6</ele><time>2031-04-08T07:40:25Z</time></trkpt>
      <trkpt lat="-48.360239" lon="-123.351133"><ele>133.8</ele><time>2031-04-08T07:40:30Z</time></trkpt>
      <trkpt lat="-48.359780" lon="-123.351082"><ele>134.3</ele><time>2031-04-08T07:40:35Z</time></trkpt>
      <trkpt lat="-48.359324" lon="-123.350982"><ele>134.6</ele><time>2031-04-08T07:40:40Z</time></trkpt>
      <trkpt lat="-48.358861" lon="-123.350825"><ele>135.2</ele><time>2031-04-08T07:40:45Z</time></trkpt>
      <trkpt lat="-48.358459" lon="-123.350620"><ele>135.6</ele><time>2031-04-08T07:40:50Z</time></trkpt>
      <trkpt lat="-48.357994" lon="-123.350420"><ele>135.9</ele><time>2031-04-08T07:40:55Z</time></trkpt>
      <trkpt lat="-48.357526" lon="-123.350341"><ele>136.1</ele><time>2031-04-08T07:41:00Z</time></trkpt>
      <trkpt lat="-48.357079" lon="-123.350277"><ele>136.5</ele><time>2031-04-08T07:41:05Z</time></trkpt>
      <trkpt lat="-48.356655" lon="-123.350268"><ele>136.6</ele><time>2031-04-08T07:41:10Z</time></trkpt>
      <trkpt lat="-48.356195" lon="-123.350228"><ele>136.5</ele><time>2031-04-08T07:41:15Z</time></trkpt>
      <trkpt lat="-48.355728" lon="-123.350117"><ele>136.4</ele><time>2031-04-08T07:41:20Z</time></trkpt>
      <trkpt lat="-48.355258" lon="-123.350003"><ele>136.5</ele><time>2031-04-08T07:41:25Z</time></trkpt>
      <trkpt lat="-48.354814" lon="-123.349850"><ele>136.9</ele><time>2031-04-08T07:41:30Z</time></trkpt>
      <trkpt lat="-48.354395" lon="-123.349645"><ele>137.0</ele><time>2031-04-08T07:41:35Z</time></trkpt>
      <trkpt lat="-48.353984" lon="-123.349501"><ele>137.2</ele><time>2031-04-08T07:41:40Z</time></trkpt>
      <trkpt lat="-48.353595" lon="-123.349293"><ele>136.9</ele><time>2031-04-08T07:41:45Z</time></trkpt>
      <trkpt lat="-48.353178" lon="-123.349092"><ele>137.0</ele><time>2031-04-08T07:41:50Z</time></trkpt>
      <trkpt lat="-48.352722" lon="-123.348997"><ele>136.4</ele><time>2031-04-08T07:41:55Z</time></trkpt>
      <trkpt lat="-48.352282" lon="-123.348852"><ele>135.9</ele><time>2031-04-08T07:42:00Z</time></trkpt>
      <trkpt lat="-48.351833" lon="-123.348791"><ele>135.5</ele><time>2031-04-08T07:42:05Z</time></trkpt>
      <trkpt lat="-48.351429" lon="-123.348716"><ele>134.9</ele><time>2031-04-08T07:42:10Z</time></trkpt>
      <trkpt lat="-48.351024" lon="-123.348740"><ele>134.7</ele><time>2031-04-08T07:42:15Z</time></trkpt>
      <trkpt lat="-48.350574" lon="-123.348681"><ele>134.5</ele><time>2031-04-08T07:42:20Z</time></trkpt>
      <trkpt lat="-48.350143" lon="-123.348510"><ele>134.2</ele><time>2031-04-08T07:42:25Z</time></trkpt>
      <trkpt lat="-48.349704" lon="-123.348287"><ele>133.7</ele><time>2031-04-08T07:42:30Z</time></trkpt>
      <trkpt lat="-48.349263" lon="-123.348154"><ele>133.5</ele><time>2031-04-08T07:42:35Z</time></trkpt>
      <trkpt lat="-48.348869" lon="-123.348083"><ele>133.1</ele><time>2031-04-08T07:42:40Z</time></trkpt>
      <trkpt lat="-48.348400" lon="-123.348004"><ele>132.8</ele><time>2031-04-08T07:42:45Z</time></trkpt>
      <trkpt lat="-48.347970" lon="-123.347900"><ele>132.0</ele><time>2031-04-08T07:42:50Z</time></trkpt>
      <trkpt lat="-48.347540" lon="-123.347874"><ele>131.1</ele><time>2031-04-08T07:42:55Z</time></trkpt>
      <trkpt lat="-48.347090" lon="-123.347877"><ele>130.5</ele><time>2031-04-08T07:43:00Z</time></trkpt>
      <trkpt lat="-48.346640" lon="-123.347992"><ele>129.6</ele><time>2031-04-08T07:43:05Z</time></trkpt>
      <trkpt lat="-48.346265" lon="-123.348100"><ele>129.3</ele><time>2031-04-08T07:43:10Z</time></trkpt>
      <trkpt lat="-48.345889" lon="-123.348119"><ele>128.4</ele><time>2031-04-08T07:43:15Z</time></trkpt>
      <trkpt lat="-48.345460" lon="-123.348061"><ele>127.4</ele><time>2031-04-08T07:43:20Z</time></trkpt>
      <trkpt lat="-48.345047" lon="-123.347943"><ele>127.0</ele><time>2031-04-08T07:43:25Z</time></trkpt>
      <trkpt lat="-48.344666" lon="-123.347900"><ele>126.4</ele><time>2031-04-08T07:43:30Z</time></trkpt>
      <trkpt lat="-48.344251" lon="-123.347844"><ele>125.5</ele><time>2031-04-08T07:43:35Z</time></trkpt>
      <trkpt lat="-48.343828" lon="-123.347718"><ele>124.9</ele><time>2031-04-08T07:43:40Z</time></trkpt>
      <trkpt lat="-48.343414" lon="-123.347502"><ele>124.4</ele><time>2031-04-08T07:43:45Z</time></trkpt>
      <trkpt lat="-48.343050" lon="-123.347399"><ele>123.9</ele><time>2031-04-08T07:43:50Z</time></trkpt>
      <trkpt lat="-48.342683" lon="-123.347265"><ele>122.9</ele><time>2031-04-08T07:43:55Z</time></trkpt>
      <trkpt lat="-48.342292" lon="-123.347102"><ele>121.9</ele><time>2031-04-08T07:44:00Z</time></trkpt>
      <trkpt lat="-48.341932" lon="-123.346967"><ele>121.2</ele><time>2031-04-08T07:44:05Z</time></trkpt>
      <trkpt lat="-48.341538" lon="-123.346874"><ele>119.9</ele><time>2031-04-08T07:44:10Z</time></trkpt>
      <trkpt lat="-48.341157" lon="-123.346851"><ele>119.2</ele><time>2031-04-08T07:44:15Z</time></trkpt>
      <trkpt lat="-48.340739" lon="-123.346908"><ele>118.2</ele><time>2031-04-08T07:44:20Z</time></trkpt>
      <trkpt lat="-48.340392" lon="-123.347018"><ele>117.0</ele><time>2031-04-08T07:44:25Z</time></trkpt>
      <trkpt lat="-48.340036" lon="-123.347192"><ele>116.1</ele><time>2031-04-08T07:44:30Z</time></trkpt>
      <trkpt lat="-48.339658" lon="-123.347416"><ele>115.3</ele><time>2031-04-08T07:44:35Z</time></trkpt>
      <trkpt lat="-48.339304" lon="-123.347544"><ele>114.2</ele><time>2031-04-08T07:44:40Z</time></trkpt>
      <trkpt lat="-48.338954" lon="-123.347620"><ele>113.1</ele><time>2031-04-08T07:44:45Z</time></trkpt>
      <trkpt lat="-48.338606" lon="-123.347640"><ele>112.0</ele><time>2031-04-08T07:44:50Z</time></trkpt>
      <trkpt lat="-48.338259" lon="-123.347676"><ele>110.9</ele><time>2031-04-08T07:44:55Z</time></trkpt>
      <trkpt lat="-48.337918" lon="-123.347784"><ele>109.5</ele><time>2031-04-08T07:45:00Z</time></trkpt>
      <trkpt lat="-48.337581" lon="-123.347987"><ele>108.7</ele><time>2031-04-08T07:45:05Z</time></trkpt>
      <trkpt lat="-48.337214" lon="-123.348148"><ele>107.9</ele><time>2031-04-08T07:45:10Z</time></trkpt>
      <trkpt lat="-48.336871" lon="-123.348350"><ele>107.0</ele><time>2031-04-08T07:45:15Z</time></trkpt>
      <trkpt lat="-48.336471" lon="-123.348513"><ele>105.8</ele><time>2031-04-08T07:45:20Z</time></trkpt>
      <trkpt lat="-48.336145" lon="-123.348628"><ele>104.2</ele><time>2031-04-08T07:45:25Z</time></trkpt>
      <trkpt lat="-48.335802" lon="-123.348785"><ele>102.8</ele><time>2031-04-08T07:45:30Z</time></trkpt>
      <trkpt lat="-48.335420" lon="-123.348888"><ele>101.5</ele><time>2031-04-08T07:45:35Z</time></trkpt>
      <trkpt lat="-48.335064" lon="-123.348966"><ele>100.5</ele><time>2031-04-08T07:45:40Z</time></trkpt>
      <trkpt lat="-48.334673" lon="-123.349131"><ele>99.2</ele><time>2031-04-08T07:45:45Z</time></trkpt>
      <trkpt lat="-48.334333" lon="-123.349207"><ele>98.1</ele><time>2031-04-08T07:45:50Z</time></trkpt>
      <trkpt lat="-48.334012" lon="-123.349351"><ele>97.2</ele><time>2031-04-08T07:45:55Z</time></trkpt>
      <trkpt lat="-48.333684" lon="-123.349517"><ele>96.2</ele><time>2031-04-08T07:46:00Z</time></trkpt>
      <trkpt lat="-48.333329" lon="-123.349609"><ele>95.4</ele><time>2031-04-08T07:46:05Z</time></trkpt>
      <trkpt lat="-48.332996" lon="-123.349625"><ele>93.8</ele><time>2031-04-08T07:46:10Z</time></trkpt>
      <trkpt lat="-48.332661" lon="-123.349570"><ele>92.5</ele><time>2031-04-08T07:46:15Z</time></trkpt>
      <trkpt lat="-48.332268" lon="-123.349540"><ele>91.7</ele><time>2031-04-08T07:46:20Z</time></trkpt>
      <trkpt lat="-48.331884" lon="-123.349564"><ele>90.1</ele><time>2031-04-08T07:46:25Z</time></trkpt>
      <trkpt lat="-48.331571" lon="-123.349615"><ele>88.8</ele><time>2031-04-08T07:46:30Z</time></trkpt>
      <trkpt lat="-48.331191" lon="-123.349691"><ele>87.5</ele><time>2031-04-08T07:46:35Z</time></trkpt>
      <trkpt lat="-48.330833" lon="-123.349854"><ele>86.4</ele><time>2031-04-08T07:46:40Z</time></trkpt>
      <trkpt lat="-48.330550" lon="-123.350020"><ele>85.3</ele><time>2031-04-08T07:46:45Z</time></trkpt>
      <trkpt lat="-48.330239" lon="-123.350285"><ele>84.5</ele><time>2031-04-08T07:46:50Z</time></trkpt>
      <trkpt lat="-48.329997" lon="-123.350567"><ele>83.5</ele><time>2031-04-08T07:46:55Z</time></trkpt>
      <trkpt lat="-48.329681" lon="-123.350865"><ele>82.0</ele><time>2031-04-08T07:47:00Z</time></trkpt>
      <trkpt lat="-48.329407" lon="-123.351121"><ele>80.5</ele><time>2031-04-08T07:47:05Z</time></trkpt>
      <trkpt lat="-48.329117" lon="-123.351418"><ele>79.6</ele><time>2031-04-08T07:47:10Z</time></trkpt>
      <trkpt lat="-48.328891" lon="-123.351712"><ele>78.8</ele><time>2031-04-08T07:47:15Z</time></trkpt>
      <trkpt lat="-48.328672" lon="-123.352035"><ele>77.4</ele><time>2031-04-08T07:47:20Z</time></trkpt>
      <trkpt lat="-48.328428" lon="-123.352396"><ele>75.9</ele><time>2031-04-08T07:47:25Z</time></trkpt>
      <trkpt lat="-48.328250" lon="-123.352748"><ele>75.2</ele><time>2031-04-08T07:47:30Z</time></trkpt>
      <trkpt lat="-48.328068" lon="-123.353097"><ele>73.9</ele><time>2031-04-08T07:47:35Z</time></trkpt>
      <trkpt lat="-48.327884" lon="-123.353485"><ele>72.6</ele><time>2031-04-08T07:47:40Z</time></trkpt>
      <trkpt lat="-48.327713" lon="-123.353952"><ele>71.7</ele><time>2031-04-08T07:47:45Z</time></trkpt>
      <trkpt lat="-48.327539" lon="-123.354298"><ele>70.9</ele><time>2031-04-08T07:47:50Z</time></trkpt>
      <trkpt lat="-48.327349" lon="-123.354635"><ele>69.5</ele><time>2031-04-08T07:47:55Z</time></trkpt>
      <trkpt lat="-48.327163" lon="-123.354938"><ele>68.3</ele><time>2031-04-08T07:48:00Z</time></trkpt>
      <trkpt lat="-48.326933" lon="-123.355317"><ele>67.3</ele><time>2031-04-08T07:48:05Z</time></trkpt>
      <trkpt lat="-48.326710" lon="-123.355659"><ele>66.7</ele><time>2031-04-08T07:48:10Z</time></trkpt>
      <trkpt lat="-48.326508" lon="-123.355913"><ele>66.0</ele><time>2031-04-08T07:48:15Z</time></trkpt>
      <trkpt lat="-48.326286" lon="-123.356183"><ele>65.3</ele><time>2031-04-08T07:48:20Z</time></trkpt>
      <trkpt lat="-48.326027" lon="-123.356430"><ele>64.7</ele><time>2031-04-08T07:48:25Z</time></trkpt>
      <trkpt lat="-48.325736" lon="-123.356661"><ele>63.5</ele><time>2031-04-08T07:48:30Z</time></trkpt>
      <trkpt lat="-48.325473" lon="-123.356966"><ele>62.7</ele><time>2031-04-08T07:48:35Z</time></trkpt>
      <trkpt lat="-48.325253" lon="-123.357155"><ele>61.8</ele><time>2031-04-08T07:48:40Z</time></trkpt>
      <trkpt lat="-48.325049" lon="-123.357383"><ele>60.9</ele><time>2031-04-08T07:48:45Z</time></trkpt>
      <trkpt lat="-48.324804" lon="-123.357571"><ele>60.2</ele><time>2031-04-08T07:48:50Z</time></trkpt>
      <trkpt lat="-48.324560" lon="-123.357721"><ele>59.4</ele><time>2031-04-08T07:48:55Z</time></trkpt>
      <trkpt lat="-48.324304" lon="-123.357857"><ele>58.6</ele><time>2031-04-08T07:49:00Z</time></trkpt>
      <trkpt lat="-48.323992" lon="-123.357976"><ele>57.7</ele><time>2031-04-08T07:49:05Z</time></trkpt>
      <trkpt lat="-48.323718" lon="-123.358018"><ele>56.8</ele><time>2031-04-08T07:49:10Z</time></trkpt>
      <trkpt lat="-48.323456" lon="-123.358124"><ele>56.0</ele><time>2031-04-08T07:49:15Z</time></trkpt>
      <trkpt lat="-48.323226" lon="-123.358277"><ele>55.0</ele><time>2031-04-08T07:49:20Z</time></trkpt>
      <trkpt lat="-48.322982" lon="-123.358381"><ele>54.7</ele><time>2031-04-08T07:49:25Z</time></trkpt>
      <trkpt lat="-48.322774" lon="-123.358509"><ele>54.6</ele><time>2031-04-08T07:49:30Z</time></trkpt>
      <trkpt lat="-48.322539" lon="-123.358619"><ele>54.3</ele><time>2031-04-08T07:49:35Z</time></trkpt>
      <trkpt lat="-48.322335" lon="-123.358755"><ele>54.0</ele><time>2031-04-08T07:49:40Z</time></trkpt>
      <trkpt lat="-48.322123" lon="-123.358903"><ele>53.8</ele><time>2031-04-08T07:49:45Z</time></trkpt>
      <trkpt lat="-48.321875" lon="-123.359038"><ele>53.2</ele><time>2031-04-08T07:49:50Z</time></trkpt>
      <trkpt lat="-48.321652" lon="-123.359160"><ele>53.1</ele><time>2031-04-08T07:49:55Z</time></trkpt>
      <trkpt lat="-48.321366" lon="-123.359290"><ele>52.6</ele><time>2031-04-08T07:50:00Z</time></trkpt>
      <trkpt lat="-48.321131" lon="-123.359333"><ele>52.6</ele><time>2031-04-08T07:50:05Z</time></trkpt>
      <trkpt lat="-48.320871" lon="-123.359374"><ele>52.5</ele><time>2031-04-08T07:50:10Z</time></trkpt>
      <trkpt lat="-48.320660" lon="-123.359390"><ele>52.1</ele><time>2031-04-08T07:50:15Z</time></trkpt>
      <trkpt lat="-48.320430" lon="-123.359353"><ele>51.8</ele><time>2031-04-08T07:50:20Z</time></trkpt>
      <trkpt lat="-48.320207" lon="-123.359260"><ele>51.4</ele><time>2031-04-08T07:50:25Z</time></trkpt>
      <trkpt lat="-48.319995" lon="-123.359172"><ele>51.4</ele><time>2031-04-08T07:50:30Z</time></trkpt>
      <trkpt lat="-48.319726" lon="-123.359131"><ele>51.3</ele><time>2031-04-08T07:50:35Z</time></trkpt>
      <trkpt lat="-48.319483" lon="-123.359053"><ele>51.1</ele><time>2031-04-08T07:50:40Z</time></trkpt>
      <trkpt lat="-48.319289" lon="-123.359026"><ele>50.9</ele><time>2031-04-08T07:50:45Z</time></trkpt>
      <trkpt lat="-48.319089" lon="-123.358997"><ele>51.2</ele><time>2031-04-08T07:50:50Z</time></trkpt>
      <trkpt lat="-48.318851" lon="-123.358969"><ele>50.8</ele><time>2031-04-08T07:50:55Z</time></trkpt>
      <trkpt lat="-48.318608" lon="-123.358969"><ele>50.7</ele><time>2031-04-08T07:51:00Z</time></trkpt>
      <trkpt lat="-48.318412" lon="-123.359002"><ele>51.0</ele><time>2031-04-08T07:51:05Z</time></trkpt>
      <trkpt lat="-48.318200" lon="-123.359041"><ele>51.1</ele><time>2031-04-08T07:51:10Z</time></trkpt>
      <trkpt lat="-48.318003" lon="-123.359104"><ele>51.2</ele><time>2031-04-08T07:51:15Z</time></trkpt>
      <trkpt lat="-48.317810" lon="-123.359125"><ele>51.1</ele><time>2031-04-08T07:51:20Z</time></trkpt>
      <trkpt lat="-48.317543" lon="-123.359136"><ele>51.5</ele><time>2031-04-08T07:51:25Z</time></trkpt>
      <trkpt lat="-48.317324" lon="-123.359198"><ele>52.1</ele><time>2031-04-08T07:51:30Z</time></trkpt>
      <trkpt lat="-48.317127" lon="-123.359302"><ele>52.1</ele><time>2031-04-08T07:51:35Z</time></trkpt>
      <trkpt lat="-48.316925" lon="-123.359354"><ele>52.0</ele><time>2031-04-08T07:51:40Z</time></trkpt>
      <trkpt lat="-48.316735" lon="-123.359443"><ele>52.2</ele><time>2031-04-08T07:51:45Z</time></trkpt>
      <trkpt lat="-48.316545" lon="-123.359532"><ele>52.8</ele><time>2031-04-08T07:51:50Z</time></trkpt>
      <trkpt lat="-48.316333" lon="-123.359595"><ele>53.5</ele><time>2031-04-08T07:51:55Z</time></trkpt>
      <trkpt lat="-48.316127" lon="-123.359628"><ele>53.9</ele><time>2031-04-08T07:52:00Z</time></trkpt>
      <trkpt lat="-48.315905" lon="-123.359688"><ele>54.7</ele><time>2031-04-08T07:52:05Z</time></trkpt>
      <trkpt lat="-48.315678" lon="-123.359712"><ele>55.4</ele><time>2031-04-08T07:52:10Z</time></trkpt>
      <trkpt lat="-48.315451" lon="-123.359686"><ele>56.0</ele><time>2031-04-08T07:52:15Z</time></trkpt>
      <trkpt lat="-48.315282" lon="-123.359654"><ele>56.7</ele><time>2031-04-08T07:52:20Z</time></trkpt>
      <trkpt lat="-48.315083" lon="-123.359628"><ele>57.5</ele><time>2031-04-08T07:52:25Z</time></trkpt>
      <trkpt lat="-48.314879" lon="-123.359582"><ele>58.1</ele><time>2031-04-08T07:52:30Z</time></trkpt>
      <trkpt lat="-48.314683" lon="-123.359555"><ele>58.9</ele><time>2031-04-08T07:52:35Z</time></trkpt>
      <trkpt lat="-48.314453" lon="-123.359470"><ele>59.8</ele><time>2031-04-08T07:52:40Z</time></trkpt>
      <trkpt lat="-48.314247" lon="-123.359424"><ele>60.3</ele><time>2031-04-08T07:52:45Z</time></trkpt>
      <trkpt lat="-48.314018" lon="-123.359400"><ele>61.4</ele><time>2031-04-08T07:52:50Z</time></trkpt>
      <trkpt lat="-48.313852" lon="-123.359356"><ele>61.9</ele><time>2031-04-08T07:52:55Z</time></trkpt>
      <trkpt lat="-48.313665" lon="-123.359291"><ele>62.9</ele><time>2031-04-08T07:53:00Z</time></trkpt>
      <trkpt lat="-48.313457" lon="-123.359244"><ele>63.9</ele><time>2031-04-08T07:53:05Z</time></trkpt>
      <trkpt lat="-48.313277" lon="-123.359169"><ele>64.9</ele><time>2031-04-08T07:53:10Z</time></trkpt>
      <trkpt lat="-48.313123" lon="-123.359109"><ele>65.8</ele><time>2031-04-08T07:53:15Z</time></trkpt>
      <trkpt lat="-48.312926" lon="-123.359032"><ele>66.6</ele><time>2031-04-08T07:53:20Z</time></trkpt>
      <trkpt lat="-48.312705" lon="-123.359002"><ele>67.2</ele><time>2031-04-08T07:53:25Z</time></trkpt>
      <trkpt lat="-48.312527" lon="-123.358986"><ele>68.3</ele><time>2031-04-08T07:53:30Z</time></trkpt>
      <trkpt lat="-48.312333" lon="-123.358957"><ele>69.0</ele><time>2031-04-08T07:53:35Z</time></trkpt>
      <trkpt lat="-48.312165" lon="-123.358918"><ele>70.0</ele><time>2031-04-08T07:53:40Z</time></trkpt>
      <trkpt lat="-48.312000" lon="-123.358840"><ele>71.1</ele><time>2031-04-08T07:53:45Z</time></trkpt>
      <trkpt lat="-48.311839" lon="-123.358804"><ele>71.7</ele><time>2031-04-08T07:53:50Z</time></trkpt>
      <trkpt lat="-48.311647" lon="-123.358708"><ele>72.7</ele><time>2031-04-08T07:53:55Z</time></trkpt>
      <trkpt lat="-48.311504" lon="-123.358625"><ele>74.0</ele><time>2031-04-08T07:54:00Z</time></trkpt>
      <trkpt lat="-48.311345" lon="-123.358495"><ele>75.1</ele><time>2031-04-08T07:54:05Z</time></trkpt>
      <trkpt lat="-48.311156" lon="-123.358391"><ele>76.4</ele><time>2031-04-08T07:54:10Z</time></trkpt>
      <trkpt lat="-48.311005" lon="-123.358335"><ele>77.4</ele><time>2031-04-08T07:54:15Z</time></trkpt>
      <trkpt lat="-48.310872" lon="-123.358271"><ele>78.4</ele><time>2031-04-08T07:54:20Z</time></trkpt>
      <trkpt lat="-48.310675" lon="-123.358212"><ele>79.2</ele><time>2031-04-08T07:54:25Z</time></trkpt>
      <trkpt lat="-48.310472" lon="-123.358106"><ele>80.2</ele><time>2031-04-08T07:54:30Z</time></trkpt>
      <trkpt lat="-48.310310" lon="-123.358001"><ele>81.3</ele><time>2031-04-08T07:54:35Z</time></trkpt>
      <trkpt lat="-48.310121" lon="-123.357931"><ele>82.7</ele><time>2031-04-08T07:54:40Z</time></trkpt>
      <trkpt lat="-48.309917" lon="-123.357863"><ele>84.1</ele><time>2031-04-08T07:54:45Z</time></trkpt>
      <trkpt lat="-48.309715" lon="-123.357757"><ele>85.1</ele><time>2031-04-08T07:54:50Z</time></trkpt>
      <trkpt lat="-48.309536" lon="-123.357682"><ele>86.2</ele><time>2031-04-08T07:54:55Z</time></trkpt>
      <trkpt lat="-48.309390" lon="-123.357609"><ele>87.3</ele><time>2031-04-08T07:55:00Z</time></trkpt>
      <trkpt lat="-48.309246" lon="-123.357497"><ele>88.4</ele><time>2031-04-08T07:55:05Z</time></trkpt>
      <trkpt lat="-48.309132" lon="-123.357377"><ele>89.4</ele><time>2031-04-08T07:55:10Z</time></trkpt>
      <trkpt lat="-48.308998" lon="-123.357224"><ele>90.7</ele><time>2031-04-08T07:55:15Z</time></trkpt>
      <trkpt lat="-48.308898" lon="-123.357079"><ele>91.6</ele><time>2031-04-08T07:55:20Z</time></trkpt>
      <trkpt lat="-48.308767" lon="-123.356845"><ele>92.8</ele><time>2031-04-08T07:55:25Z</time></trkpt>
      <trkpt lat="-48.308657" lon="-123.356633"><ele>94.2</ele><time>2031-04-08T07:55:30Z</time></trkpt>
      <trkpt lat="-48.308572" lon="-123.356430"><ele>95.3</ele><time>2031-04-08T07:55:35Z</time></trkpt>
      <trkpt lat="-48.308484" lon="-123.356245"><ele>96.6</ele><time>2031-04-08T07:55:40Z</time></trkpt>
      <trkpt lat="-48.308401" lon="-123.355989"><ele>98.2</ele><time>2031-04-08T07:55:45Z</time></trkpt>
      <trkpt lat="-48.308342" lon="-123.355745"><ele>99.7</ele><time>2031-04-08T07:55:50Z</time></trkpt>
      <trkpt lat="-48.308291" lon="-123.355472"><ele>101.1</ele><time>2031-04-08T07:55:55Z</time></trkpt>
      <trkpt lat="-48.308270" lon="-123.355169"><ele>102.5</ele><time>2031-04-08T07:56:00Z</time></trkpt>
      <trkpt lat="-48.308277" lon="-123.354959"><ele>103.9</ele><time>2031-04-08T07:56:05Z</time></trkpt>
      <trkpt lat="-48.308275" lon="-123.354652"><ele>104.9</ele><time>2031-04-08T07:56:10Z</time></trkpt>
      <trkpt lat="-48.308244" lon="-123.354393"><ele>105.9</ele><time>2031-04-08T07:56:15Z</time></trkpt>
      <trkpt lat="-48.308228" lon="-123.354099"><ele>107.1</ele><time>2031-04-08T07:56:20Z</time></trkpt>
      <trkpt lat="-48.308206" lon="-123.353845"><ele>108.5</ele><time>2031-04-08T07:56:25Z</time></trkpt>
      <trkpt lat="-48.308187" lon="-123.353613"><ele>109.4</ele><time>2031-04-08T07:56:30Z</time></trkpt>
      <trkpt lat="-48.308167" lon="-123.353391"><ele>110.3</ele><time>2031-04-08T07:56:35Z</time></trkpt>
      <trkpt lat="-48.308159" lon="-123.353080"><ele>111.1</ele><time>2031-04-08T07:56:40Z</time></trkpt>
      <trkpt lat="-48.308155" lon="-123.352862"><ele>112.0</ele><time>2031-04-08T07:56:45Z</time></trkpt>
      <trkpt lat="-48.308172" lon="-123.352546"><ele>113.2</ele><time>2031-04-08T07:56:50Z</time></trkpt>
      <trkpt lat="-48.308172" lon="-123.352245"><ele>114.0</ele><time>2031-04-08T07:56:55Z</time></trkpt>
      <trkpt lat="-48.308152" lon="-123.351983"><ele>114.7</ele><time>2031-04-08T07:57:00Z</time></trkpt>
      <trkpt lat="-48.308162" lon="-123.351728"><ele>115.4</ele><time>2031-04-08T07:57:05Z</time></trkpt>
      <trkpt lat="-48.308168" lon="-123.351486"><ele>116.5</ele><time>2031-04-08T07:57:10Z</time></trkpt>
      <trkpt lat="-48.308159" lon="-123.351150"><ele>117.5</ele><time>2031-04-08T07:57:15Z</time></trkpt>
      <trkpt lat="-48.308185" lon="-123.350843"><ele>118.8</ele><time>2031-04-08T07:57:20Z</time></trkpt>
      <trkpt lat="-48.308208" lon="-123.350566"><ele>119.5</ele><time>2031-04-08T07:57:25Z</time></trkpt>
      <trkpt lat="-48.308223" lon="-123.350327"><ele>120.8</ele><time>2031-04-08T07:57:30Z</time></trkpt>
      <trkpt lat="-48.308277" lon="-123.349987"><ele>121.9</ele><time>2031-04-08T07:57:35Z</time></trkpt>
      <trkpt lat="-48.308310" lon="-123.349704"><ele>122.8</ele><time>2031-04-08T07:57:40Z</time></trkpt>
      <trkpt lat="-48.308332" lon="-123.349385"><ele>123.4</ele><time>2031-04-08T07:57:45Z</time></trkpt>
      <trkpt lat="-48.308354" lon="-123.349101"><ele>124.0</ele><time>2031-04-08T07:57:50Z</time></trkpt>
      <trkpt lat="-48.308388" lon="-123.348805"><ele>124.7</ele><time>2031-04-08T07:57:55Z</time></trkpt>
      <trkpt lat="-48.308447" lon="-123.348531"><ele>125.8</ele><time>2031-04-08T07:58:00Z</time></trkpt>
      <trkpt lat="-48.308503" lon="-123.348191"><ele>126.2</ele><time>2031-04-08T07:58:05Z</time></trkpt>
      <trkpt lat="-48.308572" lon="-123.347907"><ele>127.2</ele><time>2031-04-08T07:58:10Z</time></trkpt>
      <trkpt lat="-48.308640" lon="-123.347668"><ele>128.2</ele><time>2031-04-08T07:58:15Z</time></trkpt>
      <trkpt lat="-48.308727" lon="-123.347418"><ele>129.1</ele><time>2031-04-08T07:58:20Z</time></trkpt>
      <trkpt lat="-48.308852" lon="-123.347134"><ele>129.9</ele><time>2031-04-08T07:58:25Z</time></trkpt>
      <trkpt lat="-48.308992" lon="-123.346862"><ele>130.5</ele><time>2031-04-08T07:58:30Z</time></trkpt>
      <trkpt lat="-48.309084" lon="-123.346655"><ele>130.8</ele><time>2031-04-08T07:58:35Z</time></trkpt>
      <trkpt lat="-48.309181" lon="-123.346418"><ele>131.7</ele><time>2031-04-08T07:58:40Z</time></trkpt>
      <trkpt lat="-48.309270" lon="-123.346203"><ele>132.0</ele><time>2031-04-08T07:58:45Z</time></trkpt>
      <trkpt lat="-48.309410" lon="-123.345907"><ele>132.5</ele><time>2031-04-08T07:58:50Z</time></trkpt>
      <trkpt lat="-48.309534" lon="-123.345685"><ele>132.7</ele><time>2031-04-08T07:58:55Z</time></trkpt>
      <trkpt lat="-48.309707" lon="-123.345445"><ele>133.0</ele><time>2031-04-08T07:59:00Z</time></trkpt>
      <trkpt lat="-48.309912" lon="-123.345218"><ele>133.7</ele><time>2031-04-08T07:59:05Z</time></trkpt>
      <trkpt lat="-48.310123" lon="-123.345023"><ele>134.1</ele><time>2031-04-08T07:59:10Z</time></trkpt>
      <trkpt lat="-48.310348" lon="-123.344845"><ele>134.9</ele><time>2031-04-08T07:59:15Z</time></trkpt>
      <trkpt lat="-48.310551" lon="-123.344654"><ele>135.2</ele><time>2031-04-08T07:59:20Z</time></trkpt>
      <trkpt lat="-48.310709" lon="-123.344536"><ele>135.7</ele><time>2031-04-08T07:59:25Z</time></trkpt>
      <trkpt lat="-48.310891" lon="-123.344354"><ele>135.8</ele><time>2031-04-08T07:59:30Z</time></trkpt>
      <trkpt lat="-48.311123" lon="-123.344159"><ele>135.8</ele><time>2031-04-08T07:59:35Z</time></trkpt>
      <trkpt lat="-48.311296" lon="-123.344010"><ele>135.8</ele><time>2031-04-08T07:59:40Z</time></trkpt>
      <trkpt lat="-48.311521" lon="-123.343851"><ele>135.8</ele><time>2031-04-08T07:59:45Z</time></trkpt>
      <trkpt lat="-48.311712" lon="-123.343710"><ele>136.3</ele><time>2031-04-08T07:59:50Z</time></trkpt>
      <trkpt lat="-48.311879" lon="-123.343534"><ele>136.7</ele><time>2031-04-08T07:59:55Z</time></trkpt>
      <trkpt lat="-48.312033" lon="-123.343380"><ele>137.2</ele><time>2031-04-08T08:00:00Z</time></trkpt>
      <trkpt lat="-48.312249" lon="-123.343133"><ele>137.4</ele><time>2031-04-08T08:00:05Z</time></trkpt>
      <trkpt lat="-48.312460" lon="-123.342917"><ele>137.2</ele><time>2031-04-08T08:00:10Z</time></trkpt>
      <trkpt lat="-48.312653" lon="-123.342640"><ele>137.3</ele><time>2031-04-08T08:00:15Z</time></trkpt>
      <trkpt lat="-48.312842" lon="-123.342346"><ele>137.4</ele><time>2031-04-08T08:00:20Z</time></trkpt>
      <trkpt lat="-48.313020" lon="-123.342114"><ele>137.5</ele><time>2031-04-08T08:00:25Z</time></trkpt>
      <trkpt lat="-48.313168" lon="-123.341893"><ele>137.5</ele><time>2031-04-08T08:00:30Z</time></trkpt>
      <trkpt lat="-48.313349" lon="-123.341597"><ele>137.0</ele><time>2031-04-08T08:00:35Z</time></trkpt>
      <trkpt lat="-48.313517" lon="-123.341371"><ele>136.9</ele><time>2031-04-08T08:00:40Z</time></trkpt>
      <trkpt lat="-48.313671" lon="-123.341151"><ele>136.4</ele><time>2031-04-08T08:00:45Z</time></trkpt>
      <trkpt lat="-48.313846" lon="-123.340879"><ele>136.4</ele><time>2031-04-08T08:00:50Z</time></trkpt>
      <trkpt lat="-48.314005" lon="-123.340593"><ele>136.5</ele><time>2031-04-08T08:00:55Z</time></trkpt>
      <trkpt lat="-48.314142" lon="-123.340244"><ele>136.0</ele><time>2031-04-08T08:01:00Z</time></trkpt>
      <trkpt lat="-48.314290" lon="-123.339957"><ele>135.4</ele><time>2031-04-08T08:01:05Z</time></trkpt>
      <trkpt lat="-48.314403" lon="-123.339662"><ele>134.7</ele><time>2031-04-08T08:01:10Z</time></trkpt>
      <trkpt lat="-48.314495" lon="-123.339307"><ele>134.2</ele><time>2031-04-08T08:01:15Z</time></trkpt>
      <trkpt lat="-48.314564" lon="-123.338868"><ele>133.5</ele><time>2031-04-08T08:01:20Z</time></trkpt>
      <trkpt lat="-48.314654" lon="-123.338525"><ele>133.1</ele><time>2031-04-08T08:01:25Z</time></trkpt>
      <trkpt lat="-48.314791" lon="-123.338164"><ele>133.0</ele><time>2031-04-08T08:01:30Z</time></trkpt>
      <trkpt lat="-48.314936" lon="-123.337884"><ele>132.1</ele><time>2031-04-08T08:01:35Z</time></trkpt>
      <trkpt lat="-48.315093" lon="-123.337491"><ele>131.7</ele><time>2031-04-08T08:01:40Z</time></trkpt>
      <trkpt lat="-48.315177" lon="-123.337168"><ele>130.8</ele><time>2031-04-08T08:01:45Z</time></trkpt>
      <trkpt lat="-48.315245" lon="-123.336783"><ele>130.6</ele><time>2031-04-08T08:01:50Z</time></trkpt>
      <trkpt lat="-48.315322" lon="-123.336353"><ele>130.0</ele><time>2031-04-08T08:01:55Z</time></trkpt>
      <trkpt lat="-48.315346" lon="-123.335978"><ele>129.1</ele><time>2031-04-08T08:02:00Z</time></trkpt>
      <trkpt lat="-48.315327" lon="-123.335595"><ele>128.6</ele><time>2031-04-08T08:02:05Z</time></trkpt>
      <trkpt lat="-48.315312" lon="-123.335142"><ele>127.6</ele><time>2031-04-08T08:02:10Z</time></trkpt>
      <trkpt lat="-48.315246" lon="-123.334664"><ele>126.9</ele><time>2031-04-08T08:02:15Z</time></trkpt>
      <trkpt lat="-48.315200" lon="-123.334279"><ele>126.2</ele><time>2031-04-08T08:02:20Z</time></trkpt>
      <trkpt lat="-48.315161" lon="-123.333834"><ele>125.2</ele><time>2031-04-08T08:02:25Z</time></trkpt>
      <trkpt lat="-48.315158" lon="-123.333430"><ele>124.1</ele><time>2031-04-08T08:02:30Z</time></trkpt>
      <trkpt lat="-48.315108" lon="-123.332994"><ele>123.0</ele><time>2031-04-08T08:02:35Z</time></trkpt>
      <trkpt lat="-48.315094" lon="-123.332606"><ele>122.5</ele><time>2031-04-08T08:02:40Z</time></trkpt>
      <trkpt lat="-48.315076" lon="-123.332101"><ele>122.0</ele><time>2031-04-08T08:02:45Z</time></trkpt>
      <trkpt lat="-48.315088" lon="-123.331657"><ele>120.9</ele><time>2031-04-08T08:02:50Z</time></trkpt>
      <trkpt lat="-48.315124" lon="-123.331175"><ele>119.9</ele><time>2031-04-08T08:02:55Z</time></trkpt>
      <trkpt lat="-48.315112" lon="-123.330723"><ele>119.2</ele><time>2031-04-08T08:03:00Z</time></trkpt>
      <trkpt lat="-48.315149" lon="-123.330219"><ele>118.5</ele><time>2031-04-08T08:03:05Z</time></trkpt>
      <trkpt lat="-48.315209" lon="-123.329785"><ele>117.9</ele><time>2031-04-08T08:03:10Z</time></trkpt>
      <trkpt lat="-48.315225" lon="-123.329275"><ele>117.2</ele><time>2031-04-08T08:03:15Z</time></trkpt>
      <trkpt lat="-48.315209" lon="-123.328818"><ele>116.5</ele><time>2031-04-08T08:03:20Z</time></trkpt>
      <trkpt lat="-48.315200" lon="-123.328350"><ele>115.5</ele><time>2031-04-08T08:03:25Z</time></trkpt>
      <trkpt lat="-48.315218" lon="-123.327852"><ele>114.6</ele><time>2031-04-08T08:03:30Z</time></trkpt>
      <trkpt lat="-48.315262" lon="-123.327355"><ele>113.4</ele><time>2031-04-08T08:03:35Z</time></trkpt>
      <trkpt lat="-48.315313" lon="-123.326940"><ele>112.6</ele><time>2031-04-08T08:03:40Z</time></trkpt>
      <trkpt lat="-48.315414" lon="-123.326430"><ele>111.6</ele><time>2031-04-08T08:03:45Z</time></trkpt>
      <trkpt lat="-48.315560" lon="-123.325941"><ele>110.8</ele><time>2031-04-08T08:03:50Z</time></trkpt>
      <trkpt lat="-48.315660" lon="-123.325423"><ele>109.7</ele><time>2031-04-08T08:03:55Z</time></trkpt>
      <trkpt lat="-48.315774" lon="-123.325018"><ele>108.3</ele><time>2031-04-08T08:04:00Z</time></trkpt>
      <trkpt lat="-48.315897" lon="-123.324514"><ele>107.0</ele><time>2031-04-08T08:04:05Z</time></trkpt>
      <trkpt lat="-48.315974" lon="-123.323963"><ele>105.8</ele><time>2031-04-08T08:04:10Z</time></trkpt>
      <trkpt lat="-48.316031" lon="-123.323422"><ele>104.3</ele><time>2031-04-08T08:04:15Z</time></trkpt>
      <trkpt lat="-48.316137" lon="-123.322913"><ele>103.1</ele><time>2031-04-08T08:04:20Z</time></trkpt>
      <trkpt lat="-48.316206" lon="-123.322343"><ele>102.2</ele><time>2031-04-08T08:04:25Z</time></trkpt>
      <trkpt lat="-48.316232" lon="-123.321892"><ele>100.9</ele><time>2031-04-08T08:04:30Z</time></trkpt>
      <trkpt lat="-48.316282" lon="-123.321429"><ele>99.8</ele><time>2031-04-08T08:04:35Z</time></trkpt>
      <trkpt lat="-48.316367" lon="-123.320891"><ele>98.2</ele><time>2031-04-08T08:04:40Z</time></trkpt>
      <trkpt lat="-48.316437" lon="-123.320396"><ele>97.1</ele><time>2031-04-08T08:04:45Z</time></trkpt>
      <trkpt lat="-48.316515" lon="-123.319904"><ele>95.6</ele><time>2031-04-08T08:04:50Z</time></trkpt>
      <trkpt lat="-48.316637" lon="-123.319470"><ele>94.5</ele><time>2031-04-08T08:04:55Z</time></trkpt>
      <trkpt lat="-48.316746" lon="-123.318987"><ele>93.0</ele><time>2031-04-08T08:05:00Z</time></trkpt>
      <trkpt lat="-48.316910" lon="-123.318453"><ele>91.5</ele><time>2031-04-08T08:05:05Z</time></trkpt>
      <trkpt lat="-48.317105" lon="-123.318015"><ele>90.0</ele><time>2031-04-08T08:05:10Z</time></trkpt>
      <trkpt lat="-48.317325" lon="-123.317555"><ele>88.8</ele><time>2031-04-08T08:05:15Z</time></trkpt>
      <trkpt lat="-48.317527" lon="-123.317175"><ele>87.7</ele><time>2031-04-08T08:05:20Z</time></trkpt>
      <trkpt lat="-48.317811" lon="-123.316738"><ele>86.8</ele><time>2031-04-08T08:05:25Z</time></trkpt>
      <trkpt lat="-48.318027" lon="-123.316288"><ele>85.5</ele><time>2031-04-08T08:05:30Z</time></trkpt>
      <trkpt lat="-48.318269" lon="-123.315915"><ele>84.1</ele><time>2031-04-08T08:05:35Z</time></trkpt>
      <trkpt lat="-48.318539" lon="-123.315578"><ele>83.2</ele><time>2031-04-08T08:05:40Z</time></trkpt>
      <trkpt lat="-48.318884" lon="-123.315228"><ele>82.0</ele><time>2031-04-08T08:05:45Z</time></trkpt>
      <trkpt lat="-48.319188" lon="-123.314852"><ele>80.6</ele><time>2031-04-08T08:05:50Z</time></trkpt>
      <trkpt lat="-48.319520" lon="-123.314495"><ele>79.8</ele><time>2031-04-08T08:05:55Z</time></trkpt>
      <trkpt lat="-48.319875" lon="-123.314167"><ele>78.6</ele><time>2031-04-08T08:06:00Z</time></trkpt>
      <trkpt lat="-48.320265" lon="-123.313931"><ele>77.6</ele><time>2031-04-08T08:06:05Z</time></trkpt>
      <trkpt lat="-48.320587" lon="-123.313720"><ele>76.8</ele><time>2031-04-08T08:06:10Z</time></trkpt>
      <trkpt lat="-48.320933" lon="-123.313446"><ele>75.8</ele><time>2031-04-08T08:06:15Z</time></trkpt>
      <trkpt lat="-48.321264" lon="-123.313223"><ele>74.3</ele><time>2031-04-08T08:06:20Z</time></trkpt>
      <trkpt lat="-48.321589" lon="-123.312976"><ele>73.3</ele><time>2031-04-08T08:06:25Z</time></trkpt>
      <trkpt lat="-48.321963" lon="-123.312721"><ele>72.0</ele><time>2031-04-08T08:06:30Z</time></trkpt>
      <trkpt lat="-48.322369" lon="-123.312470"><ele>71.0</ele><time>2031-04-08T08:06:35Z</time></trkpt>
      <trkpt lat="-48.322778" lon="-123.312245"><ele>70.0</ele><time>2031-04-08T08:06:40Z</time></trkpt>
      <trkpt lat="-48.323163" lon="-123.312083"><ele>68.7</ele><time>2031-04-08T08:06:45Z</time></trkpt>
      <trkpt lat="-48.323556" lon="-123.311832"><ele>67.6</ele><time>2031-04-08T08:06:50Z</time></trkpt>
      <trkpt lat="-48.323913" lon="-123.311640"><ele>66.8</ele><time>2031-04-08T08:06:55Z</time></trkpt>
      <trkpt lat="-48.324300" lon="-123.311367"><ele>65.8</ele><time>2031-04-08T08:07:00Z</time></trkpt>
      <trkpt lat="-48.324618" lon="-123.311044"><ele>64.8</ele><time>2031-04-08T08:07:05Z</time></trkpt>
      <trkpt lat="-48.324915" lon="-123.310668"><ele>64.1</ele><time>2031-04-08T08:07:10Z</time></trkpt>
      <trkpt lat="-48.325208" lon="-123.310306"><ele>63.6</ele><time>2031-04-08T08:07:15Z</time></trkpt>
      <trkpt lat="-48.325553" lon="-123.309976"><ele>63.0</ele><time>2031-04-08T08:07:20Z</time></trkpt>
      <trkpt lat="-48.325951" lon="-123.309703"><ele>62.2</ele><time>2031-04-08T08:07:25Z</time></trkpt>
      <trkpt lat="-48.326308" lon="-123.309395"><ele>61.2</ele><time>2031-04-08T08:07:30Z</time></trkpt>
      <trkpt lat="-48.326654" lon="-123.309182"><ele>60.8</ele><time>2031-04-08T08:07:35Z</time></trkpt>
      <trkpt lat="-48.326993" lon="-123.308929"><ele>60.0</ele><time>2031-04-08T08:07:40Z</time></trkpt>
      <trkpt lat="-48.327418" lon="-123.308707"><ele>59.0</ele><time>2031-04-08T08:07:45Z</time></trkpt>
      <trkpt lat="-48.327819" lon="-123.308409"><ele>58.0</ele><time>2031-04-08T08:07:50Z</time></trkpt>
      <trkpt lat="-48.328196" lon="-123.308152"><ele>57.7</ele><time>2031-04-08T08:07:55Z</time></trkpt>
      <trkpt lat="-48.328571" lon="-123.307892"><ele>56.8</ele><time>2031-04-08T08:08:00Z</time></trkpt>
      <trkpt lat="-48.328974" lon="-123.307704"><ele>56.5</ele><time>2031-04-08T08:08:05Z</time></trkpt>
      <trkpt lat="-48.329388" lon="-123.307489"><ele>56.0</ele><time>2031-04-08T08:08:10Z</time></trkpt>
      <trkpt lat="-48.329791" lon="-123.307382"><ele>55.2</ele><time>2031-04-08T08:08:15Z</time></trkpt>
      <trkpt lat="-48.330187" lon="-123.307301"><ele>54.7</ele><time>2031-04-08T08:08:20Z</time></trkpt>
      <trkpt lat="-48.330577" lon="-123.307304"><ele>54.6</ele><time>2031-04-08T08:08:25Z</time></trkpt>
      <trkpt lat="-48.331017" lon="-123.307373"><ele>53.8</ele><time>2031-04-08T08:08:30Z</time></trkpt>
      <trkpt lat="-48.331413" lon="-123.307345"><ele>53.4</ele><time>2031-04-08T08:08:35Z</time></trkpt>
      <trkpt lat="-48.331870" lon="-123.307264"><ele>53.0</ele><time>2031-04-08T08:08:40Z</time></trkpt>
      <trkpt lat="-48.332313" lon="-123.307185"><ele>52.7</ele><time>2031-04-08T08:08:45Z</time></trkpt>
      <trkpt lat="-48.332713" lon="-123.307136"><ele>52.0</ele><time>2031-04-08T08:08:50Z</time></trkpt>
      <trkpt lat="-48.333177" lon="-123.307169"><ele>52.1</ele><time>2031-04-08T08:08:55Z</time></trkpt>
      <trkpt lat="-48.333564" lon="-123.307270"><ele>51.9</ele><time>2031-04-08T08:09:00Z</time></trkpt>
      <trkpt lat="-48.333999" lon="-123.307285"><ele>51.3</ele><time>2031-04-08T08:09:05Z</time></trkpt>
      <trkpt lat="-48.334417" lon="-123.307236"><ele>51.3</ele><time>2031-04-08T08:09:10Z</time></trkpt>
      <trkpt lat="-48.334880" lon="-123.307118"><ele>51.1</ele><time>2031-04-08T08:09:15Z</time></trkpt>
      <trkpt lat="-48.335299" lon="-123.306985"><ele>51.2</ele><time>2031-04-08T08:09:20Z</time></trkpt>
      <trkpt lat="-48.335700" lon="-123.306959"><ele>51.0</ele><time>2031-04-08T08:09:25Z</time></trkpt>
      <trkpt lat="-48.336153" lon="-123.306934"><ele>50.6</ele><time>2031-04-08T08:09:30Z</time></trkpt>
      <trkpt lat="-48.336630" lon="-123.306863"><ele>50.8</ele><time>2031-04-08T08:09:35Z</time></trkpt>
      <trkpt lat="-48.337059" lon="-123.306907"><ele>51.1</ele><time>2031-04-08T08:09:40Z</time></trkpt>
      <trkpt lat="-48.337490" lon="-123.306870"><ele>51.3</ele><time>2031-04-08T08:09:45Z</time></trkpt>
      <trkpt lat="-48.337918" lon="-123.306770"><ele>51.7</ele><time>2031-04-08T08:09:50Z</time></trkpt>
      <trkpt lat="-48.338385" lon="-123.306660"><ele>51.5</ele><time>2031-04-08T08:09:55Z</time></trkpt>
      <trkpt lat="-48.338774" lon="-123.306516"><ele>51.7</ele><time>2031-04-08T08:10:00Z</time></trkpt>
      <trkpt lat="-48.339212" lon="-123.306390"><ele>51.6</ele><time>2031-04-08T08:10:05Z</time></trkpt>
      <trkpt lat="-48.339653" lon="-123.306347"><ele>52.0</ele><time>2031-04-08T08:10:10Z</time></trkpt>
      <trkpt lat="-48.340088" lon="-123.306223"><ele>52.0</ele><time>2031-04-08T08:10:15Z</time></trkpt>
      <trkpt lat="-48.340547" lon="-123.305964"><ele>52.2</ele><time>2031-04-08T08:10:20Z</time></trkpt>
      <trkpt lat="-48.340968" lon="-123.305810"><ele>52.4</ele><time>2031-04-08T08:10:25Z</time></trkpt>
      <trkpt lat="-48.341396" lon="-123.305682"><ele>52.7</ele><time>2031-04-08T08:10:30Z</time></trkpt>
      <trkpt lat="-48.341803" lon="-123.305487"><ele>53.0</ele><time>2031-04-08T08:10:35Z</time></trkpt>
      <trkpt lat="-48.342210" lon="-123.305311"><ele>53.1</ele><time>2031-04-08T08:10:40Z</time></trkpt>
      <trkpt lat="-48.342660" lon="-123.305198"><ele>53.8</ele><time>2031-04-08T08:10:45Z</time></trkpt>
      <trkpt lat="-48.343074" lon="-123.305067"><ele>54.5</ele><time>2031-04-08T08:10:50Z</time></trkpt>
      <trkpt lat="-48.343532" lon="-123.304849"><ele>54.7</ele><time>2031-04-08T08:10:55Z</time></trkpt>
      <trkpt lat="-48.343991" lon="-123.304635"><ele>55.4</ele><time>2031-04-08T08:11:00Z</time></trkpt>
      <trkpt lat="-48.344381" lon="-123.304424"><ele>55.7</ele><time>2031-04-08T08:11:05Z</time></trkpt>
      <trkpt lat="-48.344793" lon="-123.304222"><ele>56.6</ele><time>2031-04-08T08:11:10Z</time></trkpt>
      <trkpt lat="-48.345202" lon="-123.304074"><ele>57.4</ele><time>2031-04-08T08:11:15Z</time></trkpt>
      <trkpt lat="-48.345658" lon="-123.303941"><ele>57.8</ele><time>2031-04-08T08:11:20Z</time></trkpt>
      <trkpt lat="-48.346104" lon="-123.303876"><ele>58.0</ele><time>2031-04-08T08:11:25Z</time></trkpt>
      <trkpt lat="-48.346537" lon="-123.303787"><ele>58.4</ele><time>2031-04-08T08:11:30Z</time></trkpt>
      <trkpt lat="-48.346984" lon="-123.303782"><ele>59.2</ele><time>2031-04-08T08:11:35Z</time></trkpt>
      <trkpt lat="-48.347453" lon="-123.303888"><ele>59.6</ele><time>2031-04-08T08:11:40Z</time></trkpt>
      <trkpt lat="-48.347930" lon="-123.303899"><ele>60.5</ele><time>2031-04-08T08:11:45Z</time></trkpt>
      <trkpt lat="-48.348416" lon="-123.303904"><ele>61.4</ele><time>2031-04-08T08:11:50Z</time></trkpt>
      <trkpt lat="-48.348817" lon="-123.303976"><ele>62.6</ele><time>2031-04-08T08:11:55Z</time></trkpt>
      <trkpt lat="-48.349213" lon="-123.304100"><ele>63.3</ele><time>2031-04-08T08:12:00Z</time></trkpt>
      <trkpt lat="-48.349690" lon="-123.304138"><ele>63.9</ele><time>2031-04-08T08:12:05Z</time></trkpt>
      <trkpt lat="-48.350168" lon="-123.304248"><ele>64.8</ele><time>2031-04-08T08:12:10Z</time></trkpt>
      <trkpt lat="-48.350649" lon="-123.304270"><ele>65.7</ele><time>2031-04-08T08:12:15Z</time></trkpt>
      <trkpt lat="-48.351073" lon="-123.304195"><ele>66.2</ele><time>2031-04-08T08:12:20Z</time></trkpt>
      <trkpt lat="-48.351498" lon="-123.304119"><ele>66.9</ele><time>2031-04-08T08:12:25Z</time></trkpt>
      <trkpt lat="-48.351933" lon="-123.304040"><ele>67.7</ele><time>2031-04-08T08:12:30Z</time></trkpt>
      <trkpt lat="-48.352357" lon="-123.303856"><ele>68.8</ele><time>2031-04-08T08:12:35Z</time></trkpt>
      <trkpt lat="-48.352744" lon="-123.303654"><ele>69.6</ele><time>2031-04-08T08:12:40Z</time></trkpt>
      <trkpt lat="-48.353112" lon="-123.303413"><ele>70.5</ele><time>2031-04-08T08:12:45Z</time></trkpt>
      <trkpt lat="-48.353470" lon="-123.303093"><ele>71.7</ele><time>2031-04-08T08:12:50Z</time></trkpt>
      <trkpt lat="-48.353836" lon="-123.302717"><ele>72.8</ele><time>2031-04-08T08:12:55Z</time></trkpt>
      <trkpt lat="-48.354244" lon="-123.302422"><ele>73.9</ele><time>2031-04-08T08:13:00Z</time></trkpt>
      <trkpt lat="-48.354612" lon="-123.302153"><ele>75.0</ele><time>2031-04-08T08:13:05Z</time></trkpt>
      <trkpt lat="-48.354989" lon="-123.301769"><ele>76.3</ele><time>2031-04-08T08:13:10Z</time></trkpt>
      <trkpt lat="-48.355341" lon="-123.301403"><ele>77.2</ele><time>2031-04-08T08:13:15Z</time></trkpt>
      <trkpt lat="-48.355673" lon="-123.300950"><ele>78.5</ele><time>2031-04-08T08:13:20Z</time></trkpt>
      <trkpt lat="-48.355950" lon="-123.300430"><ele>79.6</ele><time>2031-04-08T08:13:25Z</time></trkpt>
      <trkpt lat="-48.356252" lon="-123.299907"><ele>80.9</ele><time>2031-04-08T08:13:30Z</time></trkpt>
      <trkpt lat="-48.356504" lon="-123.299308"><ele>82.3</ele><time>2031-04-08T08:13:35Z</time></trkpt>
      <trkpt lat="-48.356751" lon="-123.298819"><ele>83.5</ele><time>2031-04-08T08:13:40Z</time></trkpt>
      <trkpt lat="-48.357017" lon="-123.298316"><ele>84.8</ele><time>2031-04-08T08:13:45Z</time></trkpt>
      <trkpt lat="-48.357292" lon="-123.297815"><ele>86.2</ele><time>2031-04-08T08:13:50Z</time></trkpt>
      <trkpt lat="-48.357535" lon="-123.297210"><ele>87.6</ele><time>2031-04-08T08:13:55Z</time></trkpt>
      <trkpt lat="-48.357729" lon="-123.296566"><ele>88.6</ele><time>2031-04-08T08:14:00Z</time></trkpt>
      <trkpt lat="-48.357925" lon="-123.295930"><ele>89.9</ele><time>2031-04-08T08:14:05Z</time></trkpt>
      <trkpt lat="-48.358112" lon="-123.295327"><ele>91.4</ele><time>2031-04-08T08:14:10Z</time></trkpt>
      <trkpt lat="-48.358233" lon="-123.294765"><ele>92.8</ele><time>2031-04-08T08:14:15Z</time></trkpt>
      <trkpt lat="-48.358403" lon="-123.294189"><ele>93.7</ele><time>2031-04-08T08:14:20Z</time></trkpt>
      <trkpt lat="-48.358510" lon="-123.293554"><ele>95.2</ele><time>2031-04-08T08:14:25Z</time></trkpt>
      <trkpt lat="-48.358566" lon="-123.292892"><ele>96.6</ele><time>2031-04-08T08:14:30Z</time></trkpt>
      <trkpt lat="-48.358578" lon="-123.292325"><ele>97.6</ele><time>2031-04-08T08:14:35Z</time></trkpt>
      <trkpt lat="-48.358555" lon="-123.291660"><ele>98.8</ele><time>2031-04-08T08:14:40Z</time></trkpt>
      <trkpt lat="-48.358599" lon="-123.291017"><ele>100.2</ele><time>2031-04-08T08:14:45Z</time></trkpt>
      <trkpt lat="-48.358588" lon="-123.290406"><ele>101.5</ele><time>2031-04-08T08:14:50Z</time></trkpt>
      <trkpt lat="-48.358563" lon="-123.289780"><ele>102.4</ele><time>2031-04-08T08:14:55Z</time></trkpt>
      <trkpt lat="-48.358532" lon="-123.289198"><ele>103.9</ele><time>2031-04-08T08:15:00Z</time></trkpt>
      <trkpt lat="-48.358452" lon="-123.288555"><ele>105.3</ele><time>2031-04-08T08:15:05Z</time></trkpt>
      <trkpt lat="-48.358339" lon="-123.287947"><ele>106.0</ele><time>2031-04-08T08:15:10Z</time></trkpt>
      <trkpt lat="-48.358209" lon="-123.287369"><ele>107.4</ele><time>2031-04-08T08:15:15Z</time></trkpt>
      <trkpt lat="-48.358055" lon="-123.286755"><ele>108.9</ele><time>2031-04-08T08:15:20Z</time></trkpt>
      <trkpt lat="-48.357953" lon="-123.286140"><ele>110.0</ele><time>2031-04-08T08:15:25Z</time></trkpt>
      <trkpt lat="-48.357800" lon="-123.285533"><ele>111.3</ele><time>2031-04-08T08:15:30Z</time></trkpt>
      <trkpt lat="-48.357695" lon="-123.284991"><ele>112.4</ele><time>2031-04-08T08:15:35Z</time></trkpt>
      <trkpt lat="-48.357616" lon="-123.284387"><ele>113.1</ele><time>2031-04-08T08:15:40Z</time></trkpt>
      <trkpt lat="-48.357576" lon="-123.283774"><ele>114.2</ele><time>2031-04-08T08:15:45Z</time></trkpt>
      <trkpt lat="-48.357477" lon="-123.283161"><ele>115.1</ele><time>2031-04-08T08:15:50Z</time></trkpt>
      <trkpt lat="-48.357440" lon="-123.282610"><ele>116.4</ele><time>2031-04-08T08:15:55Z</time></trkpt>
      <trkpt lat="-48.357367" lon="-123.282094"><ele>117.5</ele><time>2031-04-08T08:16:00Z</time></trkpt>
      <trkpt lat="-48.357238" lon="-123.281575"><ele>118.5</ele><time>2031-04-08T08:16:05Z</time></trkpt>
      <trkpt lat="-48.357137" lon="-123.280982"><ele>119.5</ele><time>2031-04-08T08:16:10Z</time></trkpt>
      <trkpt lat="-48.357085" lon="-123.280440"><ele>120.2</ele><time>2031-04-08T08:16:15Z</time></trkpt>
      <trkpt lat="-48.356967" lon="-123.279820"><ele>121.5</ele><time>2031-04-08T08:16:20Z</time></trkpt>
      <trkpt lat="-48.356847" lon="-123.279228"><ele>122.2</ele><time>2031-04-08T08:16:25Z</time></trkpt>
      <trkpt lat="-48.356707" lon="-123.278686"><ele>123.5</ele><time>2031-04-08T08:16:30Z</time></trkpt>
      <trkpt lat="-48.356589" lon="-123.278154"><ele>124.0</ele><time>2031-04-08T08:16:35Z</time></trkpt>
      <trkpt lat="-48.356473" lon="-123.277550"><ele>125.1</ele><time>2031-04-08T08:16:40Z</time></trkpt>
      <trkpt lat="-48.356315" lon="-123.276973"><ele>126.0</ele><time>2031-04-08T08:16:45Z</time></trkpt>
      <trkpt lat="-48.356116" lon="-123.276433"><ele>126.7</ele><time>2031-04-08T08:16:50Z</time></trkpt>
      <trkpt lat="-48.355966" lon="-123.275982"><ele>127.8</ele><time>2031-04-08T08:16:55Z</time></trkpt>
      <trkpt lat="-48.355818" lon="-123.275534"><ele>128.4</ele><time>2031-04-08T08:17:00Z</time></trkpt>
      <trkpt lat="-48.355640" lon="-123.274975"><ele>128.9</ele><time>2031-04-08T08:17:05Z</time></trkpt>
      <trkpt lat="-48.355530" lon="-123.274430"><ele>129.4</ele><time>2031-04-08T08:17:10Z</time></trkpt>
      <trkpt lat="-48.355380" lon="-123.273973"><ele>129.9</ele><time>2031-04-08T08:17:15Z</time></trkpt>
      <trkpt lat="-48.355251" lon="-123.273393"><ele>130.3</ele><time>2031-04-08T08:17:20Z</time></trkpt>
      <trkpt lat="-48.355185" lon="-123.272841"><ele>130.6</ele><time>2031-04-08T08:17:25Z</time></trkpt>
      <trkpt lat="-48.355070" lon="-123.272322"><ele>131.4</ele><time>2031-04-08T08:17:30Z</time></trkpt>
      <trkpt lat="-48.354965" lon="-123.271832"><ele>132.0</ele><time>2031-04-08T08:17:35Z</time></trkpt>
      <trkpt lat="-48.354897" lon="-123.271351"><ele>132.9</ele><time>2031-04-08T08:17:40Z</time></trkpt>
      <trkpt lat="-48.354883" lon="-123.270818"><ele>133.1</ele><time>2031-04-08T08:17:45Z</time></trkpt>
      <trkpt lat="-48.354857" lon="-123.270294"><ele>133.4</ele><time>2031-04-08T08:17:50Z</time></trkpt>
      <trkpt lat="-48.354873" lon="-123.269744"><ele>134.1</ele><time>2031-04-08T08:17:55Z</time></trkpt>
      <trkpt lat="-48.354931" lon="-123.269235"><ele>134.1</ele><time>2031-04-08T08:18:00Z</time></trkpt>
      <trkpt lat="-48.354969" lon="-123.268709"><ele>134.2</ele><time>2031-04-08T08:18:05Z</time></trkpt>
      <trkpt lat="-48.355010" lon="-123.268252"><ele>134.8</ele><time>2031-04-08T08:18:10Z</time></trkpt>
      <trkpt lat="-48.355006" lon="-123.267784"><ele>135.0</ele><time>2031-04-08T08:18:15Z</time></trkpt>
      <trkpt lat="-48.355021" lon="-123.267265"><ele>135.5</ele><time>2031-04-08T08:18:20Z</time></trkpt>
      <trkpt lat="-48.355061" lon="-123.266726"><ele>135.4</ele><time>2031-04-08T08:18:25Z</time></trkpt>
      <trkpt lat="-48.355068" lon="-123.266201"><ele>136.1</ele><time>2031-04-08T08:18:30Z</time></trkpt>
      <trkpt lat="-48.355126" lon="-123.265689"><ele>136.5</ele><time>2031-04-08T08:18:35Z</time></trkpt>
      <trkpt lat="-48.355163" lon="-123.265230"><ele>137.0</ele><time>2031-04-08T08:18:40Z</time></trkpt>
      <trkpt lat="-48.355229" lon="-123.264796"><ele>137.2</ele><time>2031-04-08T08:18:45Z</time></trkpt>
      <trkpt lat="-48.355256" lon="-123.264365"><ele>137.7</ele><time>2031-04-08T08:18:50Z</time></trkpt>
      <trkpt lat="-48.355283" lon="-123.263914"><ele>138.2</ele><time>2031-04-08T08:18:55Z</time></trkpt>
      <trkpt lat="-48.355288" lon="-123.263427"><ele>137.9</ele><time>2031-04-08T08:19:00Z</time></trkpt>
      <trkpt lat="-48.355329" lon="-123.262889"><ele>138.3</ele><time>2031-04-08T08:19:05Z</time></trkpt>
      <trkpt lat="-48.355392" lon="-123.262417"><ele>138.2</ele><time>2031-04-08T08:19:10Z</time></trkpt>
      <trkpt lat="-48.355445" lon="-123.261917"><ele>138.5</ele><time>2031-04-08T08:19:15Z</time></trkpt>
      <trkpt lat="-48.355458" lon="-123.261453"><ele>138.4</ele><time>2031-04-08T08:19:20Z</time></trkpt>
      <trkpt lat="-48.355503" lon="-123.260930"><ele>138.2</ele><time>2031-04-08T08:19:25Z</time></trkpt>
      <trkpt lat="-48.355546" lon="-123.260479"><ele>138.0</ele><time>2031-04-08T08:19:30Z</time></trkpt>
      <trkpt lat="-48.355553" lon="-123.260012"><ele>137.5</ele><time>2031-04-08T08:19:35Z</time></trkpt>
      <trkpt lat="-48.355517" lon="-123.259548"><ele>137.4</ele><time>2031-04-08T08:19:40Z</time></trkpt>
      <trkpt lat="-48.355483" lon="-123.259039"><ele>137.0</ele><time>2031-04-08T08:19:45Z</time></trkpt>
      <trkpt lat="-48.355420" lon="-123.258636"><ele>137.0</ele><time>2031-04-08T08:19:50Z</time></trkpt>
      <trkpt lat="-48.355387" lon="-123.258194"><ele>137.0</ele><time>2031-04-08T08:19:55Z</time></trkpt>
      <trkpt lat="-48.355382" lon="-123.257734"><ele>136.8</ele><time>2031-04-08T08:20:00Z</time></trkpt>
      <trkpt lat="-48.355336" lon="-123.257257"><ele>136.3</ele><time>2031-04-08T08:20:05Z</time></trkpt>
      <trkpt lat="-48.355259" lon="-123.256860"><ele>136.2</ele><time>2031-04-08T08:20:10Z</time></trkpt>
      <trkpt lat="-48.355160" lon="-123.256441"><ele>136.0</ele><time>2031-04-08T08:20:15Z</time></trkpt>
      <trkpt lat="-48.355035" lon="-123.256012"><ele>135.1</ele><time>2031-04-08T08:20:20Z</time></trkpt>
      <trkpt lat="-48.354935" lon="-123.255662"><ele>134.4</ele><time>2031-04-08T08:20:25Z</time></trkpt>
      <trkpt lat="-48.354862" lon="-123.255326"><ele>133.9</ele><time>2031-04-08T08:20:30Z</time></trkpt>
      <trkpt lat="-48.354751" lon="-123.254946"><ele>133.6</ele><time>2031-04-08T08:20:35Z</time></trkpt>
      <trkpt lat="-48.354695" lon="-123.254612"><ele>133.2</ele><time>2031-04-08T08:20:40Z</time></trkpt>
      <trkpt lat="-48.354666" lon="-123.254242"><ele>132.4</ele><time>2031-04-08T08:20:45Z</time></trkpt>
      <trkpt lat="-48.354633" lon="-123.253866"><ele>131.9</ele><time>2031-04-08T08:20:50Z</time></trkpt>
      <trkpt lat="-48.354577" lon="-123.253465"><ele>131.0</ele><time>2031-04-08T08:20:55Z</time></trkpt>
      <trkpt lat="-48.354509" lon="-123.253100"><ele>130.6</ele><time>2031-04-08T08:21:00Z</time></trkpt>
      <trkpt lat="-48.354451" lon="-123.252742"><ele>129.9</ele><time>2031-04-08T08:21:05Z</time></trkpt>
      <trkpt lat="-48.354359" lon="-123.252348"><ele>129.5</ele><time>2031-04-08T08:21:10Z</time></trkpt>
      <trkpt lat="-48.354320" lon="-123.252022"><ele>128.3</ele><time>2031-04-08T08:21:15Z</time></trkpt>
      <trkpt lat="-48.354287" lon="-123.251675"><ele>127.8</ele><time>2031-04-08T08:21:20Z</time></trkpt>
      <trkpt lat="-48.354249" lon="-123.251276"><ele>126.6</ele><time>2031-04-08T08:21:25Z</time></trkpt>
      <trkpt lat="-48.354171" lon="-123.250913"><ele>125.5</ele><time>2031-04-08T08:21:30Z</time></trkpt>
      <trkpt lat="-48.354121" lon="-123.250495"><ele>124.5</ele><time>2031-04-08T08:21:35Z</time></trkpt>
      <trkpt lat="-48.354063" lon="-123.250098"><ele>123.7</ele><time>2031-04-08T08:21:40Z</time></trkpt>
      <trkpt lat="-48.353976" lon="-123.249775"><ele>122.9</ele><time>2031-04-08T08:21:45Z</time></trkpt>
      <trkpt lat="-48.353862" lon="-123.249499"><ele>122.0</ele><time>2031-04-08T08:21:50Z</time></trkpt>
      <trkpt lat="-48.353758" lon="-123.249119"><ele>120.8</ele><time>2031-04-08T08:21:55Z</time></trkpt>
      <trkpt lat="-48.353650" lon="-123.248825"><ele>120.1</ele><time>2031-04-08T08:22:00Z</time></trkpt>
      <trkpt lat="-48.353548" lon="-123.248457"><ele>119.1</ele><time>2031-04-08T08:22:05Z</time></trkpt>
      <trkpt lat="-48.353469" lon="-123.248089"><ele>118.2</ele><time>2031-04-08T08:22:10Z</time></trkpt>
      <trkpt lat="-48.353401" lon="-123.247689"><ele>117.0</ele><time>2031-04-08T08:22:15Z</time></trkpt>
      <trkpt lat="-48.353308" lon="-123.247346"><ele>115.8</ele><time>2031-04-08T08:22:20Z</time></trkpt>
      <trkpt lat="-48.353249" lon="-123.246984"><ele>114.8</ele><time>2031-04-08T08:22:25Z</time></trkpt>
      <trkpt lat="-48.353177" lon="-123.246643"><ele>113.7</ele><time>2031-04-08T08:22:30Z</time></trkpt>
      <trkpt lat="-48.353079" lon="-123.246293"><ele>112.9</ele><time>2031-04-08T08:22:35Z</time></trkpt>
      <trkpt lat="-48.352998" lon="-123.245956"><ele>111.7</ele><time>2031-04-08T08:22:40Z</time></trkpt>
      <trkpt lat="-48.352936" lon="-123.245670"><ele>110.4</ele><time>2031-04-08T08:22:45Z</time></trkpt>
      <trkpt lat="-48.352850" lon="-123.245294"><ele>109.3</ele><time>2031-04-08T08:22:50Z</time></trkpt>
      <trkpt lat="-48.352773" lon="-123.244979"><ele>107.8</ele><time>2031-04-08T08:22:55Z</time></trkpt>
      <trkpt lat="-48.352716" lon="-123.244614"><ele>106.7</ele><time>2031-04-08T08:23:00Z</time></trkpt>
      <trkpt lat="-48.352639" lon="-123.244263"><ele>105.2</ele><time>2031-04-08T08:23:05Z</time></trkpt>
      <trkpt lat="-48.352570" lon="-123.243975"><ele>103.8</ele><time>2031-04-08T08:23:10Z</time></trkpt>
      <trkpt lat="-48.352525" lon="-123.243638"><ele>102.6</ele><time>2031-04-08T08:23:15Z</time></trkpt>
      <trkpt lat="-48.352458" lon="-123.243293"><ele>101.0</ele><time>2031-04-08T08:23:20Z</time></trkpt>
      <trkpt lat="-48.352367" lon="-123.243005"><ele>99.7</ele><time>2031-04-08T08:23:25Z</time></trkpt>
      <trkpt lat="-48.352317" lon="-123.242732"><ele>98.2</ele><time>2031-04-08T08:23:30Z</time></trkpt>
      <trkpt lat="-48.352245" lon="-123.242441"><ele>96.8</ele><time>2031-04-08T08:23:35Z</time></trkpt>
      <trkpt lat="-48.352170" lon="-123.242174"><ele>95.7</ele><time>2031-04-08T08:23:40Z</time></trkpt>
      <trkpt lat="-48.352066" lon="-123.241918"><ele>94.3</ele><time>2031-04-08T08:23:45Z</time></trkpt>
      <trkpt lat="-48.351990" lon="-123.241697"><ele>93.4</ele><time>2031-04-08T08:23:50Z</time></trkpt>
      <trkpt lat="-48.351913" lon="-123.241418"><ele>92.2</ele><time>2031-04-08T08:23:55Z</time></trkpt>
      <trkpt lat="-48.351789" lon="-123.241111"><ele>90.9</ele><time>2031-04-08T08:24:00Z</time></trkpt>
      <trkpt lat="-48.351690" lon="-123.240863"><ele>89.7</ele><time>2031-04-08T08:24:05Z</time></trkpt>
      <trkpt lat="-48.351586" lon="-123.240581"><ele>88.1</ele><time>2031-04-08T08:24:10Z</time></trkpt>
      <trkpt lat="-48.351487" lon="-123.240346"><ele>87.1</ele><time>2031-04-08T08:24:15Z</time></trkpt>
      <trkpt lat="-48.351368" lon="-123.240101"><ele>85.5</ele><time>2031-04-08T08:24:20Z</time></trkpt>
      <trkpt lat="-48.351237" lon="-123.239893"><ele>84.0</ele><time>2031-04-08T08:24:25Z</time></trkpt>
      <trkpt lat="-48.351149" lon="-123.239697"><ele>82.8</ele><time>2031-04-08T08:24:30Z</time></trkpt>
      <trkpt lat="-48.351051" lon="-123.239440"><ele>82.0</ele><time>2031-04-08T08:24:35Z</time></trkpt>
      <trkpt lat="-48.350935" lon="-123.239129"><ele>80.7</ele><time>2031-04-08T08:24:40Z</time></trkpt>
      <trkpt lat="-48.350828" lon="-123.238830"><ele>79.4</ele><time>2031-04-08T08:24:45Z</time></trkpt>
      <trkpt lat="-48.350726" lon="-123.238510"><ele>78.6</ele><time>2031-04-08T08:24:50Z</time></trkpt>
      <trkpt lat="-48.350670" lon="-123.238284"><ele>77.5</ele><time>2031-04-08T08:24:55Z</time></trkpt>
      <trkpt lat="-48.350623" lon="-123.238074"><ele>76.1</ele><time>2031-04-08T08:25:00Z</time></trkpt>
      <trkpt lat="-48.350577" lon="-123.237763"><ele>74.7</ele><time>2031-04-08T08:25:05Z</time></trkpt>
      <trkpt lat="-48.350539" lon="-123.237522"><ele>73.4</ele><time>2031-04-08T08:25:10Z</time></trkpt>
      <trkpt lat="-48.350494" lon="-123.237180"><ele>72.4</ele><time>2031-04-08T08:25:15Z</time></trkpt>
      <trkpt lat="-48.350443" lon="-123.236889"><ele>71.7</ele><time>2031-04-08T08:25:20Z</time></trkpt>
      <trkpt lat="-48.350367" lon="-123.236567"><ele>70.8</ele><time>2031-04-08T08:25:25Z</time></trkpt>
      <trkpt lat="-48.350278" lon="-123.236261"><ele>69.6</ele><time>2031-04-08T08:25:30Z</time></trkpt>
      <trkpt lat="-48.350232" lon="-123.236057"><ele>68.2</ele><time>2031-04-08T08:25:35Z</time></trkpt>
      <trkpt lat="-48.350194" lon="-123.235765"><ele>67.0</ele><time>2031-04-08T08:25:40Z</time></trkpt>
      <trkpt lat="-48.350184" lon="-123.235535"><ele>66.2</ele><time>2031-04-08T08:25:45Z</time></trkpt>
      <trkpt lat="-48.350138" lon="-123.235230"><ele>65.1</ele><time>2031-04-08T08:25:50Z</time></trkpt>
      <trkpt lat="-48.350098" lon="-123.234923"><ele>64.0</ele><time>2031-04-08T08:25:55Z</time></trkpt>
      <trkpt lat="-48.350088" lon="-123.234706"><ele>62.7</ele><time>2031-04-08T08:26:00Z</time></trkpt>
      <trkpt lat="-48.350107" lon="-123.234391"><ele>62.0</ele><time>2031-04-08T08:26:05Z</time></trkpt>
      <trkpt lat="-48.350093" lon="-123.234128"><ele>61.3</ele><time>2031-04-08T08:26:10Z</time></trkpt>
      <trkpt lat="-48.350083" lon="-123.233814"><ele>60.5</ele><time>2031-04-08T08:26:15Z</time></trkpt>
      <trkpt lat="-48.350076" lon="-123.233584"><ele>59.6</ele><time>2031-04-08T08:26:20Z</time></trkpt>
      <trkpt lat="-48.350094" lon="-123.233349"><ele>58.4</ele><time>2031-04-08T08:26:25Z</time></trkpt>
      <trkpt lat="-48.350091" lon="-123.233141"><ele>57.7</ele><time>2031-04-08T08:26:30Z</time></trkpt>
      <trkpt lat="-48.350112" lon="-123.232884"><ele>57.0</ele><time>2031-04-08T08:26:35Z</time></trkpt>
      <trkpt lat="-48.350149" lon="-123.232653"><ele>56.1</ele><time>2031-04-08T08:26:40Z</time></trkpt>
      <trkpt lat="-48.350180" lon="-123.232436"><ele>55.3</ele><time>2031-04-08T08:26:45Z</time></trkpt>
      <trkpt lat="-48.350207" lon="-123.232235"><ele>54.5</ele><time>2031-04-08T08:26:50Z</time></trkpt>
      <trkpt lat="-48.350245" lon="-123.231998"><ele>53.6</ele><time>2031-04-08T08:26:55Z</time></trkpt>
      <trkpt lat="-48.350288" lon="-123.231776"><ele>53.0</ele><time>2031-04-08T08:27:00Z</time></trkpt>
      <trkpt lat="-48.350321" lon="-123.231570"><ele>52.6</ele><time>2031-04-08T08:27:05Z</time></trkpt>
      <trkpt lat="-48.350370" lon="-123.231328"><ele>52.4</ele><time>2031-04-08T08:27:10Z</time></trkpt>
      <trkpt lat="-48.350445" lon="-123.231075"><ele>51.6</ele><time>2031-04-08T08:27:15Z</time></trkpt>
      <trkpt lat="-48.350497" lon="-123.230810"><ele>50.7</ele><time>2031-04-08T08:27:20Z</time></trkpt>
      <trkpt lat="-48.350529" lon="-123.230533"><ele>50.3</ele><time>2031-04-08T08:27:25Z</time></trkpt>
      <trkpt lat="-48.350531" lon="-123.230196"><ele>50.2</ele><time>2031-04-08T08:27:30Z</time></trkpt>
      <trkpt lat="-48.350536" lon="-123.229963"><ele>49.7</ele><time>2031-04-08T08:27:35Z</time></trkpt>
      <trkpt lat="-48.350567" lon="-123.229719"><ele>49.3</ele><time>2031-04-08T08:27:40Z</time></trkpt>
      <trkpt lat="-48.350580" lon="-123.229513"><ele>48.9</ele><time>2031-04-08T08:27:45Z</time></trkpt>
      <trkpt lat="-48.350627" lon="-123.229186"><ele>48.9</ele><time>2031-04-08T08:27:50Z</time></trkpt>
      <trkpt lat="-48.350658" lon="-123.228981"><ele>48.8</ele><time>2031-04-08T08:27:55Z</time></trkpt>
      <trkpt lat="-48.350696" lon="-123.228663"><ele>49.0</ele><time>2031-04-08T08:28:00Z</time></trkpt>
      <trkpt lat="-48.350723" lon="-123.228325"><ele>48.8</ele><time>2031-04-08T08:28:05Z</time></trkpt>
      <trkpt lat="-48.350759" lon="-123.228041"><ele>48.5</ele><time>2031-04-08T08:28:10Z</time></trkpt>
      <trkpt lat="-48.350797" lon="-123.227760"><ele>48.1</ele><time>2031-04-08T08:28:15Z</time></trkpt>
      <trkpt lat="-48.350847" lon="-123.227441"><ele>48.0</ele><time>2031-04-08T08:28:20Z</time></trkpt>
      <trkpt lat="-48.350902" lon="-123.227165"><ele>48.3</ele><time>2031-04-08T08:28:25Z</time></trkpt>
      <trkpt lat="-48.350959" lon="-123.226893"><ele>48.5</ele><time>2031-04-08T08:28:30Z</time></trkpt>
      <trkpt lat="-48.351017" lon="-123.226595"><ele>48.8</ele><time>2031-04-08T08:28:35Z</time></trkpt>
      <trkpt lat="-48.351052" lon="-123.226256"><ele>48.6</ele><time>2031-04-08T08:28:40Z</time></trkpt>
      <trkpt lat="-48.351063" lon="-123.225998"><ele>48.7</ele><time>2031-04-08T08:28:45Z</time></trkpt>
      <trkpt lat="-48.351049" lon="-123.225677"><ele>48.4</ele><time>2031-04-08T08:28:50Z</time></trkpt>
      <trkpt lat="-48.351052" lon="-123.225362"><ele>48.9</ele><time>2031-04-08T08:28:55Z</time></trkpt>
      <trkpt lat="-48.351034" lon="-123.225117"><ele>48.9</ele><time>2031-04-08T08:29:00Z</time></trkpt>
      <trkpt lat="-48.351014" lon="-123.224898"><ele>49.2</ele><time>2031-04-08T08:29:05Z</time></trkpt>
      <trkpt lat="-48.350971" lon="-123.224570"><ele>49.8</ele><time>2031-04-08T08:29:10Z</time></trkpt>
      <trkpt lat="-48.350959" lon="-123.224321"><ele>50.3</ele><time>2031-04-08T08:29:15Z</time></trkpt>
      <trkpt lat="-48.350932" lon="-123.224036"><ele>50.2</ele><time>2031-04-08T08:29:20Z</time></trkpt>
      <trkpt lat="-48.350905" lon="-123.223697"><ele>50.5</ele><time>2031-04-08T08:29:25Z</time></trkpt>
      <trkpt lat="-48.350900" lon="-123.223358"><ele>51.0</ele><time>2031-04-08T08:29:30Z</time></trkpt>
      <trkpt lat="-48.350889" lon="-123.223054"><ele>51.0</ele><time>2031-04-08T08:29:35Z</time></trkpt>
      <trkpt lat="-48.350863" lon="-123.222765"><ele>51.4</ele><time>2031-04-08T08:29:40Z</time></trkpt>
      <trkpt lat="-48.350856" lon="-123.222431"><ele>52.1</ele><time>2031-04-08T08:29:45Z</time></trkpt>
      <trkpt lat="-48.350858" lon="-123.222190"><ele>52.6</ele><time>2031-04-08T08:29:50Z</time></trkpt>
      <trkpt lat="-48.350886" lon="-123.221825"><ele>52.7</ele><time>2031-04-08T08:29:55Z</time></trkpt>
      <trkpt lat="-48.350935" lon="-123.221480"><ele>53.4</ele><time>2031-04-08T08:30:00Z</time></trkpt>
      <trkpt lat="-48.350958" lon="-123.221118"><ele>54.0</ele><time>2031-04-08T08:30:05Z</time></trkpt>
      <trkpt lat="-48.350975" lon="-123.220869"><ele>54.9</ele><time>2031-04-08T08:30:10Z</time></trkpt>
      <trkpt lat="-48.350976" lon="-123.220549"><ele>55.3</ele><time>2031-04-08T08:30:15Z</time></trkpt>
      <trkpt lat="-48.350976" lon="-123.220272"><ele>56.0</ele><time>2031-04-08T08:30:20Z</time></trkpt>
      <trkpt lat="-48.350985" lon="-123.219900"><ele>56.6</ele><time>2031-04-08T08:30:25Z</time></trkpt>
      <trkpt lat="-48.350981" lon="-123.219528"><ele>57.2</ele><time>2031-04-08T08:30:30Z</time></trkpt>
      <trkpt lat="-48.350990" lon="-123.219267"><ele>58.1</ele><time>2031-04-08T08:30:35Z</time></trkpt>
      <trkpt lat="-48.351011" lon="-123.218912"><ele>59.2</ele><time>2031-04-08T08:30:40Z</time></trkpt>
      <trkpt lat="-48.351041" lon="-123.218648"><ele>60.3</ele><time>2031-04-08T08:30:45Z</time></trkpt>
      <trkpt lat="-48.351076" lon="-123.218262"><ele>60.7</ele><time>2031-04-08T08:30:50Z</time></trkpt>
      <trkpt lat="-48.351081" lon="-123.217960"><ele>61.9</ele><time>2031-04-08T08:30:55Z</time></trkpt>
      <trkpt lat="-48.351059" lon="-123.217591"><ele>62.5</ele><time>2031-04-08T08:31:00Z</time></trkpt>
      <trkpt lat="-48.351051" lon="-123.217255"><ele>63.6</ele><time>2031-04-08T08:31:05Z</time></trkpt>
      <trkpt lat="-48.351043" lon="-123.216959"><ele>64.9</ele><time>2031-04-08T08:31:10Z</time></trkpt>
      <trkpt lat="-48.351054" lon="-123.216658"><ele>65.8</ele><time>2031-04-08T08:31:15Z</time></trkpt>
      <trkpt lat="-48.351051" lon="-123.216328"><ele>66.8</ele><time>2031-04-08T08:31:20Z</time></trkpt>
      <trkpt lat="-48.351086" lon="-123.215993"><ele>68.1</ele><time>2031-04-08T08:31:25Z</time></trkpt>
      <trkpt lat="-48.351115" lon="-123.215634"><ele>69.3</ele><time>2031-04-08T08:31:30Z</time></trkpt>
      <trkpt lat="-48.351136" lon="-123.215244"><ele>70.2</ele><time>2031-04-08T08:31:35Z</time></trkpt>
      <trkpt lat="-48.351141" lon="-123.214834"><ele>71.6</ele><time>2031-04-08T08:31:40Z</time></trkpt>
      <trkpt lat="-48.351147" lon="-123.214521"><ele>72.4</ele><time>2031-04-08T08:31:45Z</time></trkpt>
      <trkpt lat="-48.351121" lon="-123.214190"><ele>73.6</ele><time>2031-04-08T08:31:50Z</time></trkpt>
      <trkpt lat="-48.351081" lon="-123.213796"><ele>74.9</ele><time>2031-04-08T08:31:55Z</time></trkpt>
      <trkpt lat="-48.351050" lon="-123.213501"><ele>75.7</ele><time>2031-04-08T08:32:00Z</time></trkpt>
      <trkpt lat="-48.351010" lon="-123.213088"><ele>76.7</ele><time>2031-04-08T08:32:05Z</time></trkpt>
      <trkpt lat="-48.350985" lon="-123.212706"><ele>77.7</ele><time>2031-04-08T08:32:10Z</time></trkpt>
      <trkpt lat="-48.350941" lon="-123.212369"><ele>78.8</ele><time>2031-04-08T08:32:15Z</time></trkpt>
      <trkpt lat="-48.350883" lon="-123.211998"><ele>79.9</ele><time>2031-04-08T08:32:20Z</time></trkpt>
      <trkpt lat="-48.350815" lon="-123.211634"><ele>81.4</ele><time>2031-04-08T08:32:25Z</time></trkpt>
      <trkpt lat="-48.350709" lon="-123.211278"><ele>82.6</ele><time>2031-04-08T08:32:30Z</time></trkpt>
      <trkpt lat="-48.350645" lon="-123.210947"><ele>84.0</ele><time>2031-04-08T08:32:35Z</time></trkpt>
      <trkpt lat="-48.350528" lon="-123.210571"><ele>84.9</ele><time>2031-04-08T08:32:40Z</time></trkpt>
      <trkpt lat="-48.350425" lon="-123.210254"><ele>86.4</ele><time>2031-04-08T08:32:45Z</time></trkpt>
      <trkpt lat="-48.350282" lon="-123.209894"><ele>87.6</ele><time>2031-04-08T08:32:50Z</time></trkpt>
      <trkpt lat="-48.350130" lon="-123.209496"><ele>88.9</ele><time>2031-04-08T08:32:55Z</time></trkpt>
      <trkpt lat="-48.349971" lon="-123.209178"><ele>90.1</ele><time>2031-04-08T08:33:00Z</time></trkpt>
      <trkpt lat="-48.349796" lon="-123.208827"><ele>91.7</ele><time>2031-04-08T08:33:05Z</time></trkpt>
      <trkpt lat="-48.349669" lon="-123.208482"><ele>92.5</ele><time>2031-04-08T08:33:10Z</time></trkpt>
      <trkpt lat="-48.349573" lon="-123.208067"><ele>93.7</ele><time>2031-04-08T08:33:15Z</time></trkpt>
      <trkpt lat="-48.349481" lon="-123.207609"><ele>95.0</ele><time>2031-04-08T08:33:20Z</time></trkpt>
      <trkpt lat="-48.349376" lon="-123.207228"><ele>96.2</ele><time>2031-04-08T08:33:25Z</time></trkpt>
      <trkpt lat="-48.349248" lon="-123.206852"><ele>97.6</ele><time>2031-04-08T08:33:30Z</time></trkpt>
      <trkpt lat="-48.349147" lon="-123.206474"><ele>98.6</ele><time>2031-04-08T08:33:35Z</time></trkpt>
      <trkpt lat="-48.349027" lon="-123.206111"><ele>99.9</ele><time>2031-04-08T08:33:40Z</time></trkpt>
      <trkpt lat="-48.348947" lon="-123.205717"><ele>101.2</ele><time>2031-04-08T08:33:45Z</time></trkpt>
      <trkpt lat="-48.348904" lon="-123.205310"><ele>102.4</ele><time>2031-04-08T08:33:50Z</time></trkpt>
      <trkpt lat="-48.348891" lon="-123.204845"><ele>103.9</ele><time>2031-04-08T08:33:55Z</time></trkpt>
      <trkpt lat="-48.348925" lon="-123.204374"><ele>104.9</ele><time>2031-04-08T08:34:00Z</time></trkpt>
      <trkpt lat="-48.348967" lon="-123.204000"><ele>105.8</ele><time>2031-04-08T08:34:05Z</time></trkpt>
      <trkpt lat="-48.348983" lon="-123.203618"><ele>107.0</ele><time>2031-04-08T08:34:10Z</time></trkpt>
      <trkpt lat="-48.348974" lon="-123.203196"><ele>108.0</ele><time>2031-04-08T08:34:15Z</time></trkpt>
      <trkpt lat="-48.348913" lon="-123.202733"><ele>108.8</ele><time>2031-04-08T08:34:20Z</time></trkpt>
      <trkpt lat="-48.348889" lon="-123.202274"><ele>109.8</ele><time>2031-04-08T08:34:25Z</time></trkpt>
      <trkpt lat="-48.348827" lon="-123.201840"><ele>110.6</ele><time>2031-04-08T08:34:30Z</time></trkpt>
      <trkpt lat="-48.348788" lon="-123.201331"><ele>111.6</ele><time>2031-04-08T08:34:35Z</time></trkpt>
      <trkpt lat="-48.348749" lon="-123.200877"><ele>112.7</ele><time>2031-04-08T08:34:40Z</time></trkpt>
      <trkpt lat="-48.348683" lon="-123.200464"><ele>114.1</ele><time>2031-04-08T08:34:45Z</time></trkpt>
      <trkpt lat="-48.348621" lon="-123.199957"><ele>115.1</ele><time>2031-04-08T08:34:50Z</time></trkpt>
      <trkpt lat="-48.348545" lon="-123.199496"><ele>116.5</ele><time>2031-04-08T08:34:55Z</time></trkpt>
      <trkpt lat="-48.348505" lon="-123.199053"><ele>117.8</ele><time>2031-04-08T08:35:00Z</time></trkpt>
      <trkpt lat="-48.348456" lon="-123.198517"><ele>119.1</ele><time>2031-04-08T08:35:05Z</time></trkpt>
      <trkpt lat="-48.348370" lon="-123.198041"><ele>120.4</ele><time>2031-04-08T08:35:10Z</time></trkpt>
      <trkpt lat="-48.348337" lon="-123.197610"><ele>121.1</ele><time>2031-04-08T08:35:15Z</time></trkpt>
      <trkpt lat="-48.348245" lon="-123.197137"><ele>121.8</ele><time>2031-04-08T08:35:20Z</time></trkpt>
      <trkpt lat="-48.348155" lon="-123.196602"><ele>123.0</ele><time>2031-04-08T08:35:25Z</time></trkpt>
      <trkpt lat="-48.348123" lon="-123.196071"><ele>123.6</ele><time>2031-04-08T08:35:30Z</time></trkpt>
      <trkpt lat="-48.348057" lon="-123.195533"><ele>124.8</ele><time>2031-04-08T08:35:35Z</time></trkpt>
      <trkpt lat="-48.348023" lon="-123.195046"><ele>125.5</ele><time>2031-04-08T08:35:40Z</time></trkpt>
      <trkpt lat="-48.348015" lon="-123.194594"><ele>126.1</ele><time>2031-04-08T08:35:45Z</time></trkpt>
      <trkpt lat="-48.348026" lon="-123.194132"><ele>127.0</ele><time>2031-04-08T08:35:50Z</time></trkpt>
      <trkpt lat="-48.348030" lon="-123.193580"><ele>128.2</ele><time>2031-04-08T08:35:55Z</time></trkpt>
      <trkpt lat="-48.347982" lon="-123.193035"><ele>129.1</ele><time>2031-04-08T08:36:00Z</time></trkpt>
      <trkpt lat="-48.347995" lon="-123.192551"><ele>129.7</ele><time>2031-04-08T08:36:05Z</time></trkpt>
      <trkpt lat="-48.347980" lon="-123.191988"><ele>130.5</ele><time>2031-04-08T08:36:10Z</time></trkpt>
      <trkpt lat="-48.347931" lon="-123.191445"><ele>131.2</ele><time>2031-04-08T08:36:15Z</time></trkpt>
      <trkpt lat="-48.347839" lon="-123.191000"><ele>131.9</ele><time>2031-04-08T08:36:20Z</time></trkpt>
      <trkpt lat="-48.347787" lon="-123.190527"><ele>132.3</ele><time>2031-04-08T08:36:25Z</time></trkpt>
      <trkpt lat="-48.347731" lon="-123.190000"><ele>132.6</ele><time>2031-04-08T08:36:30Z</time></trkpt>
      <trkpt lat="-48.347712" lon="-123.189523"><ele>133.5</ele><time>2031-04-08T08:36:35Z</time></trkpt>
      <trkpt lat="-48.347641" lon="-123.188976"><ele>134.0</ele><time>2031-04-08T08:36:40Z</time></trkpt>
      <trkpt lat="-48.347626" lon="-123.188471"><ele>134.8</ele><time>2031-04-08T08:36:45Z</time></trkpt>
      <trkpt lat="-48.347633" lon="-123.187904"><ele>135.5</ele><time>2031-04-08T08:36:50Z</time></trkpt>
      <trkpt lat="-48.347638" lon="-123.187356"><ele>136.0</ele><time>2031-04-08T08:36:55Z</time></trkpt>
      <trkpt lat="-48.347617" lon="-123.186786"><ele>136.2</ele><time>2031-04-08T08:37:00Z</time></trkpt>
      <trkpt lat="-48.347626" lon="-123.186291"><ele>136.6</ele><time>2031-04-08T08:37:05Z</time></trkpt>
      <trkpt lat="-48.347632" lon="-123.185676"><ele>137.1</ele><time>2031-04-08T08:37:10Z</time></trkpt>
      <trkpt lat="-48.347680" lon="-123.185105"><ele>137.1</ele><time>2031-04-08T08:37:15Z</time></trkpt>
      <trkpt lat="-48.347743" lon="-123.184533"><ele>137.3</ele><time>2031-04-08T08:37:20Z</time></trkpt>
      <trkpt lat="-48.347764" lon="-123.184009"><ele>137.7</ele><time>2031-04-08T08:37:25Z</time></trkpt>
      <trkpt lat="-48.347779" lon="-123.183438"><ele>137.5</ele><time>2031-04-08T08:37:30Z</time></trkpt>
      <trkpt lat="-48.347817" lon="-123.182818"><ele>138.0</ele><time>2031-04-08T08:37:35Z</time></trkpt>
      <trkpt lat="-48.347791" lon="-123.182177"><ele>137.8</ele><time>2031-04-08T08:37:40Z</time></trkpt>
      <trkpt lat="-48.347730" lon="-123.181605"><ele>137.8</ele><time>2031-04-08T08:37:45Z</time></trkpt>
      <trkpt lat="-48.347717" lon="-123.181059"><ele>137.9</ele><time>2031-04-08T08:37:50Z</time></trkpt>
      <trkpt lat="-48.347648" lon="-123.180447"><ele>138.0</ele><time>2031-04-08T08:37:55Z</time></trkpt>
      <trkpt lat="-48.347644" lon="-123.179889"><ele>137.6</ele><time>2031-04-08T08:38:00Z</time></trkpt>
      <trkpt lat="-48.347635" lon="-123.179321"><ele>137.7</ele><time>2031-04-08T08:38:05Z</time></trkpt>
      <trkpt lat="-48.347640" lon="-123.178686"><ele>137.6</ele><time>2031-04-08T08:38:10Z</time></trkpt>
      <trkpt lat="-48.347621" lon="-123.178065"><ele>137.7</ele><time>2031-04-08T08:38:15Z</time></trkpt>
      <trkpt lat="-48.347571" lon="-123.177532"><ele>137.9</ele><time>2031-04-08T08:38:20Z</time></trkpt>
      <trkpt lat="-48.347511" lon="-123.176899"><ele>138.1</ele><time>2031-04-08T08:38:25Z</time></trkpt>
      <trkpt lat="-48.347479" lon="-123.176280"><ele>137.5</ele><time>2031-04-08T08:38:30Z</time></trkpt>
      <trkpt lat="-48.347446" lon="-123.175650"><ele>137.3</ele><time>2031-04-08T08:38:35Z</time></trkpt>
      <trkpt lat="-48.347411" lon="-123.175026"><ele>136.8</ele><time>2031-04-08T08:38:40Z</time></trkpt>
      <trkpt lat="-48.347396" lon="-123.174415"><ele>136.8</ele><time>2031-04-08T08:38:45Z</time></trkpt>
      <trkpt lat="-48.347377" lon="-123.173794"><ele>136.2</ele><time>2031-04-08T08:38:50Z</time></trkpt>
      <trkpt lat="-48.347374" lon="-123.173173"><ele>135.9</ele><time>2031-04-08T08:38:55Z</time></trkpt>
      <trkpt lat="-48.347396" lon="-123.172612"><ele>135.8</ele><time>2031-04-08T08:39:00Z</time></trkpt>
      <trkpt lat="-48.347442" lon="-123.172038"><ele>135.3</ele><time>2031-04-08T08:39:05Z</time></trkpt>
      <trkpt lat="-48.347536" lon="-123.171442"><ele>134.8</ele><time>2031-04-08T08:39:10Z</time></trkpt>
      <trkpt lat="-48.347613" lon="-123.170776"><ele>134.6</ele><time>2031-04-08T08:39:15Z</time></trkpt>
      <trkpt lat="-48.347726" lon="-123.170210"><ele>134.1</ele><time>2031-04-08T08:39:20Z</time></trkpt>
      <trkpt lat="-48.347860" lon="-123.169662"><ele>133.2</ele><time>2031-04-08T08:39:25Z</time></trkpt>
      <trkpt lat="-48.348066" lon="-123.169032"><ele>132.5</ele><time>2031-04-08T08:39:30Z</time></trkpt>
      <trkpt lat="-48.348191" lon="-123.168406"><ele>132.0</ele><time>2031-04-08T08:39:35Z</time></trkpt>
      <trkpt lat="-48.348289" lon="-123.167834"><ele>131.4</ele><time>2031-04-08T08:39:40Z</time></trkpt>
      <trkpt lat="-48.348387" lon="-123.167163"><ele>130.8</ele><time>2031-04-08T08:39:45Z</time></trkpt>
      <trkpt lat="-48.348422" lon="-123.166524"><ele>129.8</ele><time>2031-04-08T08:39:50Z</time></trkpt>
      <trkpt lat="-48.348466" lon="-123.165866"><ele>129.0</ele><time>2031-04-08T08:39:55Z</time></trkpt>
      <trkpt lat="-48.348553" lon="-123.165248"><ele>128.4</ele><time>2031-04-08T08:40:00Z</time></trkpt>
      <trkpt lat="-48.348587" lon="-123.164640"><ele>127.7</ele><time>2031-04-08T08:40:05Z</time></trkpt>
      <trkpt lat="-48.348643" lon="-123.163944"><ele>127.3</ele><time>2031-04-08T08:40:10Z</time></trkpt>
      <trkpt lat="-48.348750" lon="-123.163357"><ele>126.7</ele><time>2031-04-08T08:40:15Z</time></trkpt>
      <trkpt lat="-48.348801" lon="-123.162756"><ele>125.5</ele><time>2031-04-08T08:40:20Z</time></trkpt>
      <trkpt lat="-48.348895" lon="-123.162101"><ele>124.2</ele><time>2031-04-08T08:40:25Z</time></trkpt>
      <trkpt lat="-48.349050" lon="-123.161503"><ele>123.1</ele><time>2031-04-08T08:40:30Z</time></trkpt>
      <trkpt lat="-48.349280" lon="-123.160909"><ele>121.9</ele><time>2031-04-08T08:40:35Z</time></trkpt>
      <trkpt lat="-48.349583" lon="-123.160368"><ele>120.6</ele><time>2031-04-08T08:40:40Z</time></trkpt>
      <trkpt lat="-48.349859" lon="-123.159815"><ele>119.6</ele><time>2031-04-08T08:40:45Z</time></trkpt>
      <trkpt lat="-48.350092" lon="-123.159236"><ele>118.3</ele><time>2031-04-08T08:40:50Z</time></trkpt>
      <trkpt lat="-48.350369" lon="-123.158750"><ele>117.4</ele><time>2031-04-08T08:40:55Z</time></trkpt>
      <trkpt lat="-48.350722" lon="-123.158285"><ele>116.4</ele><time>2031-04-08T08:41:00Z</time></trkpt>
      <trkpt lat="-48.351032" lon="-123.157881"><ele>115.2</ele><time>2031-04-08T08:41:05Z</time></trkpt>
      <trkpt lat="-48.351407" lon="-123.157484"><ele>113.9</ele><time>2031-04-08T08:41:10Z</time></trkpt>
      <trkpt lat="-48.351795" lon="-123.157114"><ele>113.0</ele><time>2031-04-08T08:41:15Z</time></trkpt>
      <trkpt lat="-48.352157" lon="-123.156772"><ele>112.2</ele><time>2031-04-08T08:41:20Z</time></trkpt>
      <trkpt lat="-48.352564" lon="-123.156391"><ele>111.5</ele><time>2031-04-08T08:41:25Z</time></trkpt>
      <trkpt lat="-48.352925" lon="-123.155990"><ele>110.0</ele><time>2031-04-08T08:41:30Z</time></trkpt>
      <trkpt lat="-48.353288" lon="-123.155513"><ele>108.7</ele><time>2031-04-08T08:41:35Z</time></trkpt>
      <trkpt lat="-48.353660" lon="-123.155082"><ele>107.4</ele><time>2031-04-08T08:41:40Z</time></trkpt>
      <trkpt lat="-48.353977" lon="-123.154698"><ele>106.1</ele><time>2031-04-08T08:41:45Z</time></trkpt>
      <trkpt lat="-48.354275" lon="-123.154291"><ele>105.1</ele><time>2031-04-08T08:41:50Z</time></trkpt>
      <trkpt lat="-48.354534" lon="-123.153826"><ele>103.7</ele><time>2031-04-08T08:41:55Z</time></trkpt>
      <trkpt lat="-48.354795" lon="-123.153287"><ele>102.6</ele><time>2031-04-08T08:42:00Z</time></trkpt>
    </trkseg>
  </trk>
</gpx>
