<?xml version="1.0" encoding="UTF-8"?>
<gpx version="1.1" creator="velograph-synthetic-fixtures" xmlns="http://www.topografix.com/GPX/1/1">
  <trk>
    <name>Synthetic Ride 1</name>
    <trkseg>
      <trkpt lat="-48.499880" lon="-123.500494"><ele>44.4</ele><time>2031-04-02T07:30:00Z</time></trkpt>
      <trkpt lat="-48.499808" lon="-123.500995"><ele>44.6</ele><time>2031-04-02T07:30:05Z</time></trkpt>
      <trkpt lat="-48.499702" lon="-123.501449"><ele>44.8</ele><time>2031-04-02T07:30:10Z</time></trkpt>
      <trkpt lat="-48.499612" lon="-123.501924"><ele>45.1</ele><time>2031-04-02T07:30:15Z</time></trkpt>
      <trkpt lat="-48.499496" lon="-123.502351"><ele>45.0</ele><time>2031-04-02T07:30:20Z</time></trkpt>
      <trkpt lat="-48.499326" lon="-123.502825"><ele>45.3</ele><time>2031-04-02T07:30:25Z</time></trkpt>
      <trkpt lat="-48.499162" lon="-123.503320"><ele>45.7</ele><time>2031-04-02T07:30:30Z</time></trkpt>
      <trkpt lat="-48.499019" lon="-123.503750"><ele>45.7</ele><time>2031-04-02T07:30:35Z</time></trkpt>
      <trkpt lat="-48.498840" lon="-123.504206"><ele>46.2</ele><time>2031-04-02T07:30:40Z</time></trkpt>
      <trkpt lat="-48.498618" lon="-123.504653"><ele>46.2</ele><time>2031-04-02T07:30:45Z</time></trkpt>
      <trkpt lat="-48.498382" lon="-123.505023"><ele>46.4</ele><time>2031-04-02T07:30:50Z</time></trkpt>
      <trkpt lat="-48.498114" lon="-123.505368"><ele>46.8</ele><time>2031-04-02T07:30:55Z</time></trkpt>
      <trkpt lat="-48.497886" lon="-123.505665"><ele>47.1</ele><time>2031-04-02T07:31:00Z</time></trkpt>
      <trkpt lat="-48.497618" lon="-123.505972"><ele>47.5</ele><time>2031-04-02T07:31:05Z</time></trkpt>
      <trkpt lat="-48.497402" lon="-123.506293"><ele>47.7</ele><time>2031-04-02T07:31:10Z</time></trkpt>
      <trkpt lat="-48.497151" lon="-123.506618"><ele>48.1</ele><time>2031-04-02T07:31:15Z</time></trkpt>
      <trkpt lat="-48.496908" lon="-123.506916"><ele>48.9</ele><time>2031-04-02T07:31:20Z</time></trkpt>
      <trkpt lat="-48.496690" lon="-123.507263"><ele>49.3</ele><time>2031-04-02T07:31:25Z</time></trkpt>
      <trkpt lat="-48.496477" lon="-123.507694"><ele>50.3</ele><time>2031-04-02T07:31:30Z</time></trkpt>
      <trkpt lat="-48.496217" lon="-123.508140"><ele>51.0</ele><time>2031-04-02T07:31:35Z</time></trkpt>
      <trkpt lat="-48.495978" lon="-123.508536"><ele>52.0</ele><time>2031-04-02T07:31:40Z</time></trkpt>
      <trkpt lat="-48.495713" lon="-123.508988"><ele>52.7</ele><time>2031-04-02T07:31:45Z</time></trkpt>
      <trkpt lat="-48.495531" lon="-123.509409"><ele>53.8</ele><time>2031-04-02T07:31:50Z</time></trkpt>
      <trkpt lat="-48.495353" lon="-123.509854"><ele>54.1</ele><time>2031-04-02T07:31:55Z</time></trkpt>
      <trkpt lat="-48.495155" lon="-123.510333"><ele>54.8</ele><time>2031-04-02T07:32:00Z</time></trkpt>
      <trkpt lat="-48.494902" lon="-123.510761"><ele>55.2</ele><time>2031-04-02T07:32:05Z</time></trkpt>
      <trkpt lat="-48.494617" lon="-123.511155"><ele>56.2</ele><time>2031-04-02T07:32:10Z</time></trkpt>
      <trkpt lat="-48.494361" lon="-123.511625"><ele>56.7</ele><time>2031-04-02T07:32:15Z</time></trkpt>
      <trkpt lat="-48.494167" lon="-123.512046"><ele>57.4</ele><time>2031-04-02T07:32:20Z</time></trkpt>
      <trkpt lat="-48.493945" lon="-123.512426"><ele>58.5</ele><time>2031-04-02T07:32:25Z</time></trkpt>
      <trkpt lat="-48.493720" lon="-123.512822"><ele>59.4</ele><time>2031-04-02T07:32:30Z</time></trkpt>
      <trkpt lat="-48.493453" lon="-123.513161"><ele>60.2</ele><time>2031-04-02T07:32:35Z</time></trkpt>
      <trkpt lat="-48.493117" lon="-123.513461"><ele>60.8</ele><time>2031-04-02T07:32:40Z</time></trkpt>
      <trkpt lat="-48.492828" lon="-123.513811"><ele>61.4</ele><time>2031-04-02T07:32:45Z</time></trkpt>
      <trkpt lat="-48.492534" lon="-123.514222"><ele>62.7</ele><time>2031-04-02T07:32:50Z</time></trkpt>
      <trkpt lat="-48.492215" lon="-123.514575"><ele>63.5</ele><time>2031-04-02T07:32:55Z</time></trkpt>
      <trkpt lat="-48.491941" lon="-123.514913"><ele>64.2</ele><time>2031-04-02T07:33:00Z</time></trkpt>
      <trkpt lat="-48.491597" lon="-123.515313"><ele>65.0</ele><time>2031-04-02T07:33:05Z</time></trkpt>
      <trkpt lat="-48.491310" lon="-123.515646"><ele>65.9</ele><time>2031-04-02T07:33:10Z</time></trkpt>
      <trkpt lat="-48.491000" lon="-123.515943"><ele>66.6</ele><time>2031-04-02T07:33:15Z</time></trkpt>
      <trkpt lat="-48.490635" lon="-123.516269"><ele>67.9</ele><time>2031-04-02T07:33:20Z</time></trkpt>
      <trkpt lat="-48.490267" lon="-123.516527"><ele>69.3</ele><time>2031-04-02T07:33:25Z</time></trkpt>
      <trkpt lat="-48.489900" lon="-123.516729"><ele>70.0</ele><time>2031-04-02T07:33:30Z</time></trkpt>
      <trkpt lat="-48.489503" lon="-123.516957"><ele>70.8</ele><time>2031-04-02T07:33:35Z</time></trkpt>
      <trkpt lat="-48.489098" lon="-123.517148"><ele>71.5</ele><time>2031-04-02T07:33:40Z</time></trkpt>
      <trkpt lat="-48.488677" lon="-123.517329"><ele>72.7</ele><time>2031-04-02T07:33:45Z</time></trkpt>
      <trkpt lat="-48.488289" lon="-123.517483"><ele>73.7</ele><time>2031-04-02T07:33:50Z</time></trkpt>
      <trkpt lat="-48.487882" lon="-123.517568"><ele>75.0</ele><time>2031-04-02T07:33:55Z</time></trkpt>
      <trkpt lat="-48.487465" lon="-123.517762"><ele>76.0</ele><time>2031-04-02T07:34:00Z</time></trkpt>
      <trkpt lat="-48.487053" lon="-123.517973"><ele>77.1</ele><time>2031-04-02T07:34:05Z</time></trkpt>
      <trkpt lat="-48.486677" lon="-123.518144"><ele>78.0</ele><time>2031-04-02T07:34:10Z</time></trkpt>
      <trkpt lat="-48.486279" lon="-123.518273"><ele>79.3</ele><time>2031-04-02T07:34:15Z</time></trkpt>
      <trkpt lat="-48.485873" lon="-123.518434"><ele>80.8</ele><time>2031-04-02T07:34:20Z</time></trkpt>
      <trkpt lat="-48.485446" lon="-123.518550"><ele>81.7</ele><time>2031-04-02T07:34:25Z</time></trkpt>
      <trkpt lat="-48.485001" lon="-123.518711"><ele>83.2</ele><time>2031-04-02T07:34:30Z</time></trkpt>
      <trkpt lat="-48.484568" lon="-123.518950"><ele>84.6</ele><time>2031-04-02T07:34:35Z</time></trkpt>
      <trkpt lat="-48.484178" lon="-123.519114"><ele>85.8</ele><time>2031-04-02T07:34:40Z</time></trkpt>
      <trkpt lat="-48.483798" lon="-123.519250"><ele>86.9</ele><time>2031-04-02T07:34:45Z</time></trkpt>
      <trkpt lat="-48.483385" lon="-123.519519"><ele>88.1</ele><time>2031-04-02T07:34:50Z</time></trkpt>
      <trkpt lat="-48.482972" lon="-123.519710"><ele>89.0</ele><time>2031-04-02T07:34:55Z</time></trkpt>
      <trkpt lat="-48.482538" lon="-123.519970"><ele>89.9</ele><time>2031-04-02T07:35:00Z</time></trkpt>
      <trkpt lat="-48.482179" lon="-123.520252"><ele>91.1</ele><time>2031-04-02T07:35:05Z</time></trkpt>
      <trkpt lat="-48.481757" lon="-123.520547"><ele>92.7</ele><time>2031-04-02T07:35:10Z</time></trkpt>
      <trkpt lat="-48.481361" lon="-123.520933"><ele>93.6</ele><time>2031-04-02T07:35:15Z</time></trkpt>
      <trkpt lat="-48.480938" lon="-123.521262"><ele>95.1</ele><time>2031-04-02T07:35:20Z</time></trkpt>
      <trkpt lat="-48.480579" lon="-123.521528"><ele>96.2</ele><time>2031-04-02T07:35:25Z</time></trkpt>
      <trkpt lat="-48.480182" lon="-123.521807"><ele>97.5</ele><time>2031-04-02T07:35:30Z</time></trkpt>
      <trkpt lat="-48.479851" lon="-123.522120"><ele>98.9</ele><time>2031-04-02T07:35:35Z</time></trkpt>
      <trkpt lat="-48.479549" lon="-123.522500"><ele>100.1</ele><time>2031-04-02T07:35:40Z</time></trkpt>
      <trkpt lat="-48.479204" lon="-123.522950"><ele>101.3</ele><time>2031-04-02T07:35:45Z</time></trkpt>
      <trkpt lat="-48.478822" lon="-123.523329"><ele>102.3</ele><time>2031-04-02T07:35:50Z</time></trkpt>
      <trkpt lat="-48.478434" lon="-123.523737"><ele>103.1</ele><time>2031-04-02T07:35:55Z</time></trkpt>
      <trkpt lat="-48.477998" lon="-123.524043"><ele>104.1</ele><time>2031-04-02T07:36:00Z</time></trkpt>
      <trkpt lat="-48.477540" lon="-123.524263"><ele>105.4</ele><time>2031-04-02T07:36:05Z</time></trkpt>
      <trkpt lat="-48.477160" lon="-123.524446"><ele>106.2</ele><time>2031-04-02T07:36:10Z</time></trkpt>
      <trkpt lat="-48.476724" lon="-123.524700"><ele>106.9</ele><time>2031-04-02T07:36:15Z</time></trkpt>
      <trkpt lat="-48.476338" lon="-123.524959"><ele>108.3</ele><time>2031-04-02T07:36:20Z</time></trkpt>
      <trkpt lat="-48.475916" lon="-123.525237"><ele>109.3</ele><time>2031-04-02T07:36:25Z</time></trkpt>
      <trkpt lat="-48.475538" lon="-123.525522"><ele>110.3</ele><time>2031-04-02T07:36:30Z</time></trkpt>
      <trkpt lat="-48.475210" lon="-123.525881"><ele>111.3</ele><time>2031-04-02T07:36:35Z</time></trkpt>
      <trkpt lat="-48.474875" lon="-123.526338"><ele>112.0</ele><time>2031-04-02T07:36:40Z</time></trkpt>
      <trkpt lat="-48.474519" lon="-123.526809"><ele>112.6</ele><time>2031-04-02T07:36:45Z</time></trkpt>
      <trkpt lat="-48.474194" lon="-123.527170"><ele>113.5</ele><time>2031-04-02T07:36:50Z</time></trkpt>
      <trkpt lat="-48.473854" lon="-123.527615"><ele>114.4</ele><time>2031-04-02T07:36:55Z</time></trkpt>
      <trkpt lat="-48.473546" lon="-123.528010"><ele>115.4</ele><time>2031-04-02T07:37:00Z</time></trkpt>
      <trkpt lat="-48.473230" lon="-123.528391"><ele>116.3</ele><time>2031-04-02T07:37:05Z</time></trkpt>
      <trkpt lat="-48.472862" lon="-123.528792"><ele>117.0</ele><time>2031-04-02T07:37:10Z</time></trkpt>
      <trkpt lat="-48.472488" lon="-123.529200"><ele>117.9</ele><time>2031-04-02T07:37:15Z</time></trkpt>
      <trkpt lat="-48.472171" lon="-123.529682"><ele>118.8</ele><time>2031-04-02T07:37:20Z</time></trkpt>
      <trkpt lat="-48.471800" lon="-123.530099"><ele>119.7</ele><time>2031-04-02T07:37:25Z</time></trkpt>
      <trkpt lat="-48.471400" lon="-123.530414"><ele>120.4</ele><time>2031-04-02T07:37:30Z</time></trkpt>
      <trkpt lat="-48.470950" lon="-123.530631"><ele>121.0</ele><time>2031-04-02T07:37:35Z</time></trkpt>
      <trkpt lat="-48.470513" lon="-123.530785"><ele>122.0</ele><time>2031-04-02T07:37:40Z</time></trkpt>
      <trkpt lat="-48.470029" lon="-123.530878"><ele>122.3</ele><time>2031-04-02T07:37:45Z</time></trkpt>
      <trkpt lat="-48.469569" lon="-123.531047"><ele>122.5</ele><time>2031-04-02T07:37:50Z</time></trkpt>
      <trkpt lat="-48.469137" lon="-123.531143"><ele>123.0</ele><time>2031-04-02T07:37:55Z</time></trkpt>
      <trkpt lat="-48.468671" lon="-123.531176"><ele>123.7</ele><time>2031-04-02T07:38:00Z</time></trkpt>
      <trkpt lat="-48.468257" lon="-123.531266"><ele>123.9</ele><time>2031-04-02T07:38:05Z</time></trkpt>
      <trkpt lat="-48.467783" lon="-123.531256"><ele>124.4</ele><time>2031-04-02T07:38:10Z</time></trkpt>
      <trkpt lat="-48.467366" lon="-123.531266"><ele>125.1</ele><time>2031-04-02T07:38:15Z</time></trkpt>
      <trkpt lat="-48.466924" lon="-123.531292"><ele>125.7</ele><time>2031-04-02T07:38:20Z</time></trkpt>
      <trkpt lat="-48.466449" lon="-123.531295"><ele>125.9</ele><time>2031-04-02T07:38:25Z</time></trkpt>
      <trkpt lat="-48.466002" lon="-123.531231"><ele>126.3</ele><time>2031-04-02T07:38:30Z</time></trkpt>
      <trkpt lat="-48.465562" lon="-123.531049"><ele>126.5</ele><time>2031-04-02T07:38:35Z</time></trkpt>
      <trkpt lat="-48.465112" lon="-123.530848"><ele>126.9</ele><time>2031-04-02T07:38:40Z</time></trkpt>
      <trkpt lat="-48.464652" lon="-123.530589"><ele>127.1</ele><time>2031-04-02T07:38:45Z</time></trkpt>
      <trkpt lat="-48.464247" lon="-123.530367"><ele>127.1</ele><time>2031-04-02T07:38:50Z</time></trkpt>
      <trkpt lat="-48.463861" lon="-123.530188"><ele>127.5</ele><time>2031-04-02T07:38:55Z</time></trkpt>
      <trkpt lat="-48.463414" lon="-123.529886"><ele>127.9</ele><time>2031-04-02T07:39:00Z</time></trkpt>
      <trkpt lat="-48.463056" lon="-123.529577"><ele>127.9</ele><time>2031-04-02T07:39:05Z</time></trkpt>
      <trkpt lat="-48.462627" lon="-123.529304"><ele>128.2</ele><time>2031-04-02T07:39:10Z</time></trkpt>
      <trkpt lat="-48.462225" lon="-123.528954"><ele>127.9</ele><time>2031-04-02T07:39:15Z</time></trkpt>
      <trkpt lat="-48.461872" lon="-123.528599"><ele>128.2</ele><time>2031-04-02T07:39:20Z</time></trkpt>
      <trkpt lat="-48.461509" lon="-123.528114"><ele>127.9</ele><time>2031-04-02T07:39:25Z</time></trkpt>
      <trkpt lat="-48.461196" lon="-123.527613"><ele>128.0</ele><time>2031-04-02T07:39:30Z</time></trkpt>
      <trkpt lat="-48.460851" lon="-123.527125"><ele>128.1</ele><time>2031-04-02T07:39:35Z</time></trkpt>
      <trkpt lat="-48.460513" lon="-123.526614"><ele>127.9</ele><time>2031-04-02T07:39:40Z</time></trkpt>
      <trkpt lat="-48.460200" lon="-123.526146"><ele>127.6</ele><time>2031-04-02T07:39:45Z</time></trkpt>
      <trkpt lat="-48.459881" lon="-123.525711"><ele>127.6</ele><time>2031-04-02T07:39:50Z</time></trkpt>
      <trkpt lat="-48.459491" lon="-123.525306"><ele>127.0</ele><time>2031-04-02T07:39:55Z</time></trkpt>
      <trkpt lat="-48.459124" lon="-123.524981"><ele>127.1</ele><time>2031-04-02T07:40:00Z</time></trkpt>
      <trkpt lat="-48.458751" lon="-123.524663"><ele>126.9</ele><time>2031-04-02T07:40:05Z</time></trkpt>
      <trkpt lat="-48.458364" lon="-123.524416"><ele>126.7</ele><time>2031-04-02T07:40:10Z</time></trkpt>
      <trkpt lat="-48.458025" lon="-123.524088"><ele>126.6</ele><time>2031-04-02T07:40:15Z</time></trkpt>
      <trkpt lat="-48.457688" lon="-123.523794"><ele>126.4</ele><time>2031-04-02T07:40:20Z</time></trkpt>
      <trkpt lat="-48.457325" lon="-123.523407"><ele>126.0</ele><time>2031-04-02T07:40:25Z</time></trkpt>
      <trkpt lat="-48.457012" lon="-123.522971"><ele>126.0</ele><time>2031-04-02T07:40:30Z</time></trkpt>
      <trkpt lat="-48.456681" lon="-123.522557"><ele>125.4</ele><time>2031-04-02T07:40:35Z</time></trkpt>
      <trkpt lat="-48.456353" lon="-123.522085"><ele>125.1</ele><time>2031-04-02T07:40:40Z</time></trkpt>
      <trkpt lat="-48.456044" lon="-123.521663"><ele>124.8</ele><time>2031-04-02T07:40:45Z</time></trkpt>
      <trkpt lat="-48.455703" lon="-123.521258"><ele>124.0</ele><time>2031-04-02T07:40:50Z</time></trkpt>
      <trkpt lat="-48.455379" lon="-123.520871"><ele>123.3</ele><time>2031-04-02T07:40:55Z</time></trkpt>
      <trkpt lat="-48.454994" lon="-123.520475"><ele>122.9</ele><time>2031-04-02T07:41:00Z</time></trkpt>
      <trkpt lat="-48.454658" lon="-123.520144"><ele>122.6</ele><time>2031-04-02T07:41:05Z</time></trkpt>
      <trkpt lat="-48.454314" lon="-123.519768"><ele>122.1</ele><time>2031-04-02T07:41:10Z</time></trkpt>
      <trkpt lat="-48.454009" lon="-123.519327"><ele>121.4</ele><time>2031-04-02T07:41:15Z</time></trkpt>
      <trkpt lat="-48.453768" lon="-123.518842"><ele>120.7</ele><time>2031-04-02T07:41:20Z</time></trkpt>
      <trkpt lat="-48.453517" lon="-123.518389"><ele>119.8</ele><time>2031-04-02T07:41:25Z</time></trkpt>
      <trkpt lat="-48.453248" lon="-123.517834"><ele>119.1</ele><time>2031-04-02T07:41:30Z</time></trkpt>
      <trkpt lat="-48.452968" lon="-123.517385"><ele>118.1</ele><time>2031-04-02T07:41:35Z</time></trkpt>
      <trkpt lat="-48.452663" lon="-123.516940"><ele>116.9</ele><time>2031-04-02T07:41:40Z</time></trkpt>
      <trkpt lat="-48.452302" lon="-123.516557"><ele>116.1</ele><time>2031-04-02T07:41:45Z</time></trkpt>
      <trkpt lat="-48.451976" lon="-123.516102"><ele>115.4</ele><time>2031-04-02T07:41:50Z</time></trkpt>
      <trkpt lat="-48.451612" lon="-123.515703"><ele>114.8</ele><time>2031-04-02T07:41:55Z</time></trkpt>
      <trkpt lat="-48.451287" lon="-123.515325"><ele>113.9</ele><time>2031-04-02T07:42:00Z</time></trkpt>
      <trkpt lat="-48.450963" lon="-123.515031"><ele>112.6</ele><time>2031-04-02T07:42:05Z</time></trkpt>
      <trkpt lat="-48.450608" lon="-123.514631"><ele>112.1</ele><time>2031-04-02T07:42:10Z</time></trkpt>
      <trkpt lat="-48.450331" lon="-123.514276"><ele>110.9</ele><time>2031-04-02T07:42:15Z</time></trkpt>
      <trkpt lat="-48.449975" lon="-123.513882"><ele>109.7</ele><time>2031-04-02T07:42:20Z</time></trkpt>
      <trkpt lat="-48.449700" lon="-123.513519"><ele>108.7</ele><time>2031-04-02T07:42:25Z</time></trkpt>
      <trkpt lat="-48.449430" lon="-123.513182"><ele>107.9</ele><time>2031-04-02T07:42:30Z</time></trkpt>
      <trkpt lat="-48.449139" lon="-123.512713"><ele>106.8</ele><time>2031-04-02T07:42:35Z</time></trkpt>
      <trkpt lat="-48.448862" lon="-123.512297"><ele>105.7</ele><time>2031-04-02T07:42:40Z</time></trkpt>
      <trkpt lat="-48.448553" lon="-123.511893"><ele>104.9</ele><time>2031-04-02T07:42:45Z</time></trkpt>
      <trkpt lat="-48.448245" lon="-123.511587"><ele>103.7</ele><time>2031-04-02T07:42:50Z</time></trkpt>
      <trkpt lat="-48.447974" lon="-123.511217"><ele>103.0</ele><time>2031-04-02T07:42:55Z</time></trkpt>
      <trkpt lat="-48.447676" lon="-123.510926"><ele>101.8</ele><time>2031-04-02T07:43:00Z</time></trkpt>
      <trkpt lat="-48.447369" lon="-123.510707"><ele>100.7</ele><time>2031-04-02T07:43:05Z</time></trkpt>
      <trkpt lat="-48.447005" lon="-123.510462"><ele>99.9</ele><time>2031-04-02T07:43:10Z</time></trkpt>
      <trkpt lat="-48.446641" lon="-123.510145"><ele>98.9</ele><time>2031-04-02T07:43:15Z</time></trkpt>
      <trkpt lat="-48.446327" lon="-123.509803"><ele>97.7</ele><time>2031-04-02T07:43:20Z</time></trkpt>
      <trkpt lat="-48.446043" lon="-123.509536"><ele>96.7</ele><time>2031-04-02T07:43:25Z</time></trkpt>
      <trkpt lat="-48.445733" lon="-123.509117"><ele>95.6</ele><time>2031-04-02T07:43:30Z</time></trkpt>
      <trkpt lat="-48.445490" lon="-123.508675"><ele>94.8</ele><time>2031-04-02T07:43:35Z</time></trkpt>
      <trkpt lat="-48.445295" lon="-123.508188"><ele>93.6</ele><time>2031-04-02T07:43:40Z</time></trkpt>
      <trkpt lat="-48.445130" lon="-123.507667"><ele>92.3</ele><time>2031-04-02T07:43:45Z</time></trkpt>
      <trkpt lat="-48.444952" lon="-123.507217"><ele>91.3</ele><time>2031-04-02T07:43:50Z</time></trkpt>
      <trkpt lat="-48.444800" lon="-123.506702"><ele>89.8</ele><time>2031-04-02T07:43:55Z</time></trkpt>
      <trkpt lat="-48.444697" lon="-123.506246"><ele>88.5</ele><time>2031-04-02T07:44:00Z</time></trkpt>
      <trkpt lat="-48.444576" lon="-123.505799"><ele>87.0</ele><time>2031-04-02T07:44:05Z</time></trkpt>
      <trkpt lat="-48.444393" lon="-123.505292"><ele>85.8</ele><time>2031-04-02T07:44:10Z</time></trkpt>
      <trkpt lat="-48.444222" lon="-123.504758"><ele>84.2</ele><time>2031-04-02T07:44:15Z</time></trkpt>
      <trkpt lat="-48.444016" lon="-123.504310"><ele>83.1</ele><time>2031-04-02T07:44:20Z</time></trkpt>
      <trkpt lat="-48.443826" lon="-123.503849"><ele>81.9</ele><time>2031-04-02T07:44:25Z</time></trkpt>
      <trkpt lat="-48.443605" lon="-123.503388"><ele>80.6</ele><time>2031-04-02T07:44:30Z</time></trkpt>
      <trkpt lat="-48.443340" lon="-123.502959"><ele>79.7</ele><time>2031-04-02T07:44:35Z</time></trkpt>
      <trkpt lat="-48.443074" lon="-123.502571"><ele>78.4</ele><time>2031-04-02T07:44:40Z</time></trkpt>
      <trkpt lat="-48.442849" lon="-123.502122"><ele>77.6</ele><time>2031-04-02T07:44:45Z</time></trkpt>
      <trkpt lat="-48.442683" lon="-123.501667"><ele>76.1</ele><time>2031-04-02T07:44:50Z</time></trkpt>
      <trkpt lat="-48.442487" lon="-123.501287"><ele>74.8</ele><time>2031-04-02T07:44:55Z</time></trkpt>
      <trkpt lat="-48.442268" lon="-123.500832"><ele>73.5</ele><time>2031-04-02T07:45:00Z</time></trkpt>
      <trkpt lat="-48.442115" lon="-123.500444"><ele>72.7</ele><time>2031-04-02T07:45:05Z</time></trkpt>
      <trkpt lat="-48.441965" lon="-123.499930"><ele>71.5</ele><time>2031-04-02T07:45:10Z</time></trkpt>
      <trkpt lat="-48.441833" lon="-123.499548"><ele>70.1</ele><time>2031-04-02T07:45:15Z</time></trkpt>
      <trkpt lat="-48.441717" lon="-123.499075"><ele>68.6</ele><time>2031-04-02T07:45:20Z</time></trkpt>
      <trkpt lat="-48.441629" lon="-123.498644"><ele>67.4</ele><time>2031-04-02T07:45:25Z</time></trkpt>
      <trkpt lat="-48.441491" lon="-123.498195"><ele>66.2</ele><time>2031-04-02T07:45:30Z</time></trkpt>
      <trkpt lat="-48.441340" lon="-123.497771"><ele>65.1</ele><time>2031-04-02T07:45:35Z</time></trkpt>
      <trkpt lat="-48.441235" lon="-123.497341"><ele>63.7</ele><time>2031-04-02T07:45:40Z</time></trkpt>
      <trkpt lat="-48.441158" lon="-123.496869"><ele>62.7</ele><time>2031-04-02T07:45:45Z</time></trkpt>
      <trkpt lat="-48.441136" lon="-123.496443"><ele>62.0</ele><time>2031-04-02T07:45:50Z</time></trkpt>
      <trkpt lat="-48.441153" lon="-123.495926"><ele>61.0</ele><time>2031-04-02T07:45:55Z</time></trkpt>
      <trkpt lat="-48.441159" lon="-123.495454"><ele>60.4</ele><time>2031-04-02T07:46:00Z</time></trkpt>
      <trkpt lat="-48.441200" lon="-123.495068"><ele>59.7</ele><time>2031-04-02T07:46:05Z</time></trkpt>
      <trkpt lat="-48.441274" lon="-123.494667"><ele>58.6</ele><time>2031-04-02T07:46:10Z</time></trkpt>
      <trkpt lat="-48.441318" lon="-123.494211"><ele>57.9</ele><time>2031-04-02T07:46:15Z</time></trkpt>
      <trkpt lat="-48.441392" lon="-123.493713"><ele>56.9</ele><time>2031-04-02T07:46:20Z</time></trkpt>
      <trkpt lat="-48.441429" lon="-123.493242"><ele>55.7</ele><time>2031-04-02T07:46:25Z</time></trkpt>
      <trkpt lat="-48.441499" lon="-123.492876"><ele>54.5</ele><time>2031-04-02T07:46:30Z</time></trkpt>
      <trkpt lat="-48.441558" lon="-123.492458"><ele>53.3</ele><time>2031-04-02T07:46:35Z</time></trkpt>
      <trkpt lat="-48.441603" lon="-123.492011"><ele>52.9</ele><time>2031-04-02T07:46:40Z</time></trkpt>
      <trkpt lat="-48.441658" lon="-123.491548"><ele>52.4</ele><time>2031-04-02T07:46:45Z</time></trkpt>
      <trkpt lat="-48.441670" lon="-123.491185"><ele>51.5</ele><time>2031-04-02T07:46:50Z</time></trkpt>
      <trkpt lat="-48.441725" lon="-123.490749"><ele>50.8</ele><time>2031-04-02T07:46:55Z</time></trkpt>
      <trkpt lat="-48.441755" lon="-123.490394"><ele>49.8</ele><time>2031-04-02T07:47:00Z</time></trkpt>
      <trkpt lat="-48.441807" lon="-123.490044"><ele>49.1</ele><time>2031-04-02T07:47:05Z</time></trkpt>
      <trkpt lat="-48.441921" lon="-123.489625"><ele>48.8</ele><time>2031-04-02T07:47:10Z</time></trkpt>
      <trkpt lat="-48.442006" lon="-123.489248"><ele>48.4</ele><time>2031-04-02T07:47:15Z</time></trkpt>
      <trkpt lat="-48.442088" lon="-123.488837"><ele>48.1</ele><time>2031-04-02T07:47:20Z</time></trkpt>
      <trkpt lat="-48.442144" lon="-123.488427"><ele>47.8</ele><time>2031-04-02T07:47:25Z</time></trkpt>
      <trkpt lat="-48.442167" lon="-123.488038"><ele>47.0</ele><time>2031-04-02T07:47:30Z</time></trkpt>
      <trkpt lat="-48.442233" lon="-123.487656"><ele>46.2</ele><time>2031-04-02T07:47:35Z</time></trkpt>
      <trkpt lat="-48.442262" lon="-123.487292"><ele>45.8</ele><time>2031-04-02T07:47:40Z</time></trkpt>
      <trkpt lat="-48.442322" lon="-123.486849"><ele>45.1</ele><time>2031-04-02T07:47:45Z</time></trkpt>
      <trkpt lat="-48.442331" lon="-123.486413"><ele>44.9</ele><time>2031-04-02T07:47:50Z</time></trkpt>
      <trkpt lat="-48.442349" lon="-123.486024"><ele>44.2</ele><time>2031-04-02T07:47:55Z</time></trkpt>
      <trkpt lat="-48.442359" lon="-123.485613"><ele>43.7</ele><time>2031-04-02T07:48:00Z</time></trkpt>
      <trkpt lat="-48.442393" lon="-123.485286"><ele>43.1</ele><time>2031-04-02T07:48:05Z</time></trkpt>
      <trkpt lat="-48.442458" lon="-123.484926"><ele>43.1</ele><time>2031-04-02T07:48:10Z</time></trkpt>
      <trkpt lat="-48.442501" lon="-123.484605"><ele>42.5</ele><time>2031-04-02T07:48:15Z</time></trkpt>
      <trkpt lat="-48.442510" lon="-123.484236"><ele>42.3</ele><time>2031-04-02T07:48:20Z</time></trkpt>
      <trkpt lat="-48.442557" lon="-123.483809"><ele>42.5</ele><time>2031-04-02T07:48:25Z</time></trkpt>
      <trkpt lat="-48.442574" lon="-123.483453"><ele>41.9</ele><time>2031-04-02T07:48:30Z</time></trkpt>
      <trkpt lat="-48.442622" lon="-123.483103"><ele>41.8</ele><time>2031-04-02T07:48:35Z</time></trkpt>
      <trkpt lat="-48.442665" lon="-123.482776"><ele>42.2</ele><time>2031-04-02T07:48:40Z</time></trkpt>
      <trkpt lat="-48.442739" lon="-123.482458"><ele>41.8</ele><time>2031-04-02T07:48:45Z</time></trkpt>
      <trkpt lat="-48.442835" lon="-123.482105"><ele>42.0</ele><time>2031-04-02T07:48:50Z</time></trkpt>
      <trkpt lat="-48.442930" lon="-123.481791"><ele>42.2</ele><time>2031-04-02T07:48:55Z</time></trkpt>
      <trkpt lat="-48.443035" lon="-123.481535"><ele>42.2</ele><time>2031-04-02T07:49:00Z</time></trkpt>
      <trkpt lat="-48.443176" lon="-123.481276"><ele>42.0</ele><time>2031-04-02T07:49:05Z</time></trkpt>
      <trkpt lat="-48.443344" lon="-123.480968"><ele>42.0</ele><time>2031-04-02T07:49:10Z</time></trkpt>
      <trkpt lat="-48.443541" lon="-123.480708"><ele>42.4</ele><time>2031-04-02T07:49:15Z</time></trkpt>
      <trkpt lat="-48.443699" lon="-123.480508"><ele>42.9</ele><time>2031-04-02T07:49:20Z</time></trkpt>
      <trkpt lat="-48.443883" lon="-123.480275"><ele>43.1</ele><time>2031-04-02T07:49:25Z</time></trkpt>
      <trkpt lat="-48.444066" lon="-123.480036"><ele>42.9</ele><time>2031-04-02T07:49:30Z</time></trkpt>
      <trkpt lat="-48.444234" lon="-123.479829"><ele>43.2</ele><time>2031-04-02T07:49:35Z</time></trkpt>
      <trkpt lat="-48.444401" lon="-123.479545"><ele>43.7</ele><time>2031-04-02T07:49:40Z</time></trkpt>
      <trkpt lat="-48.444538" lon="-123.479247"><ele>44.0</ele><time>2031-04-02T07:49:45Z</time></trkpt>
      <trkpt lat="-48.444692" lon="-123.478931"><ele>44.6</ele><time>2031-04-02T07:49:50Z</time></trkpt>
      <trkpt lat="-48.444849" lon="-123.478622"><ele>44.6</ele><time>2031-04-02T07:49:55Z</time></trkpt>
      <trkpt lat="-48.444989" lon="-123.478409"><ele>45.3</ele><time>2031-04-02T07:50:00Z</time></trkpt>
      <trkpt lat="-48.445140" lon="-123.478135"><ele>46.1</ele><time>2031-04-02T07:50:05Z</time></trkpt>
      <trkpt lat="-48.445322" lon="-123.477885"><ele>46.6</ele><time>2031-04-02T07:50:10Z</time></trkpt>
      <trkpt lat="-48.445460" lon="-123.477748"><ele>47.1</ele><time>2031-04-02T07:50:15Z</time></trkpt>
      <trkpt lat="-48.445602" lon="-123.477627"><ele>47.5</ele><time>2031-04-02T07:50:20Z</time></trkpt>
      <trkpt lat="-48.445735" lon="-123.477489"><ele>47.8</ele><time>2031-04-02T07:50:25Z</time></trkpt>
      <trkpt lat="-48.445925" lon="-123.477312"><ele>48.7</ele><time>2031-04-02T07:50:30Z</time></trkpt>
      <trkpt lat="-48.446058" lon="-123.477161"><ele>49.3</ele><time>2031-04-02T07:50:35Z</time></trkpt>
      <trkpt lat="-48.446249" lon="-123.477000"><ele>49.7</ele><time>2031-04-02T07:50:40Z</time></trkpt>
      <trkpt lat="-48.446470" lon="-123.476846"><ele>50.5</ele><time>2031-04-02T07:50:45Z</time></trkpt>
      <trkpt lat="-48.446645" lon="-123.476751"><ele>51.4</ele><time>2031-04-02T07:50:50Z</time></trkpt>
      <trkpt lat="-48.446839" lon="-123.476650"><ele>52.3</ele><time>2031-04-02T07:50:55Z</time></trkpt>
      <trkpt lat="-48.447022" lon="-123.476580"><ele>53.0</ele><time>2031-04-02T07:51:00Z</time></trkpt>
      <trkpt lat="-48.447246" lon="-123.476493"><ele>53.8</ele><time>2031-04-02T07:51:05Z</time></trkpt>
      <trkpt lat="-48.447425" lon="-123.476431"><ele>54.4</ele><time>2031-04-02T07:51:10Z</time></trkpt>
      <trkpt lat="-48.447579" lon="-123.476414"><ele>54.8</ele><time>2031-04-02T07:51:15Z</time></trkpt>
      <trkpt lat="-48.447804" lon="-123.476409"><ele>55.4</ele><time>2031-04-02T07:51:20Z</time></trkpt>
      <trkpt lat="-48.447994" lon="-123.476374"><ele>56.6</ele><time>2031-04-02T07:51:25Z</time></trkpt>
      <trkpt lat="-48.448155" lon="-123.476341"><ele>57.2</ele><time>2031-04-02T07:51:30Z</time></trkpt>
      <trkpt lat="-48.448343" lon="-123.476292"><ele>58.5</ele><time>2031-04-02T07:51:35Z</time></trkpt>
      <trkpt lat="-48.448534" lon="-123.476195"><ele>59.7</ele><time>2031-04-02T07:51:40Z</time></trkpt>
      <trkpt lat="-48.448683" lon="-123.476152"><ele>60.6</ele><time>2031-04-02T07:51:45Z</time></trkpt>
      <trkpt lat="-48.448863" lon="-123.476088"><ele>62.0</ele><time>2031-04-02T07:51:50Z</time></trkpt>
      <trkpt lat="-48.449088" lon="-123.476028"><ele>62.8</ele><time>2031-04-02T07:51:55Z</time></trkpt>
      <trkpt lat="-48.449278" lon="-123.475967"><ele>64.0</ele><time>2031-04-02T07:52:00Z</time></trkpt>
      <trkpt lat="-48.449483" lon="-123.475844"><ele>64.7</ele><time>2031-04-02T07:52:05Z</time></trkpt>
      <trkpt lat="-48.449669" lon="-123.475674"><ele>65.6</ele><time>2031-04-02T07:52:10Z</time></trkpt>
      <trkpt lat="-48.449836" lon="-123.475533"><ele>66.9</ele><time>2031-04-02T07:52:15Z</time></trkpt>
      <trkpt lat="-48.450006" lon="-123.475421"><ele>68.1</ele><time>2031-04-02T07:52:20Z</time></trkpt>
      <trkpt lat="-48.450173" lon="-123.475324"><ele>69.6</ele><time>2031-04-02T07:52:25Z</time></trkpt>
      <trkpt lat="-48.450344" lon="-123.475250"><ele>70.9</ele><time>2031-04-02T07:52:30Z</time></trkpt>
      <trkpt lat="-48.450485" lon="-123.475181"><ele>72.3</ele><time>2031-04-02T07:52:35Z</time></trkpt>
      <trkpt lat="-48.450676" lon="-123.475088"><ele>73.4</ele><time>2031-04-02T07:52:40Z</time></trkpt>
      <trkpt lat="-48.450821" lon="-123.475033"><ele>74.4</ele><time>2031-04-02T07:52:45Z</time></trkpt>
      <trkpt lat="-48.450962" lon="-123.474939"><ele>75.6</ele><time>2031-04-02T07:52:50Z</time></trkpt>
      <trkpt lat="-48.451157" lon="-123.474776"><ele>77.0</ele><time>2031-04-02T07:52:55Z</time></trkpt>
      <trkpt lat="-48.451319" lon="-123.474645"><ele>77.9</ele><time>2031-04-02T07:53:00Z</time></trkpt>
      <trkpt lat="-48.451505" lon="-123.474493"><ele>79.1</ele><time>2031-04-02T07:53:05Z</time></trkpt>
      <trkpt lat="-48.451689" lon="-123.474365"><ele>80.3</ele><time>2031-04-02T07:53:10Z</time></trkpt>
      <trkpt lat="-48.451855" lon="-123.474199"><ele>81.3</ele><time>2031-04-02T07:53:15Z</time></trkpt>
      <trkpt lat="-48.452007" lon="-123.474068"><ele>82.4</ele><time>2031-04-02T07:53:20Z</time></trkpt>
      <trkpt lat="-48.452126" lon="-123.473960"><ele>83.8</ele><time>2031-04-02T07:53:25Z</time></trkpt>
      <trkpt lat="-48.452236" lon="-123.473817"><ele>85.3</ele><time>2031-04-02T07:53:30Z</time></trkpt>
      <trkpt lat="-48.452412" lon="-123.473652"><ele>86.9</ele><time>2031-04-02T07:53:35Z</time></trkpt>
      <trkpt lat="-48.452564" lon="-123.473450"><ele>88.1</ele><time>2031-04-02T07:53:40Z</time></trkpt>
      <trkpt lat="-48.452656" lon="-123.473300"><ele>89.4</ele><time>2031-04-02T07:53:45Z</time></trkpt>
      <trkpt lat="-48.452805" lon="-123.473085"><ele>90.2</ele><time>2031-04-02T07:53:50Z</time></trkpt>
      <trkpt lat="-48.452896" lon="-123.472906"><ele>91.5</ele><time>2031-04-02T07:53:55Z</time></trkpt>
      <trkpt lat="-48.452989" lon="-123.472758"><ele>92.4</ele><time>2031-04-02T07:54:00Z</time></trkpt>
      <trkpt lat="-48.453161" lon="-123.472539"><ele>93.5</ele><time>2031-04-02T07:54:05Z</time></trkpt>
      <trkpt lat="-48.453284" lon="-123.472332"><ele>94.3</ele><time>2031-04-02T07:54:10Z</time></trkpt>
      <trkpt lat="-48.453364" lon="-123.472139"><ele>95.8</ele><time>2031-04-02T07:54:15Z</time></trkpt>
      <trkpt lat="-48.453450" lon="-123.471873"><ele>97.0</ele><time>2031-04-02T07:54:20Z</time></trkpt>
      <trkpt lat="-48.453523" lon="-123.471694"><ele>98.0</ele><time>2031-04-02T07:54:25Z</time></trkpt>
      <trkpt lat="-48.453618" lon="-123.471438"><ele>99.0</ele><time>2031-04-02T07:54:30Z</time></trkpt>
      <trkpt lat="-48.453702" lon="-123.471257"><ele>100.3</ele><time>2031-04-02T07:54:35Z</time></trkpt>
      <trkpt lat="-48.453784" lon="-123.471024"><ele>101.3</ele><time>2031-04-02T07:54:40Z</time></trkpt>
      <trkpt lat="-48.453839" lon="-123.470768"><ele>102.3</ele><time>2031-04-02T07:54:45Z</time></trkpt>
      <trkpt lat="-48.453866" lon="-123.470548"><ele>103.3</ele><time>2031-04-02T07:54:50Z</time></trkpt>
      <trkpt lat="-48.453937" lon="-123.470242"><ele>104.1</ele><time>2031-04-02T07:54:55Z</time></trkpt>
      <trkpt lat="-48.454010" lon="-123.470039"><ele>105.2</ele><time>2031-04-02T07:55:00Z</time></trkpt>
      <trkpt lat="-48.454141" lon="-123.469761"><ele>106.2</ele><time>2031-04-02T07:55:05Z</time></trkpt>
      <trkpt lat="-48.454213" lon="-123.469541"><ele>107.0</ele><time>2031-04-02T07:55:10Z</time></trkpt>
      <trkpt lat="-48.454309" lon="-123.469287"><ele>108.0</ele><time>2031-04-02T07:55:15Z</time></trkpt>
      <trkpt lat="-48.454383" lon="-123.469068"><ele>108.7</ele><time>2031-04-02T07:55:20Z</time></trkpt>
      <trkpt lat="-48.454455" lon="-123.468765"><ele>109.7</ele><time>2031-04-02T07:55:25Z</time></trkpt>
      <trkpt lat="-48.454495" lon="-123.468437"><ele>110.7</ele><time>2031-04-02T07:55:30Z</time></trkpt>
      <trkpt lat="-48.454543" lon="-123.468159"><ele>111.3</ele><time>2031-04-02T07:55:35Z</time></trkpt>
      <trkpt lat="-48.454590" lon="-123.467868"><ele>112.0</ele><time>2031-04-02T07:55:40Z</time></trkpt>
      <trkpt lat="-48.454616" lon="-123.467587"><ele>112.9</ele><time>2031-04-02T07:55:45Z</time></trkpt>
      <trkpt lat="-48.454629" lon="-123.467228"><ele>113.6</ele><time>2031-04-02T07:55:50Z</time></trkpt>
      <trkpt lat="-48.454660" lon="-123.466912"><ele>114.5</ele><time>2031-04-02T07:55:55Z</time></trkpt>
      <trkpt lat="-48.454667" lon="-123.466561"><ele>115.6</ele><time>2031-04-02T07:56:00Z</time></trkpt>
      <trkpt lat="-48.454652" lon="-123.466258"><ele>116.0</ele><time>2031-04-02T07:56:05Z</time></trkpt>
      <trkpt lat="-48.454613" lon="-123.466024"><ele>117.1</ele><time>2031-04-02T07:56:10Z</time></trkpt>
      <trkpt lat="-48.454546" lon="-123.465679"><ele>117.6</ele><time>2031-04-02T07:56:15Z</time></trkpt>
      <trkpt lat="-48.454490" lon="-123.465351"><ele>118.5</ele><time>2031-04-02T07:56:20Z</time></trkpt>
      <trkpt lat="-48.454472" lon="-123.465060"><ele>119.6</ele><time>2031-04-02T07:56:25Z</time></trkpt>
      <trkpt lat="-48.454450" lon="-123.464711"><ele>119.9</ele><time>2031-04-02T07:56:30Z</time></trkpt>
      <trkpt lat="-48.454440" lon="-123.464454"><ele>120.9</ele><time>2031-04-02T07:56:35Z</time></trkpt>
      <trkpt lat="-48.454454" lon="-123.464209"><ele>121.8</ele><time>2031-04-02T07:56:40Z</time></trkpt>
      <trkpt lat="-48.454508" lon="-123.463870"><ele>122.2</ele><time>2031-04-02T07:56:45Z</time></trkpt>
      <trkpt lat="-48.454570" lon="-123.463574"><ele>122.6</ele><time>2031-04-02T07:56:50Z</time></trkpt>
      <trkpt lat="-48.454610" lon="-123.463216"><ele>122.8</ele><time>2031-04-02T07:56:55Z</time></trkpt>
      <trkpt lat="-48.454652" lon="-123.462901"><ele>123.5</ele><time>2031-04-02T07:57:00Z</time></trkpt>
      <trkpt lat="-48.454663" lon="-123.462532"><ele>123.6</ele><time>2031-04-02T07:57:05Z</time></trkpt>
      <trkpt lat="-48.454639" lon="-123.462204"><ele>123.9</ele><time>2031-04-02T07:57:10Z</time></trkpt>
      <trkpt lat="-48.454591" lon="-123.461823"><ele>124.3</ele><time>2031-04-02T07:57:15Z</time></trkpt>
      <trkpt lat="-48.454565" lon="-123.461507"><ele>124.6</ele><time>2031-04-02T07:57:20Z</time></trkpt>
      <trkpt lat="-48.454526" lon="-123.461239"><ele>124.6</ele><time>2031-04-02T07:57:25Z</time></trkpt>
      <trkpt lat="-48.454506" lon="-123.460865"><ele>125.3</ele><time>2031-04-02T07:57:30Z</time></trkpt>
      <trkpt lat="-48.454458" lon="-123.460510"><ele>125.9</ele><time>2031-04-02T07:57:35Z</time></trkpt>
      <trkpt lat="-48.454451" lon="-123.460238"><ele>126.3</ele><time>2031-04-02T07:57:40Z</time></trkpt>
      <trkpt lat="-48.454479" lon="-123.459921"><ele>126.7</ele><time>2031-04-02T07:57:45Z</time></trkpt>
      <trkpt lat="-48.454514" lon="-123.459634"><ele>126.7</ele><time>2031-04-02T07:57:50Z</time></trkpt>
      <trkpt lat="-48.454584" lon="-123.459318"><ele>126.8</ele><time>2031-04-02T07:57:55Z</time></trkpt>
      <trkpt lat="-48.454679" lon="-123.459009"><ele>127.1</ele><time>2031-04-02T07:58:00Z</time></trkpt>
      <trkpt lat="-48.454789" lon="-123.458758"><ele>127.2</ele><time>2031-04-02T07:58:05Z</time></trkpt>
      <trkpt lat="-48.454932" lon="-123.458521"><ele>127.5</ele><time>2031-04-02T07:58:10Z</time></trkpt>
      <trkpt lat="-48.455131" lon="-123.458241"><ele>127.6</ele><time>2031-04-02T07:58:15Z</time></trkpt>
      <trkpt lat="-48.455322" lon="-123.457943"><ele>127.7</ele><time>2031-04-02T07:58:20Z</time></trkpt>
      <trkpt lat="-48.455460" lon="-123.457636"><ele>128.0</ele><time>2031-04-02T07:58:25Z</time></trkpt>
      <trkpt lat="-48.455620" lon="-123.457331"><ele>128.2</ele><time>2031-04-02T07:58:30Z</time></trkpt>
      <trkpt lat="-48.455781" lon="-123.457069"><ele>127.8</ele><time>2031-04-02T07:58:35Z</time></trkpt>
      <trkpt lat="-48.455943" lon="-123.456798"><ele>127.4</ele><time>2031-04-02T07:58:40Z</time></trkpt>
      <trkpt lat="-48.456120" lon="-123.456483"><ele>127.1</ele><time>2031-04-02T07:58:45Z</time></trkpt>
      <trkpt lat="-48.456265" lon="-123.456263"><ele>126.8</ele><time>2031-04-02T07:58:50Z</time></trkpt>
      <trkpt lat="-48.456414" lon="-123.456034"><ele>126.5</ele><time>2031-04-02T07:58:55Z</time></trkpt>
      <trkpt lat="-48.456593" lon="-123.455680"><ele>126.5</ele><time>2031-04-02T07:59:00Z</time></trkpt>
      <trkpt lat="-48.456715" lon="-123.455332"><ele>126.2</ele><time>2031-04-02T07:59:05Z</time></trkpt>
      <trkpt lat="-48.456848" lon="-123.455048"><ele>125.9</ele><time>2031-04-02T07:59:10Z</time></trkpt>
      <trkpt lat="-48.456967" lon="-123.454675"><ele>125.5</ele><time>2031-04-02T07:59:15Z</time></trkpt>
      <trkpt lat="-48.457057" lon="-123.454314"><ele>125.2</ele><time>2031-04-02T07:59:20Z</time></trkpt>
      <trkpt lat="-48.457122" lon="-123.453929"><ele>124.7</ele><time>2031-04-02T07:59:25Z</time></trkpt>
      <trkpt lat="-48.457145" lon="-123.453539"><ele>124.0</ele><time>2031-04-02T07:59:30Z</time></trkpt>
      <trkpt lat="-48.457132" lon="-123.453198"><ele>123.7</ele><time>2031-04-02T07:59:35Z</time></trkpt>
      <trkpt lat="-48.457117" lon="-123.452840"><ele>123.4</ele><time>2031-04-02T07:59:40Z</time></trkpt>
      <trkpt lat="-48.457061" lon="-123.452473"><ele>122.8</ele><time>2031-04-02T07:59:45Z</time></trkpt>
      <trkpt lat="-48.457023" lon="-123.452105"><ele>121.9</ele><time>2031-04-02T07:59:50Z</time></trkpt>
      <trkpt lat="-48.456988" lon="-123.451649"><ele>121.1</ele><time>2031-04-02T07:59:55Z</time></trkpt>
      <trkpt lat="-48.456974" lon="-123.451289"><ele>120.6</ele><time>2031-04-02T08:00:00Z</time></trkpt>
      <trkpt lat="-48.456948" lon="-123.450819"><ele>119.9</ele><time>2031-04-02T08:00:05Z</time></trkpt>
      <trkpt lat="-48.456933" lon="-123.450460"><ele>119.4</ele><time>2031-04-02T08:00:10Z</time></trkpt>
      <trkpt lat="-48.456906" lon="-123.450099"><ele>118.5</ele><time>2031-04-02T08:00:15Z</time></trkpt>
      <trkpt lat="-48.456874" lon="-123.449711"><ele>117.7</ele><time>2031-04-02T08:00:20Z</time></trkpt>
      <trkpt lat="-48.456849" lon="-123.449259"><ele>117.1</ele><time>2031-04-02T08:00:25Z</time></trkpt>
      <trkpt lat="-48.456819" lon="-123.448796"><ele>116.0</ele><time>2031-04-02T08:00:30Z</time></trkpt>
      <trkpt lat="-48.456812" lon="-123.448359"><ele>115.2</ele><time>2031-04-02T08:00:35Z</time></trkpt>
      <trkpt lat="-48.456814" lon="-123.447907"><ele>114.1</ele><time>2031-04-02T08:00:40Z</time></trkpt>
      <trkpt lat="-48.456798" lon="-123.447486"><ele>113.3</ele><time>2031-04-02T08:00:45Z</time></trkpt>
      <trkpt lat="-48.456755" lon="-123.447107"><ele>112.6</ele><time>2031-04-02T08:00:50Z</time></trkpt>
      <trkpt lat="-48.456688" lon="-123.446691"><ele>111.5</ele><time>2031-04-02T08:00:55Z</time></trkpt>
      <trkpt lat="-48.456601" lon="-123.446248"><ele>110.9</ele><time>2031-04-02T08:01:00Z</time></trkpt>
      <trkpt lat="-48.456538" lon="-123.445804"><ele>109.6</ele><time>2031-04-02T08:01:05Z</time></trkpt>
      <trkpt lat="-48.456478" lon="-123.445353"><ele>108.5</ele><time>2031-04-02T08:01:10Z</time></trkpt>
      <trkpt lat="-48.456435" lon="-123.444833"><ele>107.8</ele><time>2031-04-02T08:01:15Z</time></trkpt>
      <trkpt lat="-48.456369" lon="-123.444364"><ele>107.1</ele><time>2031-04-02T08:01:20Z</time></trkpt>
      <trkpt lat="-48.456307" lon="-123.443871"><ele>105.8</ele><time>2031-04-02T08:01:25Z</time></trkpt>
      <trkpt lat="-48.456229" lon="-123.443373"><ele>104.9</ele><time>2031-04-02T08:01:30Z</time></trkpt>
      <trkpt lat="-48.456156" lon="-123.442856"><ele>103.5</ele><time>2031-04-02T08:01:35Z</time></trkpt>
      <trkpt lat="-48.456113" lon="-123.442407"><ele>102.2</ele><time>2031-04-02T08:01:40Z</time></trkpt>
      <trkpt lat="-48.456023" lon="-123.441876"><ele>101.0</ele><time>2031-04-02T08:01:45Z</time></trkpt>
      <trkpt lat="-48.455964" lon="-123.441433"><ele>99.9</ele><time>2031-04-02T08:01:50Z</time></trkpt>
      <trkpt lat="-48.455892" lon="-123.440940"><ele>98.8</ele><time>2031-04-02T08:01:55Z</time></trkpt>
      <trkpt lat="-48.455772" lon="-123.440420"><ele>97.3</ele><time>2031-04-02T08:02:00Z</time></trkpt>
      <trkpt lat="-48.455651" lon="-123.439894"><ele>96.2</ele><time>2031-04-02T08:02:05Z</time></trkpt>
      <trkpt lat="-48.455562" lon="-123.439423"><ele>95.2</ele><time>2031-04-02T08:02:10Z</time></trkpt>
      <trkpt lat="-48.455456" lon="-123.438935"><ele>94.4</ele><time>2031-04-02T08:02:15Z</time></trkpt>
      <trkpt lat="-48.455338" lon="-123.438416"><ele>93.4</ele><time>2031-04-02T08:02:20Z</time></trkpt>
      <trkpt lat="-48.455245" lon="-123.437874"><ele>91.8</ele><time>2031-04-02T08:02:25Z</time></trkpt>
      <trkpt lat="-48.455211" lon="-123.437399"><ele>90.6</ele><time>2031-04-02T08:02:30Z</time></trkpt>
      <trkpt lat="-48.455204" lon="-123.436833"><ele>89.4</ele><time>2031-04-02T08:02:35Z</time></trkpt>
      <trkpt lat="-48.455207" lon="-123.436313"><ele>88.5</ele><time>2031-04-02T08:02:40Z</time></trkpt>
      <trkpt lat="-48.455255" lon="-123.435827"><ele>87.0</ele><time>2031-04-02T08:02:45Z</time></trkpt>
      <trkpt lat="-48.455291" lon="-123.435345"><ele>86.1</ele><time>2031-04-02T08:02:50Z</time></trkpt>
      <trkpt lat="-48.455357" lon="-123.434764"><ele>84.8</ele><time>2031-04-02T08:02:55Z</time></trkpt>
      <trkpt lat="-48.455431" lon="-123.434179"><ele>83.7</ele><time>2031-04-02T08:03:00Z</time></trkpt>
      <trkpt lat="-48.455490" lon="-123.433663"><ele>82.3</ele><time>2031-04-02T08:03:05Z</time></trkpt>
      <trkpt lat="-48.455531" lon="-123.433103"><ele>80.7</ele><time>2031-04-02T08:03:10Z</time></trkpt>
      <trkpt lat="-48.455516" lon="-123.432583"><ele>79.6</ele><time>2031-04-02T08:03:15Z</time></trkpt>
      <trkpt lat="-48.455536" lon="-123.432018"><ele>78.4</ele><time>2031-04-02T08:03:20Z</time></trkpt>
      <trkpt lat="-48.455543" lon="-123.431513"><ele>77.5</ele><time>2031-04-02T08:03:25Z</time></trkpt>
      <trkpt lat="-48.455511" lon="-123.430911"><ele>76.1</ele><time>2031-04-02T08:03:30Z</time></trkpt>
      <trkpt lat="-48.455422" lon="-123.430396"><ele>75.2</ele><time>2031-04-02T08:03:35Z</time></trkpt>
      <trkpt lat="-48.455356" lon="-123.429851"><ele>73.9</ele><time>2031-04-02T08:03:40Z</time></trkpt>
      <trkpt lat="-48.455283" lon="-123.429333"><ele>72.9</ele><time>2031-04-02T08:03:45Z</time></trkpt>
      <trkpt lat="-48.455254" lon="-123.428712"><ele>72.1</ele><time>2031-04-02T08:03:50Z</time></trkpt>
      <trkpt lat="-48.455188" lon="-123.428088"><ele>70.9</ele><time>2031-04-02T08:03:55Z</time></trkpt>
      <trkpt lat="-48.455123" lon="-123.427484"><ele>69.4</ele><time>2031-04-02T08:04:00Z</time></trkpt>
      <trkpt lat="-48.455050" lon="-123.426880"><ele>68.6</ele><time>2031-04-02T08:04:05Z</time></trkpt>
      <trkpt lat="-48.454929" lon="-123.426298"><ele>67.7</ele><time>2031-04-02T08:04:10Z</time></trkpt>
      <trkpt lat="-48.454803" lon="-123.425756"><ele>66.5</ele><time>2031-04-02T08:04:15Z</time></trkpt>
      <trkpt lat="-48.454660" lon="-123.425274"><ele>65.7</ele><time>2031-04-02T08:04:20Z</time></trkpt>
      <trkpt lat="-48.454538" lon="-123.424681"><ele>64.6</ele><time>2031-04-02T08:04:25Z</time></trkpt>
      <trkpt lat="-48.454376" lon="-123.424179"><ele>63.3</ele><time>2031-04-02T08:04:30Z</time></trkpt>
      <trkpt lat="-48.454249" lon="-123.423573"><ele>62.4</ele><time>2031-04-02T08:04:35Z</time></trkpt>
      <trkpt lat="-48.454143" lon="-123.423063"><ele>61.4</ele><time>2031-04-02T08:04:40Z</time></trkpt>
      <trkpt lat="-48.453959" lon="-123.422468"><ele>60.0</ele><time>2031-04-02T08:04:45Z</time></trkpt>
      <trkpt lat="-48.453799" lon="-123.421898"><ele>59.0</ele><time>2031-04-02T08:04:50Z</time></trkpt>
      <trkpt lat="-48.453661" lon="-123.421281"><ele>58.3</ele><time>2031-04-02T08:04:55Z</time></trkpt>
      <trkpt lat="-48.453502" lon="-123.420724"><ele>57.1</ele><time>2031-04-02T08:05:00Z</time></trkpt>
      <trkpt lat="-48.453362" lon="-123.420110"><ele>56.4</ele><time>2031-04-02T08:05:05Z</time></trkpt>
      <trkpt lat="-48.453296" lon="-123.419495"><ele>55.8</ele><time>2031-04-02T08:05:10Z</time></trkpt>
      <trkpt lat="-48.453263" lon="-123.418898"><ele>55.0</ele><time>2031-04-02T08:05:15Z</time></trkpt>
      <trkpt lat="-48.453296" lon="-123.418306"><ele>54.1</ele><time>2031-04-02T08:05:20Z</time></trkpt>
      <trkpt lat="-48.453383" lon="-123.417660"><ele>52.8</ele><time>2031-04-02T08:05:25Z</time></trkpt>
      <trkpt lat="-48.453524" lon="-123.417007"><ele>51.8</ele><time>2031-04-02T08:05:30Z</time></trkpt>
      <trkpt lat="-48.453714" lon="-123.416456"><ele>50.9</ele><time>2031-04-02T08:05:35Z</time></trkpt>
      <trkpt lat="-48.453929" lon="-123.415979"><ele>50.1</ele><time>2031-04-02T08:05:40Z</time></trkpt>
      <trkpt lat="-48.454215" lon="-123.415488"><ele>49.3</ele><time>2031-04-02T08:05:45Z</time></trkpt>
      <trkpt lat="-48.454449" lon="-123.414908"><ele>48.7</ele><time>2031-04-02T08:05:50Z</time></trkpt>
      <trkpt lat="-48.454673" lon="-123.414447"><ele>48.1</ele><time>2031-04-02T08:05:55Z</time></trkpt>
      <trkpt lat="-48.454897" lon="-123.413841"><ele>47.8</ele><time>2031-04-02T08:06:00Z</time></trkpt>
      <trkpt lat="-48.455107" lon="-123.413236"><ele>47.0</ele><time>2031-04-02T08:06:05Z</time></trkpt>
      <trkpt lat="-48.455265" lon="-123.412624"><ele>46.2</ele><time>2031-04-02T08:06:10Z</time></trkpt>
      <trkpt lat="-48.455448" lon="-123.412024"><ele>45.8</ele><time>2031-04-02T08:06:15Z</time></trkpt>
      <trkpt lat="-48.455667" lon="-123.411489"><ele>44.9</ele><time>2031-04-02T08:06:20Z</time></trkpt>
      <trkpt lat="-48.455955" lon="-123.410984"><ele>44.8</ele><time>2031-04-02T08:06:25Z</time></trkpt>
      <trkpt lat="-48.456226" lon="-123.410496"><ele>44.0</ele><time>2031-04-02T08:06:30Z</time></trkpt>
      <trkpt lat="-48.456502" lon="-123.410031"><ele>43.9</ele><time>2031-04-02T08:06:35Z</time></trkpt>
      <trkpt lat="-48.456726" lon="-123.409532"><ele>43.2</ele><time>2031-04-02T08:06:40Z</time></trkpt>
      <trkpt lat="-48.456978" lon="-123.409011"><ele>43.1</ele><time>2031-04-02T08:06:45Z</time></trkpt>
      <trkpt lat="-48.457296" lon="-123.408536"><ele>42.7</ele><time>2031-04-02T08:06:50Z</time></trkpt>
      <trkpt lat="-48.457595" lon="-123.408029"><ele>42.5</ele><time>2031-04-02T08:06:55Z</time></trkpt>
      <trkpt lat="-48.457928" lon="-123.407627"><ele>42.5</ele><time>2031-04-02T08:07:00Z</time></trkpt>
      <trkpt lat="-48.458203" lon="-123.407186"><ele>42.0</ele><time>2031-04-02T08:07:05Z</time></trkpt>
      <trkpt lat="-48.458456" lon="-123.406687"><ele>41.6</ele><time>2031-04-02T08:07:10Z</time></trkpt>
      <trkpt lat="-48.458763" lon="-123.406250"><ele>41.1</ele><time>2031-04-02T08:07:15Z</time></trkpt>
      <trkpt lat="-48.459108" lon="-123.405809"><ele>40.7</ele><time>2031-04-02T08:07:20Z</time></trkpt>
      <trkpt lat="-48.459391" lon="-123.405312"><ele>40.8</ele><time>2031-04-02T08:07:25Z</time></trkpt>
      <trkpt lat="-48.459680" lon="-123.404780"><ele>40.4</ele><time>2031-04-02T08:07:30Z</time></trkpt>
      <trkpt lat="-48.460001" lon="-123.404271"><ele>40.3</ele><time>2031-04-02T08:07:35Z</time></trkpt>
      <trkpt lat="-48.460306" lon="-123.403760"><ele>40.3</ele><time>2031-04-02T08:07:40Z</time></trkpt>
      <trkpt lat="-48.460569" lon="-123.403159"><ele>40.2</ele><time>2031-04-02T08:07:45Z</time></trkpt>
      <trkpt lat="-48.460781" lon="-123.402629"><ele>40.2</ele><time>2031-04-02T08:07:50Z</time></trkpt>
      <trkpt lat="-48.461014" lon="-123.402123"><ele>40.2</ele><time>2031-04-02T08:07:55Z</time></trkpt>
      <trkpt lat="-48.461290" lon="-123.401681"><ele>40.1</ele><time>2031-04-02T08:08:00Z</time></trkpt>
      <trkpt lat="-48.461617" lon="-123.401233"><ele>40.5</ele><time>2031-04-02T08:08:05Z</time></trkpt>
      <trkpt lat="-48.462013" lon="-123.400819"><ele>40.5</ele><time>2031-04-02T08:08:10Z</time></trkpt>
      <trkpt lat="-48.462404" lon="-123.400542"><ele>40.6</ele><time>2031-04-02T08:08:15Z</time></trkpt>
      <trkpt lat="-48.462778" lon="-123.400203"><ele>40.8</ele><time>2031-04-02T08:08:20Z</time></trkpt>
      <trkpt lat="-48.463155" lon="-123.399756"><ele>41.5</ele><time>2031-04-02T08:08:25Z</time></trkpt>
      <trkpt lat="-48.463503" lon="-123.399339"><ele>41.8</ele><time>2031-04-02T08:08:30Z</time></trkpt>
      <trkpt lat="-48.463861" lon="-123.398856"><ele>42.1</ele><time>2031-04-02T08:08:35Z</time></trkpt>
      <trkpt lat="-48.464163" lon="-123.398332"><ele>42.9</ele><time>2031-04-02T08:08:40Z</time></trkpt>
      <trkpt lat="-48.464498" lon="-123.397829"><ele>43.6</ele><time>2031-04-02T08:08:45Z</time></trkpt>
      <trkpt lat="-48.464823" lon="-123.397411"><ele>44.4</ele><time>2031-04-02T08:08:50Z</time></trkpt>
      <trkpt lat="-48.465106" lon="-123.396975"><ele>45.2</ele><time>2031-04-02T08:08:55Z</time></trkpt>
      <trkpt lat="-48.465487" lon="-123.396527"><ele>45.6</ele><time>2031-04-02T08:09:00Z</time></trkpt>
      <trkpt lat="-48.465901" lon="-123.396158"><ele>45.8</ele><time>2031-04-02T08:09:05Z</time></trkpt>
      <trkpt lat="-48.466283" lon="-123.395903"><ele>46.1</ele><time>2031-04-02T08:09:10Z</time></trkpt>
      <trkpt lat="-48.466722" lon="-123.395566"><ele>46.4</ele><time>2031-04-02T08:09:15Z</time></trkpt>
      <trkpt lat="-48.467103" lon="-123.395295"><ele>46.9</ele><time>2031-04-02T08:09:20Z</time></trkpt>
      <trkpt lat="-48.467519" lon="-123.395084"><ele>47.7</ele><time>2031-04-02T08:09:25Z</time></trkpt>
      <trkpt lat="-48.467933" lon="-123.394830"><ele>48.4</ele><time>2031-04-02T08:09:30Z</time></trkpt>
      <trkpt lat="-48.468371" lon="-123.394520"><ele>49.2</ele><time>2031-04-02T08:09:35Z</time></trkpt>
      <trkpt lat="-48.468795" lon="-123.394257"><ele>49.8</ele><time>2031-04-02T08:09:40Z</time></trkpt>
      <trkpt lat="-48.469167" lon="-123.393934"><ele>50.5</ele><time>2031-04-02T08:09:45Z</time></trkpt>
      <trkpt lat="-48.469547" lon="-123.393639"><ele>51.2</ele><time>2031-04-02T08:09:50Z</time></trkpt>
      <trkpt lat="-48.469998" lon="-123.393382"><ele>52.0</ele><time>2031-04-02T08:09:55Z</time></trkpt>
      <trkpt lat="-48.470462" lon="-123.393151"><ele>53.1</ele><time>2031-04-02T08:10:00Z</time></trkpt>
    </trkseg>
  </trk>
</gpx>
