<?xml version="1.0" encoding="UTF-8"?>
<gpx version="1.1" creator="velograph-synthetic-fixtures" xmlns="http://www.topografix.com/GPX/1/1">
  <trk>
    <name>Synthetic Ride 2</name>
    <trkseg>
      <trkpt lat="-48.449767" lon="-123.430307"><ele>32.4</ele><time>2031-04-05T17:31:00Z</time></trkpt>
      <trkpt lat="-48.449537" lon="-123.430616"><ele>32.2</ele><time>2031-04-05T17:31:05Z</time></trkpt>
      <trkpt lat="-48.449279" lon="-123.430974"><ele>32.3</ele><time>2031-04-05T17:31:10Z</time></trkpt>
      <trkpt lat="-48.449070" lon="-123.431263"><ele>32.7</ele><time>2031-04-05T17:31:15Z</time></trkpt>
      <trkpt lat="-48.448796" lon="-123.431614"><ele>32.8</ele><time>2031-04-05T17:31:20Z</time></trkpt>
      <trkpt lat="-48.448526" lon="-123.431871"><ele>32.7</ele><time>2031-04-05T17:31:25Z</time></trkpt>
      <trkpt lat="-48.448255" lon="-123.432140"><ele>33.1</ele><time>2031-04-05T17:31:30Z</time></trkpt>
      <trkpt lat="-48.448002" lon="-123.432405"><ele>33.7</ele><time>2031-04-05T17:31:35Z</time></trkpt>
      <trkpt lat="-48.447680" lon="-123.432687"><ele>34.1</ele><time>2031-04-05T17:31:40Z</time></trkpt>
      <trkpt lat="-48.447363" lon="-123.432894"><ele>34.7</ele><time>2031-04-05T17:31:45Z</time></trkpt>
      <trkpt lat="-48.447103" lon="-123.433131"><ele>35.2</ele><time>2031-04-05T17:31:50Z</time></trkpt>
      <trkpt lat="-48.446814" lon="-123.433314"><ele>35.6</ele><time>2031-04-05T17:31:55Z</time></trkpt>
      <trkpt lat="-48.446489" lon="-123.433534"><ele>36.1</ele><time>2031-04-05T17:32:00Z</time></trkpt>
      <trkpt lat="-48.446138" lon="-123.433720"><ele>36.1</ele><time>2031-04-05T17:32:05Z</time></trkpt>
      <trkpt lat="-48.445795" lon="-123.433834"><ele>36.9</ele><time>2031-04-05T17:32:10Z</time></trkpt>
      <trkpt lat="-48.445460" lon="-123.434022"><ele>37.0</ele><time>2031-04-05T17:32:15Z</time></trkpt>
      <trkpt lat="-48.445145" lon="-123.434150"><ele>37.9</ele><time>2031-04-05T17:32:20Z</time></trkpt>
      <trkpt lat="-48.444775" lon="-123.434357"><ele>38.8</ele><time>2031-04-05T17:32:25Z</time></trkpt>
      <trkpt lat="-48.444460" lon="-123.434462"><ele>39.1</ele><time>2031-04-05T17:32:30Z</time></trkpt>
      <trkpt lat="-48.444154" lon="-123.434594"><ele>40.1</ele><time>2031-04-05T17:32:35Z</time></trkpt>
      <trkpt lat="-48.443849" lon="-123.434775"><ele>40.6</ele><time>2031-04-05T17:32:40Z</time></trkpt>
      <trkpt lat="-48.443512" lon="-123.434879"><ele>41.3</ele><time>2031-04-05T17:32:45Z</time></trkpt>
      <trkpt lat="-48.443134" lon="-123.435013"><ele>41.8</ele><time>2031-04-05T17:32:50Z</time></trkpt>
      <trkpt lat="-48.442784" lon="-123.435101"><ele>42.8</ele><time>2031-04-05T17:32:55Z</time></trkpt>
      <trkpt lat="-48.442421" lon="-123.435160"><ele>43.2</ele><time>2031-04-05T17:33:00Z</time></trkpt>
      <trkpt lat="-48.442069" lon="-123.435126"><ele>44.3</ele><time>2031-04-05T17:33:05Z</time></trkpt>
      <trkpt lat="-48.441696" lon="-123.435000"><ele>45.1</ele><time>2031-04-05T17:33:10Z</time></trkpt>
      <trkpt lat="-48.441301" lon="-123.434943"><ele>45.6</ele><time>2031-04-05T17:33:15Z</time></trkpt>
      <trkpt lat="-48.440961" lon="-123.434853"><ele>46.5</ele><time>2031-04-05T17:33:20Z</time></trkpt>
      <trkpt lat="-48.440585" lon="-123.434788"><ele>47.6</ele><time>2031-04-05T17:33:25Z</time></trkpt>
      <trkpt lat="-48.440235" lon="-123.434667"><ele>48.5</ele><time>2031-04-05T17:33:30Z</time></trkpt>
      <trkpt lat="-48.439857" lon="-123.434576"><ele>49.6</ele><time>2031-04-05T17:33:35Z</time></trkpt>
      <trkpt lat="-48.439512" lon="-123.434578"><ele>50.5</ele><time>2031-04-05T17:33:40Z</time></trkpt>
      <trkpt lat="-48.439125" lon="-123.434578"><ele>51.4</ele><time>2031-04-05T17:33:45Z</time></trkpt>
      <trkpt lat="-48.438764" lon="-123.434511"><ele>52.2</ele><time>2031-04-05T17:33:50Z</time></trkpt>
      <trkpt lat="-48.438403" lon="-123.434381"><ele>53.5</ele><time>2031-04-05T17:33:55Z</time></trkpt>
      <trkpt lat="-48.438055" lon="-123.434317"><ele>54.2</ele><time>2031-04-05T17:34:00Z</time></trkpt>
      <trkpt lat="-48.437707" lon="-123.434341"><ele>55.5</ele><time>2031-04-05T17:34:05Z</time></trkpt>
      <trkpt lat="-48.437348" lon="-123.434340"><ele>57.0</ele><time>2031-04-05T17:34:10Z</time></trkpt>
      <trkpt lat="-48.436919" lon="-123.434256"><ele>58.1</ele><time>2031-04-05T17:34:15Z</time></trkpt>
      <trkpt lat="-48.436560" lon="-123.434277"><ele>58.9</ele><time>2031-04-05T17:34:20Z</time></trkpt>
      <trkpt lat="-48.436173" lon="-123.434201"><ele>59.7</ele><time>2031-04-05T17:34:25Z</time></trkpt>
      <trkpt lat="-48.435813" lon="-123.434077"><ele>61.1</ele><time>2031-04-05T17:34:30Z</time></trkpt>
      <trkpt lat="-48.435406" lon="-123.434004"><ele>61.9</ele><time>2031-04-05T17:34:35Z</time></trkpt>
      <trkpt lat="-48.435012" lon="-123.433908"><ele>63.2</ele><time>2031-04-05T17:34:40Z</time></trkpt>
      <trkpt lat="-48.434640" lon="-123.433770"><ele>64.2</ele><time>2031-04-05T17:34:45Z</time></trkpt>
      <trkpt lat="-48.434212" lon="-123.433623"><ele>65.2</ele><time>2031-04-05T17:34:50Z</time></trkpt>
      <trkpt lat="-48.433825" lon="-123.433441"><ele>66.2</ele><time>2031-04-05T17:34:55Z</time></trkpt>
      <trkpt lat="-48.433471" lon="-123.433275"><ele>67.4</ele><time>2031-04-05T17:35:00Z</time></trkpt>
      <trkpt lat="-48.433098" lon="-123.433154"><ele>68.8</ele><time>2031-04-05T17:35:05Z</time></trkpt>
      <trkpt lat="-48.432676" lon="-123.432930"><ele>70.1</ele><time>2031-04-05T17:35:10Z</time></trkpt>
      <trkpt lat="-48.432270" lon="-123.432824"><ele>71.6</ele><time>2031-04-05T17:35:15Z</time></trkpt>
      <trkpt lat="-48.431819" lon="-123.432826"><ele>72.5</ele><time>2031-04-05T17:35:20Z</time></trkpt>
      <trkpt lat="-48.431417" lon="-123.432891"><ele>73.3</ele><time>2031-04-05T17:35:25Z</time></trkpt>
      <trkpt lat="-48.430984" lon="-123.433033"><ele>74.7</ele><time>2031-04-05T17:35:30Z</time></trkpt>
      <trkpt lat="-48.430583" lon="-123.433106"><ele>75.8</ele><time>2031-04-05T17:35:35Z</time></trkpt>
      <trkpt lat="-48.430157" lon="-123.433183"><ele>76.7</ele><time>2031-04-05T17:35:40Z</time></trkpt>
      <trkpt lat="-48.429760" lon="-123.433200"><ele>77.6</ele><time>2031-04-05T17:35:45Z</time></trkpt>
      <trkpt lat="-48.429363" lon="-123.433159"><ele>78.9</ele><time>2031-04-05T17:35:50Z</time></trkpt>
      <trkpt lat="-48.428917" lon="-123.433135"><ele>80.3</ele><time>2031-04-05T17:35:55Z</time></trkpt>
      <trkpt lat="-48.428515" lon="-123.433125"><ele>81.7</ele><time>2031-04-05T17:36:00Z</time></trkpt>
      <trkpt lat="-48.428130" lon="-123.433177"><ele>83.0</ele><time>2031-04-05T17:36:05Z</time></trkpt>
      <trkpt lat="-48.427661" lon="-123.433216"><ele>84.2</ele><time>2031-04-05T17:36:10Z</time></trkpt>
      <trkpt lat="-48.427217" lon="-123.433225"><ele>85.1</ele><time>2031-04-05T17:36:15Z</time></trkpt>
      <trkpt lat="-48.426784" lon="-123.433148"><ele>86.1</ele><time>2031-04-05T17:36:20Z</time></trkpt>
      <trkpt lat="-48.426368" lon="-123.433137"><ele>87.1</ele><time>2031-04-05T17:36:25Z</time></trkpt>
      <trkpt lat="-48.425962" lon="-123.433147"><ele>88.0</ele><time>2031-04-05T17:36:30Z</time></trkpt>
      <trkpt lat="-48.425550" lon="-123.433239"><ele>88.8</ele><time>2031-04-05T17:36:35Z</time></trkpt>
      <trkpt lat="-48.425094" lon="-123.433346"><ele>90.0</ele><time>2031-04-05T17:36:40Z</time></trkpt>
      <trkpt lat="-48.424700" lon="-123.433433"><ele>91.1</ele><time>2031-04-05T17:36:45Z</time></trkpt>
      <trkpt lat="-48.424295" lon="-123.433634"><ele>92.1</ele><time>2031-04-05T17:36:50Z</time></trkpt>
      <trkpt lat="-48.423861" lon="-123.433767"><ele>93.1</ele><time>2031-04-05T17:36:55Z</time></trkpt>
      <trkpt lat="-48.423475" lon="-123.433943"><ele>94.2</ele><time>2031-04-05T17:37:00Z</time></trkpt>
      <trkpt lat="-48.423045" lon="-123.434122"><ele>95.2</ele><time>2031-04-05T17:37:05Z</time></trkpt>
      <trkpt lat="-48.422571" lon="-123.434277"><ele>96.0</ele><time>2031-04-05T17:37:10Z</time></trkpt>
      <trkpt lat="-48.422130" lon="-123.434400"><ele>97.4</ele><time>2031-04-05T17:37:15Z</time></trkpt>
      <trkpt lat="-48.421690" lon="-123.434606"><ele>98.5</ele><time>2031-04-05T17:37:20Z</time></trkpt>
      <trkpt lat="-48.421274" lon="-123.434909"><ele>99.6</ele><time>2031-04-05T17:37:25Z</time></trkpt>
      <trkpt lat="-48.420909" lon="-123.435168"><ele>100.3</ele><time>2031-04-05T17:37:30Z</time></trkpt>
      <trkpt lat="-48.420512" lon="-123.435423"><ele>101.2</ele><time>2031-04-05T17:37:35Z</time></trkpt>
      <trkpt lat="-48.420083" lon="-123.435582"><ele>102.0</ele><time>2031-04-05T17:37:40Z</time></trkpt>
      <trkpt lat="-48.419680" lon="-123.435781"><ele>102.9</ele><time>2031-04-05T17:37:45Z</time></trkpt>
      <trkpt lat="-48.419267" lon="-123.436097"><ele>103.5</ele><time>2031-04-05T17:37:50Z</time></trkpt>
      <trkpt lat="-48.418886" lon="-123.436456"><ele>104.7</ele><time>2031-04-05T17:37:55Z</time></trkpt>
      <trkpt lat="-48.418539" lon="-123.436848"><ele>105.9</ele><time>2031-04-05T17:38:00Z</time></trkpt>
      <trkpt lat="-48.418188" lon="-123.437159"><ele>106.4</ele><time>2031-04-05T17:38:05Z</time></trkpt>
      <trkpt lat="-48.417836" lon="-123.437465"><ele>107.5</ele><time>2031-04-05T17:38:10Z</time></trkpt>
      <trkpt lat="-48.417448" lon="-123.437711"><ele>108.2</ele><time>2031-04-05T17:38:15Z</time></trkpt>
      <trkpt lat="-48.417042" lon="-123.438025"><ele>109.1</ele><time>2031-04-05T17:38:20Z</time></trkpt>
      <trkpt lat="-48.416638" lon="-123.438269"><ele>109.5</ele><time>2031-04-05T17:38:25Z</time></trkpt>
      <trkpt lat="-48.416224" lon="-123.438534"><ele>110.5</ele><time>2031-04-05T17:38:30Z</time></trkpt>
      <trkpt lat="-48.415799" lon="-123.438807"><ele>111.5</ele><time>2031-04-05T17:38:35Z</time></trkpt>
      <trkpt lat="-48.415393" lon="-123.439173"><ele>112.4</ele><time>2031-04-05T17:38:40Z</time></trkpt>
      <trkpt lat="-48.414991" lon="-123.439463"><ele>113.0</ele><time>2031-04-05T17:38:45Z</time></trkpt>
      <trkpt lat="-48.414603" lon="-123.439721"><ele>113.3</ele><time>2031-04-05T17:38:50Z</time></trkpt>
      <trkpt lat="-48.414179" lon="-123.440012"><ele>113.9</ele><time>2031-04-05T17:38:55Z</time></trkpt>
      <trkpt lat="-48.413788" lon="-123.440292"><ele>114.8</ele><time>2031-04-05T17:39:00Z</time></trkpt>
      <trkpt lat="-48.413420" lon="-123.440629"><ele>115.0</ele><time>2031-04-05T17:39:05Z</time></trkpt>
      <trkpt lat="-48.413046" lon="-123.440968"><ele>115.8</ele><time>2031-04-05T17:39:10Z</time></trkpt>
      <trkpt lat="-48.412678" lon="-123.441449"><ele>116.6</ele><time>2031-04-05T17:39:15Z</time></trkpt>
      <trkpt lat="-48.412303" lon="-123.441881"><ele>117.0</ele><time>2031-04-05T17:39:20Z</time></trkpt>
      <trkpt lat="-48.411940" lon="-123.442321"><ele>117.0</ele><time>2031-04-05T17:39:25Z</time></trkpt>
      <trkpt lat="-48.411594" lon="-123.442841"><ele>117.4</ele><time>2031-04-05T17:39:30Z</time></trkpt>
      <trkpt lat="-48.411270" lon="-123.443296"><ele>117.7</ele><time>2031-04-05T17:39:35Z</time></trkpt>
      <trkpt lat="-48.410931" lon="-123.443735"><ele>118.0</ele><time>2031-04-05T17:39:40Z</time></trkpt>
      <trkpt lat="-48.410613" lon="-123.444211"><ele>118.2</ele><time>2031-04-05T17:39:45Z</time></trkpt>
      <trkpt lat="-48.410312" lon="-123.444636"><ele>118.4</ele><time>2031-04-05T17:39:50Z</time></trkpt>
      <trkpt lat="-48.409972" lon="-123.445080"><ele>118.8</ele><time>2031-04-05T17:39:55Z</time></trkpt>
      <trkpt lat="-48.409618" lon="-123.445591"><ele>119.1</ele><time>2031-04-05T17:40:00Z</time></trkpt>
      <trkpt lat="-48.409296" lon="-123.445983"><ele>118.9</ele><time>2031-04-05T17:40:05Z</time></trkpt>
      <trkpt lat="-48.408943" lon="-123.446483"><ele>118.9</ele><time>2031-04-05T17:40:10Z</time></trkpt>
      <trkpt lat="-48.408646" lon="-123.446981"><ele>119.0</ele><time>2031-04-05T17:40:15Z</time></trkpt>
      <trkpt lat="-48.408375" lon="-123.447435"><ele>118.7</ele><time>2031-04-05T17:40:20Z</time></trkpt>
      <trkpt lat="-48.408103" lon="-123.448032"><ele>118.8</ele><time>2031-04-05T17:40:25Z</time></trkpt>
      <trkpt lat="-48.407862" lon="-123.448638"><ele>119.0</ele><time>2031-04-05T17:40:30Z</time></trkpt>
      <trkpt lat="-48.407637" lon="-123.449153"><ele>118.6</ele><time>2031-04-05T17:40:35Z</time></trkpt>
      <trkpt lat="-48.407414" lon="-123.449661"><ele>118.3</ele><time>2031-04-05T17:40:40Z</time></trkpt>
      <trkpt lat="-48.407199" lon="-123.450250"><ele>117.8</ele><time>2031-04-05T17:40:45Z</time></trkpt>
      <trkpt lat="-48.407054" lon="-123.450809"><ele>117.4</ele><time>2031-04-05T17:40:50Z</time></trkpt>
      <trkpt lat="-48.406853" lon="-123.451396"><ele>117.2</ele><time>2031-04-05T17:40:55Z</time></trkpt>
      <trkpt lat="-48.406654" lon="-123.452020"><ele>116.8</ele><time>2031-04-05T17:41:00Z</time></trkpt>
      <trkpt lat="-48.406466" lon="-123.452597"><ele>116.4</ele><time>2031-04-05T17:41:05Z</time></trkpt>
      <trkpt lat="-48.406271" lon="-123.453111"><ele>116.2</ele><time>2031-04-05T17:41:10Z</time></trkpt>
      <trkpt lat="-48.406104" lon="-123.453708"><ele>115.7</ele><time>2031-04-05T17:41:15Z</time></trkpt>
      <trkpt lat="-48.405954" lon="-123.454263"><ele>115.4</ele><time>2031-04-05T17:41:20Z</time></trkpt>
      <trkpt lat="-48.405759" lon="-123.454900"><ele>114.9</ele><time>2031-04-05T17:41:25Z</time></trkpt>
      <trkpt lat="-48.405648" lon="-123.455497"><ele>114.2</ele><time>2031-04-05T17:41:30Z</time></trkpt>
      <trkpt lat="-48.405565" lon="-123.456154"><ele>113.6</ele><time>2031-04-05T17:41:35Z</time></trkpt>
      <trkpt lat="-48.405454" lon="-123.456710"><ele>113.0</ele><time>2031-04-05T17:41:40Z</time></trkpt>
      <trkpt lat="-48.405383" lon="-123.457279"><ele>112.8</ele><time>2031-04-05T17:41:45Z</time></trkpt>
      <trkpt lat="-48.405374" lon="-123.457925"><ele>112.6</ele><time>2031-04-05T17:41:50Z</time></trkpt>
      <trkpt lat="-48.405383" lon="-123.458544"><ele>111.8</ele><time>2031-04-05T17:41:55Z</time></trkpt>
      <trkpt lat="-48.405452" lon="-123.459217"><ele>111.3</ele><time>2031-04-05T17:42:00Z</time></trkpt>
      <trkpt lat="-48.405544" lon="-123.459884"><ele>110.7</ele><time>2031-04-05T17:42:05Z</time></trkpt>
      <trkpt lat="-48.405667" lon="-123.460534"><ele>110.2</ele><time>2031-04-05T17:42:10Z</time></trkpt>
      <trkpt lat="-48.405821" lon="-123.461118"><ele>109.5</ele><time>2031-04-05T17:42:15Z</time></trkpt>
      <trkpt lat="-48.405952" lon="-123.461714"><ele>108.7</ele><time>2031-04-05T17:42:20Z</time></trkpt>
      <trkpt lat="-48.406167" lon="-123.462328"><ele>107.6</ele><time>2031-04-05T17:42:25Z</time></trkpt>
      <trkpt lat="-48.406424" lon="-123.462893"><ele>106.6</ele><time>2031-04-05T17:42:30Z</time></trkpt>
      <trkpt lat="-48.406674" lon="-123.463318"><ele>106.2</ele><time>2031-04-05T17:42:35Z</time></trkpt>
      <trkpt lat="-48.406955" lon="-123.463803"><ele>105.0</ele><time>2031-04-05T17:42:40Z</time></trkpt>
      <trkpt lat="-48.407191" lon="-123.464228"><ele>103.8</ele><time>2031-04-05T17:42:45Z</time></trkpt>
      <trkpt lat="-48.407475" lon="-123.464713"><ele>102.8</ele><time>2031-04-05T17:42:50Z</time></trkpt>
      <trkpt lat="-48.407747" lon="-123.465190"><ele>102.1</ele><time>2031-04-05T17:42:55Z</time></trkpt>
      <trkpt lat="-48.407959" lon="-123.465635"><ele>101.1</ele><time>2031-04-05T17:43:00Z</time></trkpt>
      <trkpt lat="-48.408202" lon="-123.466035"><ele>100.3</ele><time>2031-04-05T17:43:05Z</time></trkpt>
      <trkpt lat="-48.408444" lon="-123.466479"><ele>99.3</ele><time>2031-04-05T17:43:10Z</time></trkpt>
      <trkpt lat="-48.408693" lon="-123.466927"><ele>98.2</ele><time>2031-04-05T17:43:15Z</time></trkpt>
      <trkpt lat="-48.408915" lon="-123.467391"><ele>97.5</ele><time>2031-04-05T17:43:20Z</time></trkpt>
      <trkpt lat="-48.409105" lon="-123.467922"><ele>96.8</ele><time>2031-04-05T17:43:25Z</time></trkpt>
      <trkpt lat="-48.409315" lon="-123.468431"><ele>96.0</ele><time>2031-04-05T17:43:30Z</time></trkpt>
      <trkpt lat="-48.409482" lon="-123.468983"><ele>95.2</ele><time>2031-04-05T17:43:35Z</time></trkpt>
      <trkpt lat="-48.409586" lon="-123.469534"><ele>93.8</ele><time>2031-04-05T17:43:40Z</time></trkpt>
      <trkpt lat="-48.409713" lon="-123.470141"><ele>92.4</ele><time>2031-04-05T17:43:45Z</time></trkpt>
      <trkpt lat="-48.409800" lon="-123.470765"><ele>90.9</ele><time>2031-04-05T17:43:50Z</time></trkpt>
      <trkpt lat="-48.409912" lon="-123.471269"><ele>90.1</ele><time>2031-04-05T17:43:55Z</time></trkpt>
      <trkpt lat="-48.410072" lon="-123.471812"><ele>89.3</ele><time>2031-04-05T17:44:00Z</time></trkpt>
      <trkpt lat="-48.410251" lon="-123.472261"><ele>88.4</ele><time>2031-04-05T17:44:05Z</time></trkpt>
      <trkpt lat="-48.410465" lon="-123.472806"><ele>87.2</ele><time>2031-04-05T17:44:10Z</time></trkpt>
      <trkpt lat="-48.410684" lon="-123.473283"><ele>86.1</ele><time>2031-04-05T17:44:15Z</time></trkpt>
      <trkpt lat="-48.410865" lon="-123.473846"><ele>84.6</ele><time>2031-04-05T17:44:20Z</time></trkpt>
      <trkpt lat="-48.410971" lon="-123.474409"><ele>83.7</ele><time>2031-04-05T17:44:25Z</time></trkpt>
      <trkpt lat="-48.411137" lon="-123.474937"><ele>82.5</ele><time>2031-04-05T17:44:30Z</time></trkpt>
      <trkpt lat="-48.411274" lon="-123.475482"><ele>81.5</ele><time>2031-04-05T17:44:35Z</time></trkpt>
      <trkpt lat="-48.411435" lon="-123.475971"><ele>80.0</ele><time>2031-04-05T17:44:40Z</time></trkpt>
      <trkpt lat="-48.411606" lon="-123.476516"><ele>79.0</ele><time>2031-04-05T17:44:45Z</time></trkpt>
      <trkpt lat="-48.411727" lon="-123.477004"><ele>78.1</ele><time>2031-04-05T17:44:50Z</time></trkpt>
      <trkpt lat="-48.411850" lon="-123.477458"><ele>77.0</ele><time>2031-04-05T17:44:55Z</time></trkpt>
      <trkpt lat="-48.412009" lon="-123.477921"><ele>76.0</ele><time>2031-04-05T17:45:00Z</time></trkpt>
      <trkpt lat="-48.412154" lon="-123.478387"><ele>75.0</ele><time>2031-04-05T17:45:05Z</time></trkpt>
      <trkpt lat="-48.412294" lon="-123.478842"><ele>74.0</ele><time>2031-04-05T17:45:10Z</time></trkpt>
      <trkpt lat="-48.412502" lon="-123.479330"><ele>72.6</ele><time>2031-04-05T17:45:15Z</time></trkpt>
      <trkpt lat="-48.412637" lon="-123.479765"><ele>71.4</ele><time>2031-04-05T17:45:20Z</time></trkpt>
      <trkpt lat="-48.412768" lon="-123.480249"><ele>70.2</ele><time>2031-04-05T17:45:25Z</time></trkpt>
      <trkpt lat="-48.412863" lon="-123.480753"><ele>68.7</ele><time>2031-04-05T17:45:30Z</time></trkpt>
      <trkpt lat="-48.412974" lon="-123.481194"><ele>67.3</ele><time>2031-04-05T17:45:35Z</time></trkpt>
      <trkpt lat="-48.413103" lon="-123.481663"><ele>66.4</ele><time>2031-04-05T17:45:40Z</time></trkpt>
      <trkpt lat="-48.413233" lon="-123.482096"><ele>65.2</ele><time>2031-04-05T17:45:45Z</time></trkpt>
      <trkpt lat="-48.413386" lon="-123.482570"><ele>64.2</ele><time>2031-04-05T17:45:50Z</time></trkpt>
      <trkpt lat="-48.413551" lon="-123.483074"><ele>62.9</ele><time>2031-04-05T17:45:55Z</time></trkpt>
      <trkpt lat="-48.413689" lon="-123.483461"><ele>62.1</ele><time>2031-04-05T17:46:00Z</time></trkpt>
      <trkpt lat="-48.413808" lon="-123.483986"><ele>61.3</ele><time>2031-04-05T17:46:05Z</time></trkpt>
      <trkpt lat="-48.413903" lon="-123.484400"><ele>60.5</ele><time>2031-04-05T17:46:10Z</time></trkpt>
      <trkpt lat="-48.413988" lon="-123.484938"><ele>59.1</ele><time>2031-04-05T17:46:15Z</time></trkpt>
      <trkpt lat="-48.414066" lon="-123.485367"><ele>58.0</ele><time>2031-04-05T17:46:20Z</time></trkpt>
      <trkpt lat="-48.414135" lon="-123.485842"><ele>57.1</ele><time>2031-04-05T17:46:25Z</time></trkpt>
      <trkpt lat="-48.414175" lon="-123.486257"><ele>56.0</ele><time>2031-04-05T17:46:30Z</time></trkpt>
      <trkpt lat="-48.414206" lon="-123.486768"><ele>55.2</ele><time>2031-04-05T17:46:35Z</time></trkpt>
      <trkpt lat="-48.414206" lon="-123.487176"><ele>53.8</ele><time>2031-04-05T17:46:40Z</time></trkpt>
      <trkpt lat="-48.414235" lon="-123.487704"><ele>52.6</ele><time>2031-04-05T17:46:45Z</time></trkpt>
      <trkpt lat="-48.414281" lon="-123.488163"><ele>51.4</ele><time>2031-04-05T17:46:50Z</time></trkpt>
      <trkpt lat="-48.414388" lon="-123.488650"><ele>50.4</ele><time>2031-04-05T17:46:55Z</time></trkpt>
      <trkpt lat="-48.414490" lon="-123.489083"><ele>49.1</ele><time>2031-04-05T17:47:00Z</time></trkpt>
      <trkpt lat="-48.414603" lon="-123.489559"><ele>47.9</ele><time>2031-04-05T17:47:05Z</time></trkpt>
      <trkpt lat="-48.414723" lon="-123.489925"><ele>46.8</ele><time>2031-04-05T17:47:10Z</time></trkpt>
      <trkpt lat="-48.414912" lon="-123.490347"><ele>46.0</ele><time>2031-04-05T17:47:15Z</time></trkpt>
      <trkpt lat="-48.415072" lon="-123.490673"><ele>44.8</ele><time>2031-04-05T17:47:20Z</time></trkpt>
      <trkpt lat="-48.415227" lon="-123.491101"><ele>44.4</ele><time>2031-04-05T17:47:25Z</time></trkpt>
      <trkpt lat="-48.415369" lon="-123.491481"><ele>43.4</ele><time>2031-04-05T17:47:30Z</time></trkpt>
      <trkpt lat="-48.415523" lon="-123.491926"><ele>42.5</ele><time>2031-04-05T17:47:35Z</time></trkpt>
      <trkpt lat="-48.415669" lon="-123.492247"><ele>41.8</ele><time>2031-04-05T17:47:40Z</time></trkpt>
      <trkpt lat="-48.415798" lon="-123.492643"><ele>40.9</ele><time>2031-04-05T17:47:45Z</time></trkpt>
      <trkpt lat="-48.415929" lon="-123.492990"><ele>39.8</ele><time>2031-04-05T17:47:50Z</time></trkpt>
      <trkpt lat="-48.416098" lon="-123.493323"><ele>39.4</ele><time>2031-04-05T17:47:55Z</time></trkpt>
      <trkpt lat="-48.416288" lon="-123.493649"><ele>38.5</ele><time>2031-04-05T17:48:00Z</time></trkpt>
      <trkpt lat="-48.416442" lon="-123.493964"><ele>37.9</ele><time>2031-04-05T17:48:05Z</time></trkpt>
      <trkpt lat="-48.416582" lon="-123.494362"><ele>37.4</ele><time>2031-04-05T17:48:10Z</time></trkpt>
      <trkpt lat="-48.416687" lon="-123.494794"><ele>36.5</ele><time>2031-04-05T17:48:15Z</time></trkpt>
      <trkpt lat="-48.416783" lon="-123.495234"><ele>36.1</ele><time>2031-04-05T17:48:20Z</time></trkpt>
      <trkpt lat="-48.416890" lon="-123.495666"><ele>35.8</ele><time>2031-04-05T17:48:25Z</time></trkpt>
      <trkpt lat="-48.416954" lon="-123.496057"><ele>35.0</ele><time>2031-04-05T17:48:30Z</time></trkpt>
      <trkpt lat="-48.417020" lon="-123.496401"><ele>34.4</ele><time>2031-04-05T17:48:35Z</time></trkpt>
      <trkpt lat="-48.417145" lon="-123.496790"><ele>34.0</ele><time>2031-04-05T17:48:40Z</time></trkpt>
      <trkpt lat="-48.417238" lon="-123.497180"><ele>33.8</ele><time>2031-04-05T17:48:45Z</time></trkpt>
      <trkpt lat="-48.417308" lon="-123.497584"><ele>33.4</ele><time>2031-04-05T17:48:50Z</time></trkpt>
      <trkpt lat="-48.417351" lon="-123.497992"><ele>32.9</ele><time>2031-04-05T17:48:55Z</time></trkpt>
      <trkpt lat="-48.417424" lon="-123.498373"><ele>32.8</ele><time>2031-04-05T17:49:00Z</time></trkpt>
      <trkpt lat="-48.417514" lon="-123.498722"><ele>32.6</ele><time>2031-04-05T17:49:05Z</time></trkpt>
      <trkpt lat="-48.417604" lon="-123.499005"><ele>32.3</ele><time>2031-04-05T17:49:10Z</time></trkpt>
      <trkpt lat="-48.417723" lon="-123.499336"><ele>32.1</ele><time>2031-04-05T17:49:15Z</time></trkpt>
      <trkpt lat="-48.417863" lon="-123.499617"><ele>31.6</ele><time>2031-04-05T17:49:20Z</time></trkpt>
      <trkpt lat="-48.418043" lon="-123.499886"><ele>31.1</ele><time>2031-04-05T17:49:25Z</time></trkpt>
      <trkpt lat="-48.418216" lon="-123.500184"><ele>30.6</ele><time>2031-04-05T17:49:30Z</time></trkpt>
      <trkpt lat="-48.418342" lon="-123.500482"><ele>30.8</ele><time>2031-04-05T17:49:35Z</time></trkpt>
      <trkpt lat="-48.418463" lon="-123.500768"><ele>30.8</ele><time>2031-04-05T17:49:40Z</time></trkpt>
      <trkpt lat="-48.418584" lon="-123.501125"><ele>30.9</ele><time>2031-04-05T17:49:45Z</time></trkpt>
      <trkpt lat="-48.418670" lon="-123.501409"><ele>30.5</ele><time>2031-04-05T17:49:50Z</time></trkpt>
      <trkpt lat="-48.418763" lon="-123.501666"><ele>30.8</ele><time>2031-04-05T17:49:55Z</time></trkpt>
      <trkpt lat="-48.418846" lon="-123.501990"><ele>30.5</ele><time>2031-04-05T17:50:00Z</time></trkpt>
      <trkpt lat="-48.418913" lon="-123.502301"><ele>30.5</ele><time>2031-04-05T17:50:05Z</time></trkpt>
      <trkpt lat="-48.418955" lon="-123.502640"><ele>30.4</ele><time>2031-04-05T17:50:10Z</time></trkpt>
      <trkpt lat="-48.419004" lon="-123.502916"><ele>30.7</ele><time>2031-04-05T17:50:15Z</time></trkpt>
      <trkpt lat="-48.419085" lon="-123.503274"><ele>31.1</ele><time>2031-04-05T17:50:20Z</time></trkpt>
      <trkpt lat="-48.419146" lon="-123.503573"><ele>31.2</ele><time>2031-04-05T17:50:25Z</time></trkpt>
      <trkpt lat="-48.419213" lon="-123.503838"><ele>31.8</ele><time>2031-04-05T17:50:30Z</time></trkpt>
      <trkpt lat="-48.419290" lon="-123.504199"><ele>31.7</ele><time>2031-04-05T17:50:35Z</time></trkpt>
      <trkpt lat="-48.419322" lon="-123.504515"><ele>32.0</ele><time>2031-04-05T17:50:40Z</time></trkpt>
      <trkpt lat="-48.419373" lon="-123.504823"><ele>32.2</ele><time>2031-04-05T17:50:45Z</time></trkpt>
      <trkpt lat="-48.419461" lon="-123.505138"><ele>32.3</ele><time>2031-04-05T17:50:50Z</time></trkpt>
      <trkpt lat="-48.419521" lon="-123.505482"><ele>33.1</ele><time>2031-04-05T17:50:55Z</time></trkpt>
      <trkpt lat="-48.419562" lon="-123.505775"><ele>33.5</ele><time>2031-04-05T17:51:00Z</time></trkpt>
      <trkpt lat="-48.419606" lon="-123.506025"><ele>34.4</ele><time>2031-04-05T17:51:05Z</time></trkpt>
      <trkpt lat="-48.419640" lon="-123.506314"><ele>34.8</ele><time>2031-04-05T17:51:10Z</time></trkpt>
      <trkpt lat="-48.419677" lon="-123.506683"><ele>35.7</ele><time>2031-04-05T17:51:15Z</time></trkpt>
      <trkpt lat="-48.419726" lon="-123.507010"><ele>36.0</ele><time>2031-04-05T17:51:20Z</time></trkpt>
      <trkpt lat="-48.419771" lon="-123.507270"><ele>36.4</ele><time>2031-04-05T17:51:25Z</time></trkpt>
      <trkpt lat="-48.419788" lon="-123.507518"><ele>37.0</ele><time>2031-04-05T17:51:30Z</time></trkpt>
      <trkpt lat="-48.419825" lon="-123.507872"><ele>37.4</ele><time>2031-04-05T17:51:35Z</time></trkpt>
      <trkpt lat="-48.419825" lon="-123.508147"><ele>38.2</ele><time>2031-04-05T17:51:40Z</time></trkpt>
      <trkpt lat="-48.419857" lon="-123.508480"><ele>38.6</ele><time>2031-04-05T17:51:45Z</time></trkpt>
      <trkpt lat="-48.419881" lon="-123.508842"><ele>39.7</ele><time>2031-04-05T17:51:50Z</time></trkpt>
      <trkpt lat="-48.419907" lon="-123.509093"><ele>40.5</ele><time>2031-04-05T17:51:55Z</time></trkpt>
      <trkpt lat="-48.419922" lon="-123.509415"><ele>41.3</ele><time>2031-04-05T17:52:00Z</time></trkpt>
      <trkpt lat="-48.419929" lon="-123.509670"><ele>42.0</ele><time>2031-04-05T17:52:05Z</time></trkpt>
      <trkpt lat="-48.419914" lon="-123.509975"><ele>43.0</ele><time>2031-04-05T17:52:10Z</time></trkpt>
      <trkpt lat="-48.419888" lon="-123.510236"><ele>43.9</ele><time>2031-04-05T17:52:15Z</time></trkpt>
      <trkpt lat="-48.419855" lon="-123.510488"><ele>45.1</ele><time>2031-04-05T17:52:20Z</time></trkpt>
      <trkpt lat="-48.419848" lon="-123.510716"><ele>45.7</ele><time>2031-04-05T17:52:25Z</time></trkpt>
      <trkpt lat="-48.419818" lon="-123.511013"><ele>47.0</ele><time>2031-04-05T17:52:30Z</time></trkpt>
      <trkpt lat="-48.419815" lon="-123.511317"><ele>48.0</ele><time>2031-04-05T17:52:35Z</time></trkpt>
      <trkpt lat="-48.419816" lon="-123.511621"><ele>49.0</ele><time>2031-04-05T17:52:40Z</time></trkpt>
      <trkpt lat="-48.419830" lon="-123.511858"><ele>50.1</ele><time>2031-04-05T17:52:45Z</time></trkpt>
      <trkpt lat="-48.419825" lon="-123.512166"><ele>50.8</ele><time>2031-04-05T17:52:50Z</time></trkpt>
      <trkpt lat="-48.419807" lon="-123.512508"><ele>52.2</ele><time>2031-04-05T17:52:55Z</time></trkpt>
      <trkpt lat="-48.419820" lon="-123.512748"><ele>52.9</ele><time>2031-04-05T17:53:00Z</time></trkpt>
      <trkpt lat="-48.419810" lon="-123.513079"><ele>53.9</ele><time>2031-04-05T17:53:05Z</time></trkpt>
      <trkpt lat="-48.419778" lon="-123.513365"><ele>55.3</ele><time>2031-04-05T17:53:10Z</time></trkpt>
      <trkpt lat="-48.419777" lon="-123.513577"><ele>56.7</ele><time>2031-04-05T17:53:15Z</time></trkpt>
      <trkpt lat="-48.419773" lon="-123.513812"><ele>58.1</ele><time>2031-04-05T17:53:20Z</time></trkpt>
      <trkpt lat="-48.419761" lon="-123.514129"><ele>59.0</ele><time>2031-04-05T17:53:25Z</time></trkpt>
      <trkpt lat="-48.419759" lon="-123.514353"><ele>60.5</ele><time>2031-04-05T17:53:30Z</time></trkpt>
      <trkpt lat="-48.419775" lon="-123.514605"><ele>61.3</ele><time>2031-04-05T17:53:35Z</time></trkpt>
      <trkpt lat="-48.419759" lon="-123.514917"><ele>62.6</ele><time>2031-04-05T17:53:40Z</time></trkpt>
      <trkpt lat="-48.419773" lon="-123.515154"><ele>64.0</ele><time>2031-04-05T17:53:45Z</time></trkpt>
      <trkpt lat="-48.419791" lon="-123.515425"><ele>65.1</ele><time>2031-04-05T17:53:50Z</time></trkpt>
      <trkpt lat="-48.419829" lon="-123.515692"><ele>66.4</ele><time>2031-04-05T17:53:55Z</time></trkpt>
      <trkpt lat="-48.419839" lon="-123.516014"><ele>67.2</ele><time>2031-04-05T17:54:00Z</time></trkpt>
      <trkpt lat="-48.419831" lon="-123.516311"><ele>68.5</ele><time>2031-04-05T17:54:05Z</time></trkpt>
      <trkpt lat="-48.419789" lon="-123.516606"><ele>70.0</ele><time>2031-04-05T17:54:10Z</time></trkpt>
      <trkpt lat="-48.419770" lon="-123.516890"><ele>71.5</ele><time>2031-04-05T17:54:15Z</time></trkpt>
      <trkpt lat="-48.419748" lon="-123.517198"><ele>72.9</ele><time>2031-04-05T17:54:20Z</time></trkpt>
      <trkpt lat="-48.419707" lon="-123.517433"><ele>74.1</ele><time>2031-04-05T17:54:25Z</time></trkpt>
      <trkpt lat="-48.419680" lon="-123.517741"><ele>75.1</ele><time>2031-04-05T17:54:30Z</time></trkpt>
      <trkpt lat="-48.419679" lon="-123.518045"><ele>76.5</ele><time>2031-04-05T17:54:35Z</time></trkpt>
      <trkpt lat="-48.419709" lon="-123.518318"><ele>77.6</ele><time>2031-04-05T17:54:40Z</time></trkpt>
      <trkpt lat="-48.419753" lon="-123.518524"><ele>78.9</ele><time>2031-04-05T17:54:45Z</time></trkpt>
      <trkpt lat="-48.419834" lon="-123.518811"><ele>79.9</ele><time>2031-04-05T17:54:50Z</time></trkpt>
      <trkpt lat="-48.419875" lon="-123.519045"><ele>80.7</ele><time>2031-04-05T17:54:55Z</time></trkpt>
      <trkpt lat="-48.419900" lon="-123.519375"><ele>82.2</ele><time>2031-04-05T17:55:00Z</time></trkpt>
      <trkpt lat="-48.419908" lon="-123.519609"><ele>83.8</ele><time>2031-04-05T17:55:05Z</time></trkpt>
      <trkpt lat="-48.419938" lon="-123.519884"><ele>84.9</ele><time>2031-04-05T17:55:10Z</time></trkpt>
      <trkpt lat="-48.419957" lon="-123.520105"><ele>85.9</ele><time>2031-04-05T17:55:15Z</time></trkpt>
      <trkpt lat="-48.420007" lon="-123.520377"><ele>87.3</ele><time>2031-04-05T17:55:20Z</time></trkpt>
      <trkpt lat="-48.420054" lon="-123.520591"><ele>88.8</ele><time>2031-04-05T17:55:25Z</time></trkpt>
      <trkpt lat="-48.420113" lon="-123.520874"><ele>89.6</ele><time>2031-04-05T17:55:30Z</time></trkpt>
      <trkpt lat="-48.420143" lon="-123.521185"><ele>91.1</ele><time>2031-04-05T17:55:35Z</time></trkpt>
      <trkpt lat="-48.420181" lon="-123.521416"><ele>92.3</ele><time>2031-04-05T17:55:40Z</time></trkpt>
    </trkseg>
    <trkseg>
      <trkpt lat="-48.420226" lon="-123.521763"><ele>91.7</ele><time>2031-04-05T18:00:10Z</time></trkpt>
      <trkpt lat="-48.420303" lon="-123.522134"><ele>91.2</ele><time>2031-04-05T18:00:15Z</time></trkpt>
      <trkpt lat="-48.420417" lon="-123.522523"><ele>90.6</ele><time>2031-04-05T18:00:20Z</time></trkpt>
      <trkpt lat="-48.420503" lon="-123.522958"><ele>89.8</ele><time>2031-04-05T18:00:25Z</time></trkpt>
      <trkpt lat="-48.420595" lon="-123.523368"><ele>89.3</ele><time>2031-04-05T18:00:30Z</time></trkpt>
      <trkpt lat="-48.420647" lon="-123.523769"><ele>88.7</ele><time>2031-04-05T18:00:35Z</time></trkpt>
      <trkpt lat="-48.420676" lon="-123.524163"><ele>88.5</ele><time>2031-04-05T18:00:40Z</time></trkpt>
      <trkpt lat="-48.420662" lon="-123.524596"><ele>87.9</ele><time>2031-04-05T18:00:45Z</time></trkpt>
      <trkpt lat="-48.420615" lon="-123.524995"><ele>87.0</ele><time>2031-04-05T18:00:50Z</time></trkpt>
      <trkpt lat="-48.420558" lon="-123.525386"><ele>86.5</ele><time>2031-04-05T18:00:55Z</time></trkpt>
      <trkpt lat="-48.420522" lon="-123.525780"><ele>86.1</ele><time>2031-04-05T18:01:00Z</time></trkpt>
      <trkpt lat="-48.420521" lon="-123.526214"><ele>85.8</ele><time>2031-04-05T18:01:05Z</time></trkpt>
      <trkpt lat="-48.420484" lon="-123.526623"><ele>85.3</ele><time>2031-04-05T18:01:10Z</time></trkpt>
      <trkpt lat="-48.420427" lon="-123.527025"><ele>84.4</ele><time>2031-04-05T18:01:15Z</time></trkpt>
      <trkpt lat="-48.420370" lon="-123.527465"><ele>83.5</ele><time>2031-04-05T18:01:20Z</time></trkpt>
      <trkpt lat="-48.420365" lon="-123.527928"><ele>82.4</ele><time>2031-04-05T18:01:25Z</time></trkpt>
      <trkpt lat="-48.420321" lon="-123.528346"><ele>81.7</ele><time>2031-04-05T18:01:30Z</time></trkpt>
      <trkpt lat="-48.420280" lon="-123.528822"><ele>80.6</ele><time>2031-04-05T18:01:35Z</time></trkpt>
      <trkpt lat="-48.420279" lon="-123.529333"><ele>79.4</ele><time>2031-04-05T18:01:40Z</time></trkpt>
      <trkpt lat="-48.420250" lon="-123.529727"><ele>78.8</ele><time>2031-04-05T18:01:45Z</time></trkpt>
      <trkpt lat="-48.420191" lon="-123.530161"><ele>78.2</ele><time>2031-04-05T18:01:50Z</time></trkpt>
      <trkpt lat="-48.420147" lon="-123.530649"><ele>77.5</ele><time>2031-04-05T18:01:55Z</time></trkpt>
      <trkpt lat="-48.420110" lon="-123.531086"><ele>76.9</ele><time>2031-04-05T18:02:00Z</time></trkpt>
      <trkpt lat="-48.420068" lon="-123.531509"><ele>75.9</ele><time>2031-04-05T18:02:05Z</time></trkpt>
      <trkpt lat="-48.420002" lon="-123.531910"><ele>75.1</ele><time>2031-04-05T18:02:10Z</time></trkpt>
      <trkpt lat="-48.419969" lon="-123.532424"><ele>74.5</ele><time>2031-04-05T18:02:15Z</time></trkpt>
      <trkpt lat="-48.419932" lon="-123.532846"><ele>73.2</ele><time>2031-04-05T18:02:20Z</time></trkpt>
      <trkpt lat="-48.419926" lon="-123.533266"><ele>72.2</ele><time>2031-04-05T18:02:25Z</time></trkpt>
      <trkpt lat="-48.419873" lon="-123.533782"><ele>71.2</ele><time>2031-04-05T18:02:30Z</time></trkpt>
      <trkpt lat="-48.419860" lon="-123.534312"><ele>70.3</ele><time>2031-04-05T18:02:35Z</time></trkpt>
      <trkpt lat="-48.419810" lon="-123.534841"><ele>69.5</ele><time>2031-04-05T18:02:40Z</time></trkpt>
      <trkpt lat="-48.419781" lon="-123.535370"><ele>68.4</ele><time>2031-04-05T18:02:45Z</time></trkpt>
      <trkpt lat="-48.419800" lon="-123.535890"><ele>67.5</ele><time>2031-04-05T18:02:50Z</time></trkpt>
      <trkpt lat="-48.419841" lon="-123.536434"><ele>66.0</ele><time>2031-04-05T18:02:55Z</time></trkpt>
      <trkpt lat="-48.419898" lon="-123.536956"><ele>64.7</ele><time>2031-04-05T18:03:00Z</time></trkpt>
      <trkpt lat="-48.419939" lon="-123.537419"><ele>63.3</ele><time>2031-04-05T18:03:05Z</time></trkpt>
      <trkpt lat="-48.419990" lon="-123.537900"><ele>61.8</ele><time>2031-04-05T18:03:10Z</time></trkpt>
      <trkpt lat="-48.420034" lon="-123.538335"><ele>60.6</ele><time>2031-04-05T18:03:15Z</time></trkpt>
      <trkpt lat="-48.420127" lon="-123.538820"><ele>59.2</ele><time>2031-04-05T18:03:20Z</time></trkpt>
      <trkpt lat="-48.420178" lon="-123.539377"><ele>58.2</ele><time>2031-04-05T18:03:25Z</time></trkpt>
      <trkpt lat="-48.420264" lon="-123.539841"><ele>57.1</ele><time>2031-04-05T18:03:30Z</time></trkpt>
      <trkpt lat="-48.420407" lon="-123.540311"><ele>55.8</ele><time>2031-04-05T18:03:35Z</time></trkpt>
      <trkpt lat="-48.420619" lon="-123.540796"><ele>54.9</ele><time>2031-04-05T18:03:40Z</time></trkpt>
      <trkpt lat="-48.420852" lon="-123.541275"><ele>53.8</ele><time>2031-04-05T18:03:45Z</time></trkpt>
      <trkpt lat="-48.421024" lon="-123.541730"><ele>52.7</ele><time>2031-04-05T18:03:50Z</time></trkpt>
      <trkpt lat="-48.421161" lon="-123.542150"><ele>51.4</ele><time>2031-04-05T18:03:55Z</time></trkpt>
      <trkpt lat="-48.421271" lon="-123.542719"><ele>50.3</ele><time>2031-04-05T18:04:00Z</time></trkpt>
      <trkpt lat="-48.421333" lon="-123.543284"><ele>49.1</ele><time>2031-04-05T18:04:05Z</time></trkpt>
      <trkpt lat="-48.421395" lon="-123.543851"><ele>48.2</ele><time>2031-04-05T18:04:10Z</time></trkpt>
      <trkpt lat="-48.421486" lon="-123.544338"><ele>47.4</ele><time>2031-04-05T18:04:15Z</time></trkpt>
      <trkpt lat="-48.421546" lon="-123.544851"><ele>46.3</ele><time>2031-04-05T18:04:20Z</time></trkpt>
      <trkpt lat="-48.421672" lon="-123.545397"><ele>45.2</ele><time>2031-04-05T18:04:25Z</time></trkpt>
      <trkpt lat="-48.421775" lon="-123.545929"><ele>44.2</ele><time>2031-04-05T18:04:30Z</time></trkpt>
      <trkpt lat="-48.421869" lon="-123.546517"><ele>43.1</ele><time>2031-04-05T18:04:35Z</time></trkpt>
      <trkpt lat="-48.421917" lon="-123.547139"><ele>41.7</ele><time>2031-04-05T18:04:40Z</time></trkpt>
      <trkpt lat="-48.421990" lon="-123.547758"><ele>40.6</ele><time>2031-04-05T18:04:45Z</time></trkpt>
      <trkpt lat="-48.422079" lon="-123.548251"><ele>39.8</ele><time>2031-04-05T18:04:50Z</time></trkpt>
      <trkpt lat="-48.422131" lon="-123.548750"><ele>38.8</ele><time>2031-04-05T18:04:55Z</time></trkpt>
      <trkpt lat="-48.422184" lon="-123.549274"><ele>37.3</ele><time>2031-04-05T18:05:00Z</time></trkpt>
      <trkpt lat="-48.422313" lon="-123.549859"><ele>36.5</ele><time>2031-04-05T18:05:05Z</time></trkpt>
      <trkpt lat="-48.422372" lon="-123.550397"><ele>35.0</ele><time>2031-04-05T18:05:10Z</time></trkpt>
      <trkpt lat="-48.422476" lon="-123.550956"><ele>34.1</ele><time>2031-04-05T18:05:15Z</time></trkpt>
      <trkpt lat="-48.422605" lon="-123.551577"><ele>33.4</ele><time>2031-04-05T18:05:20Z</time></trkpt>
      <trkpt lat="-48.422737" lon="-123.552176"><ele>32.4</ele><time>2031-04-05T18:05:25Z</time></trkpt>
      <trkpt lat="-48.422907" lon="-123.552713"><ele>31.6</ele><time>2031-04-05T18:05:30Z</time></trkpt>
      <trkpt lat="-48.423053" lon="-123.553210"><ele>30.4</ele><time>2031-04-05T18:05:35Z</time></trkpt>
      <trkpt lat="-48.423148" lon="-123.553750"><ele>29.3</ele><time>2031-04-05T18:05:40Z</time></trkpt>
      <trkpt lat="-48.423281" lon="-123.554329"><ele>28.2</ele><time>2031-04-05T18:05:45Z</time></trkpt>
      <trkpt lat="-48.423403" lon="-123.554962"><ele>27.5</ele><time>2031-04-05T18:05:50Z</time></trkpt>
      <trkpt lat="-48.423522" lon="-123.555473"><ele>26.3</ele><time>2031-04-05T18:05:55Z</time></trkpt>
      <trkpt lat="-48.423679" lon="-123.556057"><ele>25.0</ele><time>2031-04-05T18:06:00Z</time></trkpt>
      <trkpt lat="-48.423797" lon="-123.556632"><ele>23.8</ele><time>2031-04-05T18:06:05Z</time></trkpt>
      <trkpt lat="-48.423915" lon="-123.557267"><ele>22.6</ele><time>2031-04-05T18:06:10Z</time></trkpt>
      <trkpt lat="-48.424077" lon="-123.557871"><ele>21.3</ele><time>2031-04-05T18:06:15Z</time></trkpt>
      <trkpt lat="-48.424197" lon="-123.558391"><ele>20.3</ele><time>2031-04-05T18:06:20Z</time></trkpt>
      <trkpt lat="-48.424347" lon="-123.558909"><ele>19.7</ele><time>2031-04-05T18:06:25Z</time></trkpt>
      <trkpt lat="-48.424531" lon="-123.559526"><ele>18.6</ele><time>2031-04-05T18:06:30Z</time></trkpt>
      <trkpt lat="-48.424697" lon="-123.560078"><ele>17.8</ele><time>2031-04-05T18:06:35Z</time></trkpt>
      <trkpt lat="-48.424942" lon="-123.560640"><ele>16.9</ele><time>2031-04-05T18:06:40Z</time></trkpt>
      <trkpt lat="-48.425134" lon="-123.561187"><ele>16.3</ele><time>2031-04-05T18:06:45Z</time></trkpt>
      <trkpt lat="-48.425294" lon="-123.561764"><ele>15.5</ele><time>2031-04-05T18:06:50Z</time></trkpt>
      <trkpt lat="-48.425418" lon="-123.562356"><ele>15.2</ele><time>2031-04-05T18:06:55Z</time></trkpt>
      <trkpt lat="-48.425503" lon="-123.563004"><ele>14.2</ele><time>2031-04-05T18:07:00Z</time></trkpt>
      <trkpt lat="-48.425655" lon="-123.563602"><ele>13.4</ele><time>2031-04-05T18:07:05Z</time></trkpt>
      <trkpt lat="-48.425733" lon="-123.564210"><ele>12.7</ele><time>2031-04-05T18:07:10Z</time></trkpt>
      <trkpt lat="-48.425782" lon="-123.564800"><ele>12.3</ele><time>2031-04-05T18:07:15Z</time></trkpt>
      <trkpt lat="-48.425800" lon="-123.565404"><ele>11.8</ele><time>2031-04-05T18:07:20Z</time></trkpt>
      <trkpt lat="-48.425795" lon="-123.566013"><ele>11.1</ele><time>2031-04-05T18:07:25Z</time></trkpt>
      <trkpt lat="-48.425859" lon="-123.566669"><ele>10.9</ele><time>2031-04-05T18:07:30Z</time></trkpt>
      <trkpt lat="-48.425966" lon="-123.567261"><ele>10.6</ele><time>2031-04-05T18:07:35Z</time></trkpt>
      <trkpt lat="-48.426041" lon="-123.567921"><ele>10.1</ele><time>2031-04-05T18:07:40Z</time></trkpt>
      <trkpt lat="-48.426117" lon="-123.568629"><ele>9.6</ele><time>2031-04-05T18:07:45Z</time></trkpt>
      <trkpt lat="-48.426180" lon="-123.569273"><ele>9.6</ele><time>2031-04-05T18:07:50Z</time></trkpt>
      <trkpt lat="-48.426257" lon="-123.569978"><ele>9.2</ele><time>2031-04-05T18:07:55Z</time></trkpt>
      <trkpt lat="-48.426326" lon="-123.570676"><ele>8.7</ele><time>2031-04-05T18:08:00Z</time></trkpt>
      <trkpt lat="-48.426392" lon="-123.571263"><ele>8.7</ele><time>2031-04-05T18:08:05Z</time></trkpt>
      <trkpt lat="-48.426406" lon="-123.571969"><ele>8.8</ele><time>2031-04-05T18:08:10Z</time></trkpt>
      <trkpt lat="-48.426408" lon="-123.572666"><ele>8.9</ele><time>2031-04-05T18:08:15Z</time></trkpt>
      <trkpt lat="-48.426379" lon="-123.573384"><ele>8.6</ele><time>2031-04-05T18:08:20Z</time></trkpt>
      <trkpt lat="-48.426349" lon="-123.574066"><ele>8.8</ele><time>2031-04-05T18:08:25Z</time></trkpt>
      <trkpt lat="-48.426313" lon="-123.574794"><ele>8.5</ele><time>2031-04-05T18:08:30Z</time></trkpt>
      <trkpt lat="-48.426257" lon="-123.575511"><ele>8.3</ele><time>2031-04-05T18:08:35Z</time></trkpt>
      <trkpt lat="-48.426130" lon="-123.576161"><ele>8.2</ele><time>2031-04-05T18:08:40Z</time></trkpt>
      <trkpt lat="-48.425934" lon="-123.576833"><ele>8.2</ele><time>2031-04-05T18:08:45Z</time></trkpt>
      <trkpt lat="-48.425793" lon="-123.577449"><ele>8.2</ele><time>2031-04-05T18:08:50Z</time></trkpt>
      <trkpt lat="-48.425703" lon="-123.578052"><ele>8.1</ele><time>2031-04-05T18:08:55Z</time></trkpt>
      <trkpt lat="-48.425665" lon="-123.578743"><ele>8.1</ele><time>2031-04-05T18:09:00Z</time></trkpt>
      <trkpt lat="-48.425636" lon="-123.579372"><ele>8.4</ele><time>2031-04-05T18:09:05Z</time></trkpt>
      <trkpt lat="-48.425636" lon="-123.580082"><ele>8.7</ele><time>2031-04-05T18:09:10Z</time></trkpt>
      <trkpt lat="-48.425575" lon="-123.580808"><ele>8.7</ele><time>2031-04-05T18:09:15Z</time></trkpt>
      <trkpt lat="-48.425507" lon="-123.581449"><ele>9.3</ele><time>2031-04-05T18:09:20Z</time></trkpt>
      <trkpt lat="-48.425501" lon="-123.582185"><ele>9.9</ele><time>2031-04-05T18:09:25Z</time></trkpt>
      <trkpt lat="-48.425536" lon="-123.582825"><ele>10.2</ele><time>2031-04-05T18:09:30Z</time></trkpt>
      <trkpt lat="-48.425632" lon="-123.583530"><ele>10.2</ele><time>2031-04-05T18:09:35Z</time></trkpt>
      <trkpt lat="-48.425694" lon="-123.584135"><ele>10.4</ele><time>2031-04-05T18:09:40Z</time></trkpt>
      <trkpt lat="-48.425811" lon="-123.584752"><ele>10.5</ele><time>2031-04-05T18:09:45Z</time></trkpt>
      <trkpt lat="-48.425928" lon="-123.585442"><ele>11.3</ele><time>2031-04-05T18:09:50Z</time></trkpt>
      <trkpt lat="-48.426058" lon="-123.586094"><ele>12.0</ele><time>2031-04-05T18:09:55Z</time></trkpt>
      <trkpt lat="-48.426157" lon="-123.586709"><ele>12.3</ele><time>2031-04-05T18:10:00Z</time></trkpt>
      <trkpt lat="-48.426313" lon="-123.587370"><ele>12.6</ele><time>2031-04-05T18:10:05Z</time></trkpt>
      <trkpt lat="-48.426482" lon="-123.588062"><ele>13.0</ele><time>2031-04-05T18:10:10Z</time></trkpt>
      <trkpt lat="-48.426654" lon="-123.588691"><ele>13.4</ele><time>2031-04-05T18:10:15Z</time></trkpt>
      <trkpt lat="-48.426818" lon="-123.589391"><ele>14.3</ele><time>2031-04-05T18:10:20Z</time></trkpt>
      <trkpt lat="-48.427015" lon="-123.589923"><ele>15.2</ele><time>2031-04-05T18:10:25Z</time></trkpt>
      <trkpt lat="-48.427212" lon="-123.590597"><ele>15.5</ele><time>2031-04-05T18:10:30Z</time></trkpt>
      <trkpt lat="-48.427330" lon="-123.591255"><ele>16.1</ele><time>2031-04-05T18:10:35Z</time></trkpt>
      <trkpt lat="-48.427512" lon="-123.591885"><ele>17.1</ele><time>2031-04-05T18:10:40Z</time></trkpt>
      <trkpt lat="-48.427623" lon="-123.592575"><ele>18.3</ele><time>2031-04-05T18:10:45Z</time></trkpt>
      <trkpt lat="-48.427663" lon="-123.593256"><ele>18.8</ele><time>2031-04-05T18:10:50Z</time></trkpt>
      <trkpt lat="-48.427694" lon="-123.593927"><ele>20.0</ele><time>2031-04-05T18:10:55Z</time></trkpt>
      <trkpt lat="-48.427705" lon="-123.594546"><ele>20.6</ele><time>2031-04-05T18:11:00Z</time></trkpt>
      <trkpt lat="-48.427686" lon="-123.595201"><ele>21.8</ele><time>2031-04-05T18:11:05Z</time></trkpt>
      <trkpt lat="-48.427654" lon="-123.595811"><ele>22.5</ele><time>2031-04-05T18:11:10Z</time></trkpt>
      <trkpt lat="-48.427597" lon="-123.596473"><ele>23.4</ele><time>2031-04-05T18:11:15Z</time></trkpt>
      <trkpt lat="-48.427592" lon="-123.597082"><ele>24.1</ele><time>2031-04-05T18:11:20Z</time></trkpt>
      <trkpt lat="-48.427659" lon="-123.597779"><ele>24.7</ele><time>2031-04-05T18:11:25Z</time></trkpt>
      <trkpt lat="-48.427725" lon="-123.598406"><ele>26.0</ele><time>2031-04-05T18:11:30Z</time></trkpt>
      <trkpt lat="-48.427817" lon="-123.599119"><ele>26.8</ele><time>2031-04-05T18:11:35Z</time></trkpt>
      <trkpt lat="-48.427840" lon="-123.599726"><ele>27.5</ele><time>2031-04-05T18:11:40Z</time></trkpt>
      <trkpt lat="-48.427899" lon="-123.600368"><ele>28.9</ele><time>2031-04-05T18:11:45Z</time></trkpt>
      <trkpt lat="-48.427984" lon="-123.601011"><ele>30.2</ele><time>2031-04-05T18:11:50Z</time></trkpt>
      <trkpt lat="-48.428024" lon="-123.601677"><ele>31.0</ele><time>2031-04-05T18:11:55Z</time></trkpt>
      <trkpt lat="-48.428030" lon="-123.602303"><ele>32.3</ele><time>2031-04-05T18:12:00Z</time></trkpt>
      <trkpt lat="-48.428105" lon="-123.602930"><ele>33.3</ele><time>2031-04-05T18:12:05Z</time></trkpt>
      <trkpt lat="-48.428190" lon="-123.603595"><ele>34.7</ele><time>2031-04-05T18:12:10Z</time></trkpt>
      <trkpt lat="-48.428291" lon="-123.604188"><ele>36.1</ele><time>2031-04-05T18:12:15Z</time></trkpt>
      <trkpt lat="-48.428413" lon="-123.604889"><ele>37.6</ele><time>2031-04-05T18:12:20Z</time></trkpt>
      <trkpt lat="-48.428475" lon="-123.605504"><ele>39.0</ele><time>2031-04-05T18:12:25Z</time></trkpt>
      <trkpt lat="-48.428495" lon="-123.606148"><ele>40.0</ele><time>2031-04-05T18:12:30Z</time></trkpt>
      <trkpt lat="-48.428455" lon="-123.606786"><ele>40.9</ele><time>2031-04-05T18:12:35Z</time></trkpt>
      <trkpt lat="-48.428341" lon="-123.607455"><ele>42.0</ele><time>2031-04-05T18:12:40Z</time></trkpt>
      <trkpt lat="-48.428211" lon="-123.608106"><ele>43.2</ele><time>2031-04-05T18:12:45Z</time></trkpt>
      <trkpt lat="-48.428086" lon="-123.608689"><ele>44.7</ele><time>2031-04-05T18:12:50Z</time></trkpt>
      <trkpt lat="-48.427961" lon="-123.609361"><ele>45.5</ele><time>2031-04-05T18:12:55Z</time></trkpt>
      <trkpt lat="-48.427895" lon="-123.610002"><ele>47.0</ele><time>2031-04-05T18:13:00Z</time></trkpt>
      <trkpt lat="-48.427778" lon="-123.610557"><ele>47.9</ele><time>2031-04-05T18:13:05Z</time></trkpt>
      <trkpt lat="-48.427679" lon="-123.611173"><ele>49.0</ele><time>2031-04-05T18:13:10Z</time></trkpt>
      <trkpt lat="-48.427627" lon="-123.611810"><ele>50.4</ele><time>2031-04-05T18:13:15Z</time></trkpt>
      <trkpt lat="-48.427638" lon="-123.612404"><ele>51.7</ele><time>2031-04-05T18:13:20Z</time></trkpt>
      <trkpt lat="-48.427665" lon="-123.613051"><ele>52.9</ele><time>2031-04-05T18:13:25Z</time></trkpt>
      <trkpt lat="-48.427635" lon="-123.613631"><ele>53.9</ele><time>2031-04-05T18:13:30Z</time></trkpt>
      <trkpt lat="-48.427554" lon="-123.614241"><ele>54.9</ele><time>2031-04-05T18:13:35Z</time></trkpt>
      <trkpt lat="-48.427441" lon="-123.614887"><ele>56.0</ele><time>2031-04-05T18:13:40Z</time></trkpt>
      <trkpt lat="-48.427358" lon="-123.615503"><ele>56.9</ele><time>2031-04-05T18:13:45Z</time></trkpt>
      <trkpt lat="-48.427207" lon="-123.616112"><ele>58.1</ele><time>2031-04-05T18:13:50Z</time></trkpt>
      <trkpt lat="-48.427096" lon="-123.616698"><ele>59.1</ele><time>2031-04-05T18:13:55Z</time></trkpt>
      <trkpt lat="-48.426931" lon="-123.617254"><ele>60.6</ele><time>2031-04-05T18:14:00Z</time></trkpt>
      <trkpt lat="-48.426791" lon="-123.617822"><ele>61.4</ele><time>2031-04-05T18:14:05Z</time></trkpt>
      <trkpt lat="-48.426650" lon="-123.618468"><ele>62.6</ele><time>2031-04-05T18:14:10Z</time></trkpt>
      <trkpt lat="-48.426468" lon="-123.618978"><ele>63.9</ele><time>2031-04-05T18:14:15Z</time></trkpt>
      <trkpt lat="-48.426228" lon="-123.619471"><ele>65.4</ele><time>2031-04-05T18:14:20Z</time></trkpt>
      <trkpt lat="-48.426000" lon="-123.619930"><ele>66.9</ele><time>2031-04-05T18:14:25Z</time></trkpt>
      <trkpt lat="-48.425727" lon="-123.620432"><ele>68.3</ele><time>2031-04-05T18:14:30Z</time></trkpt>
      <trkpt lat="-48.425523" lon="-123.620930"><ele>69.3</ele><time>2031-04-05T18:14:35Z</time></trkpt>
      <trkpt lat="-48.425311" lon="-123.621360"><ele>70.5</ele><time>2031-04-05T18:14:40Z</time></trkpt>
      <trkpt lat="-48.425112" lon="-123.621867"><ele>71.7</ele><time>2031-04-05T18:14:45Z</time></trkpt>
      <trkpt lat="-48.424949" lon="-123.622462"><ele>72.6</ele><time>2031-04-05T18:14:50Z</time></trkpt>
      <trkpt lat="-48.424861" lon="-123.622976"><ele>73.7</ele><time>2031-04-05T18:14:55Z</time></trkpt>
      <trkpt lat="-48.424785" lon="-123.623602"><ele>74.8</ele><time>2031-04-05T18:15:00Z</time></trkpt>
      <trkpt lat="-48.424713" lon="-123.624174"><ele>75.5</ele><time>2031-04-05T18:15:05Z</time></trkpt>
      <trkpt lat="-48.424665" lon="-123.624820"><ele>76.1</ele><time>2031-04-05T18:15:10Z</time></trkpt>
      <trkpt lat="-48.424598" lon="-123.625422"><ele>77.4</ele><time>2031-04-05T18:15:15Z</time></trkpt>
      <trkpt lat="-48.424519" lon="-123.626018"><ele>78.7</ele><time>2031-04-05T18:15:20Z</time></trkpt>
      <trkpt lat="-48.424474" lon="-123.626538"><ele>79.5</ele><time>2031-04-05T18:15:25Z</time></trkpt>
      <trkpt lat="-48.424465" lon="-123.627165"><ele>80.2</ele><time>2031-04-05T18:15:30Z</time></trkpt>
      <trkpt lat="-48.424476" lon="-123.627691"><ele>80.9</ele><time>2031-04-05T18:15:35Z</time></trkpt>
      <trkpt lat="-48.424443" lon="-123.628192"><ele>81.5</ele><time>2031-04-05T18:15:40Z</time></trkpt>
      <trkpt lat="-48.424444" lon="-123.628697"><ele>82.2</ele><time>2031-04-05T18:15:45Z</time></trkpt>
      <trkpt lat="-48.424404" lon="-123.629296"><ele>82.9</ele><time>2031-04-05T18:15:50Z</time></trkpt>
      <trkpt lat="-48.424408" lon="-123.629830"><ele>83.6</ele><time>2031-04-05T18:15:55Z</time></trkpt>
      <trkpt lat="-48.424352" lon="-123.630423"><ele>84.7</ele><time>2031-04-05T18:16:00Z</time></trkpt>
      <trkpt lat="-48.424241" lon="-123.631018"><ele>85.1</ele><time>2031-04-05T18:16:05Z</time></trkpt>
      <trkpt lat="-48.424154" lon="-123.631597"><ele>86.0</ele><time>2031-04-05T18:16:10Z</time></trkpt>
      <trkpt lat="-48.424023" lon="-123.632166"><ele>86.7</ele><time>2031-04-05T18:16:15Z</time></trkpt>
      <trkpt lat="-48.423863" lon="-123.632722"><ele>87.3</ele><time>2031-04-05T18:16:20Z</time></trkpt>
      <trkpt lat="-48.423739" lon="-123.633192"><ele>88.3</ele><time>2031-04-05T18:16:25Z</time></trkpt>
      <trkpt lat="-48.423608" lon="-123.633633"><ele>89.2</ele><time>2031-04-05T18:16:30Z</time></trkpt>
      <trkpt lat="-48.423454" lon="-123.634084"><ele>90.1</ele><time>2031-04-05T18:16:35Z</time></trkpt>
      <trkpt lat="-48.423274" lon="-123.634470"><ele>90.4</ele><time>2031-04-05T18:16:40Z</time></trkpt>
      <trkpt lat="-48.423091" lon="-123.634910"><ele>91.1</ele><time>2031-04-05T18:16:45Z</time></trkpt>
      <trkpt lat="-48.422925" lon="-123.635316"><ele>91.5</ele><time>2031-04-05T18:16:50Z</time></trkpt>
      <trkpt lat="-48.422752" lon="-123.635710"><ele>92.2</ele><time>2031-04-05T18:16:55Z</time></trkpt>
      <trkpt lat="-48.422599" lon="-123.636198"><ele>92.2</ele><time>2031-04-05T18:17:00Z</time></trkpt>
      <trkpt lat="-48.422403" lon="-123.636634"><ele>92.9</ele><time>2031-04-05T18:17:05Z</time></trkpt>
      <trkpt lat="-48.422220" lon="-123.637121"><ele>93.3</ele><time>2031-04-05T18:17:10Z</time></trkpt>
      <trkpt lat="-48.422040" lon="-123.637578"><ele>93.8</ele><time>2031-04-05T18:17:15Z</time></trkpt>
      <trkpt lat="-48.421844" lon="-123.637942"><ele>94.4</ele><time>2031-04-05T18:17:20Z</time></trkpt>
      <trkpt lat="-48.421649" lon="-123.638303"><ele>95.0</ele><time>2031-04-05T18:17:25Z</time></trkpt>
      <trkpt lat="-48.421467" lon="-123.638765"><ele>94.9</ele><time>2031-04-05T18:17:30Z</time></trkpt>
      <trkpt lat="-48.421303" lon="-123.639166"><ele>94.8</ele><time>2031-04-05T18:17:35Z</time></trkpt>
      <trkpt lat="-48.421177" lon="-123.639559"><ele>95.2</ele><time>2031-04-05T18:17:40Z</time></trkpt>
      <trkpt lat="-48.421022" lon="-123.639982"><ele>95.7</ele><time>2031-04-05T18:17:45Z</time></trkpt>
      <trkpt lat="-48.420893" lon="-123.640462"><ele>96.0</ele><time>2031-04-05T18:17:50Z</time></trkpt>
      <trkpt lat="-48.420787" lon="-123.640866"><ele>95.8</ele><time>2031-04-05T18:17:55Z</time></trkpt>
      <trkpt lat="-48.420677" lon="-123.641287"><ele>95.8</ele><time>2031-04-05T18:18:00Z</time></trkpt>
      <trkpt lat="-48.420580" lon="-123.641742"><ele>95.4</ele><time>2031-04-05T18:18:05Z</time></trkpt>
      <trkpt lat="-48.420458" lon="-123.642133"><ele>95.4</ele><time>2031-04-05T18:18:10Z</time></trkpt>
      <trkpt lat="-48.420283" lon="-123.642553"><ele>95.1</ele><time>2031-04-05T18:18:15Z</time></trkpt>
      <trkpt lat="-48.420141" lon="-123.642985"><ele>94.9</ele><time>2031-04-05T18:18:20Z</time></trkpt>
      <trkpt lat="-48.419999" lon="-123.643436"><ele>95.1</ele><time>2031-04-05T18:18:25Z</time></trkpt>
      <trkpt lat="-48.419857" lon="-123.643827"><ele>94.6</ele><time>2031-04-05T18:18:30Z</time></trkpt>
      <trkpt lat="-48.419739" lon="-123.644314"><ele>94.4</ele><time>2031-04-05T18:18:35Z</time></trkpt>
      <trkpt lat="-48.419610" lon="-123.644749"><ele>94.0</ele><time>2031-04-05T18:18:40Z</time></trkpt>
      <trkpt lat="-48.419465" lon="-123.645143"><ele>93.4</ele><time>2031-04-05T18:18:45Z</time></trkpt>
      <trkpt lat="-48.419314" lon="-123.645533"><ele>93.4</ele><time>2031-04-05T18:18:50Z</time></trkpt>
      <trkpt lat="-48.419213" lon="-123.645885"><ele>92.9</ele><time>2031-04-05T18:18:55Z</time></trkpt>
      <trkpt lat="-48.419115" lon="-123.646225"><ele>92.3</ele><time>2031-04-05T18:19:00Z</time></trkpt>
      <trkpt lat="-48.419021" lon="-123.646657"><ele>92.0</ele><time>2031-04-05T18:19:05Z</time></trkpt>
      <trkpt lat="-48.418935" lon="-123.647091"><ele>91.6</ele><time>2031-04-05T18:19:10Z</time></trkpt>
      <trkpt lat="-48.418853" lon="-123.647554"><ele>91.2</ele><time>2031-04-05T18:19:15Z</time></trkpt>
      <trkpt lat="-48.418820" lon="-123.647932"><ele>90.5</ele><time>2031-04-05T18:19:20Z</time></trkpt>
      <trkpt lat="-48.418762" lon="-123.648281"><ele>89.6</ele><time>2031-04-05T18:19:25Z</time></trkpt>
      <trkpt lat="-48.418684" lon="-123.648691"><ele>88.9</ele><time>2031-04-05T18:19:30Z</time></trkpt>
      <trkpt lat="-48.418642" lon="-123.649041"><ele>88.5</ele><time>2031-04-05T18:19:35Z</time></trkpt>
      <trkpt lat="-48.418623" lon="-123.649458"><ele>87.7</ele><time>2031-04-05T18:19:40Z</time></trkpt>
      <trkpt lat="-48.418565" lon="-123.649815"><ele>87.4</ele><time>2031-04-05T18:19:45Z</time></trkpt>
      <trkpt lat="-48.418467" lon="-123.650168"><ele>86.4</ele><time>2031-04-05T18:19:50Z</time></trkpt>
      <trkpt lat="-48.418347" lon="-123.650531"><ele>85.8</ele><time>2031-04-05T18:19:55Z</time></trkpt>
      <trkpt lat="-48.418204" lon="-123.650923"><ele>85.1</ele><time>2031-04-05T18:20:00Z</time></trkpt>
      <trkpt lat="-48.418117" lon="-123.651300"><ele>84.0</ele><time>2031-04-05T18:20:05Z</time></trkpt>
      <trkpt lat="-48.418028" lon="-123.651693"><ele>83.2</ele><time>2031-04-05T18:20:10Z</time></trkpt>
      <trkpt lat="-48.417939" lon="-123.652034"><ele>82.8</ele><time>2031-04-05T18:20:15Z</time></trkpt>
      <trkpt lat="-48.417819" lon="-123.652450"><ele>82.2</ele><time>2031-04-05T18:20:20Z</time></trkpt>
      <trkpt lat="-48.417659" lon="-123.652826"><ele>81.4</ele><time>2031-04-05T18:20:25Z</time></trkpt>
      <trkpt lat="-48.417546" lon="-123.653105"><ele>80.8</ele><time>2031-04-05T18:20:30Z</time></trkpt>
      <trkpt lat="-48.417415" lon="-123.653423"><ele>80.0</ele><time>2031-04-05T18:20:35Z</time></trkpt>
      <trkpt lat="-48.417313" lon="-123.653704"><ele>79.2</ele><time>2031-04-05T18:20:40Z</time></trkpt>
      <trkpt lat="-48.417196" lon="-123.653989"><ele>78.4</ele><time>2031-04-05T18:20:45Z</time></trkpt>
      <trkpt lat="-48.417080" lon="-123.654330"><ele>77.2</ele><time>2031-04-05T18:20:50Z</time></trkpt>
      <trkpt lat="-48.416976" lon="-123.654592"><ele>76.1</ele><time>2031-04-05T18:20:55Z</time></trkpt>
      <trkpt lat="-48.416866" lon="-123.654975"><ele>74.8</ele><time>2031-04-05T18:21:00Z</time></trkpt>
      <trkpt lat="-48.416803" lon="-123.655299"><ele>74.0</ele><time>2031-04-05T18:21:05Z</time></trkpt>
      <trkpt lat="-48.416694" lon="-123.655655"><ele>73.0</ele><time>2031-04-05T18:21:10Z</time></trkpt>
      <trkpt lat="-48.416570" lon="-123.655949"><ele>71.6</ele><time>2031-04-05T18:21:15Z</time></trkpt>
      <trkpt lat="-48.416448" lon="-123.656276"><ele>70.8</ele><time>2031-04-05T18:21:20Z</time></trkpt>
      <trkpt lat="-48.416347" lon="-123.656614"><ele>69.6</ele><time>2031-04-05T18:21:25Z</time></trkpt>
      <trkpt lat="-48.416257" lon="-123.656979"><ele>68.8</ele><time>2031-04-05T18:21:30Z</time></trkpt>
      <trkpt lat="-48.416203" lon="-123.657294"><ele>67.6</ele><time>2031-04-05T18:21:35Z</time></trkpt>
      <trkpt lat="-48.416127" lon="-123.657615"><ele>66.2</ele><time>2031-04-05T18:21:40Z</time></trkpt>
      <trkpt lat="-48.416017" lon="-123.657937"><ele>65.1</ele><time>2031-04-05T18:21:45Z</time></trkpt>
      <trkpt lat="-48.415943" lon="-123.658194"><ele>63.8</ele><time>2031-04-05T18:21:50Z</time></trkpt>
      <trkpt lat="-48.415845" lon="-123.658452"><ele>62.6</ele><time>2031-04-05T18:21:55Z</time></trkpt>
      <trkpt lat="-48.415750" lon="-123.658798"><ele>61.2</ele><time>2031-04-05T18:22:00Z</time></trkpt>
      <trkpt lat="-48.415707" lon="-123.659065"><ele>59.9</ele><time>2031-04-05T18:22:05Z</time></trkpt>
      <trkpt lat="-48.415662" lon="-123.659385"><ele>58.8</ele><time>2031-04-05T18:22:10Z</time></trkpt>
      <trkpt lat="-48.415643" lon="-123.659768"><ele>57.3</ele><time>2031-04-05T18:22:15Z</time></trkpt>
      <trkpt lat="-48.415614" lon="-123.660071"><ele>56.2</ele><time>2031-04-05T18:22:20Z</time></trkpt>
      <trkpt lat="-48.415590" lon="-123.660330"><ele>54.9</ele><time>2031-04-05T18:22:25Z</time></trkpt>
      <trkpt lat="-48.415557" lon="-123.660663"><ele>54.0</ele><time>2031-04-05T18:22:30Z</time></trkpt>
      <trkpt lat="-48.415484" lon="-123.661029"><ele>52.8</ele><time>2031-04-05T18:22:35Z</time></trkpt>
      <trkpt lat="-48.415425" lon="-123.661343"><ele>51.5</ele><time>2031-04-05T18:22:40Z</time></trkpt>
      <trkpt lat="-48.415350" lon="-123.661665"><ele>50.6</ele><time>2031-04-05T18:22:45Z</time></trkpt>
      <trkpt lat="-48.415304" lon="-123.661933"><ele>49.3</ele><time>2031-04-05T18:22:50Z</time></trkpt>
      <trkpt lat="-48.415240" lon="-123.662269"><ele>48.3</ele><time>2031-04-05T18:22:55Z</time></trkpt>
      <trkpt lat="-48.415175" lon="-123.662492"><ele>47.2</ele><time>2031-04-05T18:23:00Z</time></trkpt>
      <trkpt lat="-48.415103" lon="-123.662787"><ele>45.8</ele><time>2031-04-05T18:23:05Z</time></trkpt>
      <trkpt lat="-48.415024" lon="-123.662994"><ele>44.9</ele><time>2031-04-05T18:23:10Z</time></trkpt>
      <trkpt lat="-48.414930" lon="-123.663183"><ele>43.4</ele><time>2031-04-05T18:23:15Z</time></trkpt>
      <trkpt lat="-48.414801" lon="-123.663443"><ele>42.3</ele><time>2031-04-05T18:23:20Z</time></trkpt>
      <trkpt lat="-48.414684" lon="-123.663683"><ele>40.9</ele><time>2031-04-05T18:23:25Z</time></trkpt>
      <trkpt lat="-48.414561" lon="-123.663890"><ele>39.7</ele><time>2031-04-05T18:23:30Z</time></trkpt>
      <trkpt lat="-48.414436" lon="-123.664138"><ele>38.4</ele><time>2031-04-05T18:23:35Z</time></trkpt>
      <trkpt lat="-48.414338" lon="-123.664363"><ele>37.5</ele><time>2031-04-05T18:23:40Z</time></trkpt>
      <trkpt lat="-48.414229" lon="-123.664556"><ele>36.2</ele><time>2031-04-05T18:23:45Z</time></trkpt>
      <trkpt lat="-48.414133" lon="-123.664726"><ele>35.3</ele><time>2031-04-05T18:23:50Z</time></trkpt>
      <trkpt lat="-48.414003" lon="-123.664964"><ele>34.0</ele><time>2031-04-05T18:23:55Z</time></trkpt>
      <trkpt lat="-48.413888" lon="-123.665140"><ele>33.0</ele><time>2031-04-05T18:24:00Z</time></trkpt>
      <trkpt lat="-48.413762" lon="-123.665404"><ele>31.6</ele><time>2031-04-05T18:24:05Z</time></trkpt>
      <trkpt lat="-48.413656" lon="-123.665711"><ele>30.5</ele><time>2031-04-05T18:24:10Z</time></trkpt>
      <trkpt lat="-48.413583" lon="-123.665897"><ele>29.5</ele><time>2031-04-05T18:24:15Z</time></trkpt>
      <trkpt lat="-48.413474" lon="-123.666110"><ele>28.8</ele><time>2031-04-05T18:24:20Z</time></trkpt>
      <trkpt lat="-48.413394" lon="-123.666311"><ele>27.4</ele><time>2031-04-05T18:24:25Z</time></trkpt>
      <trkpt lat="-48.413322" lon="-123.666520"><ele>26.1</ele><time>2031-04-05T18:24:30Z</time></trkpt>
      <trkpt lat="-48.413213" lon="-123.666755"><ele>24.7</ele><time>2031-04-05T18:24:35Z</time></trkpt>
      <trkpt lat="-48.413101" lon="-123.666973"><ele>23.7</ele><time>2031-04-05T18:24:40Z</time></trkpt>
      <trkpt lat="-48.412977" lon="-123.667145"><ele>22.8</ele><time>2031-04-05T18:24:45Z</time></trkpt>
      <trkpt lat="-48.412851" lon="-123.667355"><ele>21.6</ele><time>2031-04-05T18:24:50Z</time></trkpt>
      <trkpt lat="-48.412752" lon="-123.667515"><ele>20.8</ele><time>2031-04-05T18:24:55Z</time></trkpt>
      <trkpt lat="-48.412662" lon="-123.667712"><ele>19.6</ele><time>2031-04-05T18:25:00Z</time></trkpt>
      <trkpt lat="-48.412563" lon="-123.667868"><ele>19.1</ele><time>2031-04-05T18:25:05Z</time></trkpt>
      <trkpt lat="-48.412397" lon="-123.668094"><ele>18.2</ele><time>2031-04-05T18:25:10Z</time></trkpt>
      <trkpt lat="-48.412283" lon="-123.668239"><ele>17.3</ele><time>2031-04-05T18:25:15Z</time></trkpt>
      <trkpt lat="-48.412123" lon="-123.668468"><ele>16.8</ele><time>2031-04-05T18:25:20Z</time></trkpt>
      <trkpt lat="-48.411997" lon="-123.668673"><ele>15.9</ele><time>2031-04-05T18:25:25Z</time></trkpt>
      <trkpt lat="-48.411915" lon="-123.668839"><ele>15.5</ele><time>2031-04-05T18:25:30Z</time></trkpt>
      <trkpt lat="-48.411806" lon="-123.669135"><ele>14.8</ele><time>2031-04-05T18:25:35Z</time></trkpt>
      <trkpt lat="-48.411730" lon="-123.669340"><ele>14.5</ele><time>2031-04-05T18:25:40Z</time></trkpt>
      <trkpt lat="-48.411637" lon="-123.669560"><ele>13.8</ele><time>2031-04-05T18:25:45Z</time></trkpt>
      <trkpt lat="-48.411518" lon="-123.669772"><ele>13.4</ele><time>2031-04-05T18:25:50Z</time></trkpt>
      <trkpt lat="-48.411394" lon="-123.670003"><ele>12.5</ele><time>2031-04-05T18:25:55Z</time></trkpt>
      <trkpt lat="-48.411298" lon="-123.670193"><ele>11.5</ele><time>2031-04-05T18:26:00Z</time></trkpt>
    </trkseg>
  </trk>
</gpx>
